{
"type": "FeatureCollection",
"name": "ConAdmDelegada_canales",
"crs": { "type": "name", "properties": { "name": "urn:ogc:def:crs:OGC:1.3:CRS84" } },
"features": [
{ "type": "Feature", "properties": { "Nombre": "COLECTOR 4 - 11206", "Datos": "Limpieza Canales 3 y 4", "Estado": "Finalizado", "C Cuenca": "Comite de Cuenca Laguna Setubal", "Obra": "Limpieza Canales 3 y 4", "Tipo": "Canal", "Region": "Region 1", "Cuenca": "10- Los Saladillos", "Código": null, "Localidad": "Recreo, Monte Vera", "Direccion": null, "Resp.": null, "Dpto": "La Capital", "Long (Km)": 11.21 }, "geometry": { "type": "MultiLineString", "coordinates": [ [ [ -60.719644682029042, -31.495436484551092, 0.0 ], [ -60.678916092799611, -31.505387227800821, 0.0 ], [ -60.677552870103547, -31.505930187481866, 0.0 ], [ -60.677290391351029, -31.505740036687779, 0.0 ], [ -60.676950513728656, -31.50572105797875, 0.0 ], [ -60.676787206493614, -31.504276967021646, 0.0 ], [ -60.650724229886784, -31.50885917163253, 0.0 ], [ -60.654184828992705, -31.520959970496012, 0.0 ], [ -60.624540622332233, -31.527423870412424, 0.0 ] ] ] } },
{ "type": "Feature", "properties": { "Nombre": "COLECTOR 3 - TRAMO 1 -  498 M", "Datos": "Limpieza Canales 3 y 4", "Estado": "En Ejecucion", "C Cuenca": "Comite de Cuenca Laguna Setubal", "Obra": "Limpieza Canales 3 y 4", "Tipo": "Canal", "Region": "Region 1", "Cuenca": "10- Los Saladillos", "Código": null, "Localidad": "Recreo, Monte Vera", "Direccion": null, "Resp.": null, "Dpto": "La Capital", "Long (Km)": 0.5 }, "geometry": { "type": "MultiLineString", "coordinates": [ [ [ -60.685235751392192, -31.529860013189253, 0.0 ], [ -60.682875868624585, -31.530338818991481, 0.0 ], [ -60.682077920415892, -31.530495268451649, 0.0 ], [ -60.680090753023357, -31.530655331619052, 0.0 ] ] ] } },
{ "type": "Feature", "properties": { "Nombre": "COLECTOR 3 - TRAMO 2 - 4989 M", "Datos": "Limpieza Canales 3 y 4", "Estado": "En Ejecucion", "C Cuenca": "Comite de Cuenca Laguna Setubal", "Obra": "Limpieza Canales 3 y 4", "Tipo": "Canal", "Region": "Region 1", "Cuenca": "10- Los Saladillos", "Código": null, "Localidad": "Recreo, Monte Vera", "Direccion": null, "Resp.": null, "Dpto": "La Capital", "Long (Km)": 4.99 }, "geometry": { "type": "MultiLineString", "coordinates": [ [ [ -60.718684315558377, -31.507801830477369, 0.0 ], [ -60.691795022383637, -31.514482178565014, 0.0 ], [ -60.695376953687543, -31.525731705204105, 0.0 ], [ -60.684890588366585, -31.528328259535293, 0.0 ] ] ] } },
{ "type": "Feature", "properties": { "Nombre": "Canal Los Ángeles", "Datos": null, "Estado": "Finalizado", "C Cuenca": "Comité Canales Ppales N°3 y 4", "Obra": "Canal Los Ángeles", "Tipo": "Canal", "Region": "Region 3", "Cuenca": "8- Río Salado", "Código": null, "Localidad": "Ceres, san Cristóbal", "Direccion": null, "Resp.": null, "Dpto": "San Cristobal", "Long (Km)": 8.73 }, "geometry": { "type": "MultiLineString", "coordinates": [ [ [ -61.776158600000088, -30.102185100000302, 0.0 ], [ -61.761395800000081, -30.034367100000296, 0.0 ], [ -61.772157190212972, -30.031705261483911, 0.0 ] ] ] } },
{ "type": "Feature", "properties": { "Nombre": "Canal Los Ángeles", "Datos": null, "Estado": "Finalizado", "C Cuenca": "Comité Canales Ppales N°3 y 4", "Obra": "Canal Los Ángeles", "Tipo": "Canal", "Region": "Region 3", "Cuenca": "8- Río Salado", "Código": null, "Localidad": "Ceres, san Cristóbal", "Direccion": null, "Resp.": null, "Dpto": "San Cristobal", "Long (Km)": 0.01 }, "geometry": { "type": "MultiLineString", "coordinates": [ [ [ -61.772157190212972, -30.031705261483911, 0.0 ], [ -61.772210400000077, -30.031692100000285, 0.0 ] ] ] } },
{ "type": "Feature", "properties": { "Nombre": "Desagüe urbano Villa Trinidad", "Datos": null, "Estado": "Finalizado", "C Cuenca": "Comité Canales Ppales N°3 y 4", "Obra": "Desagüe urbano Villa Trinidad", "Tipo": "Desague Urbano", "Region": "Region 3", "Cuenca": "8- Río Salado", "Código": null, "Localidad": "Ceres, san Cristóbal", "Direccion": null, "Resp.": null, "Dpto": "San Cristobal", "Long (Km)": 0.14 }, "geometry": { "type": "MultiLineString", "coordinates": [ [ [ -61.86718220000008, -30.225102000000266, 0.0 ], [ -61.86687708072138, -30.223891877653294, 0.0 ] ] ] } },
{ "type": "Feature", "properties": { "Nombre": "Desagüe urbano Villa Trinidad", "Datos": null, "Estado": "Finalizado", "C Cuenca": "Comité Canales Ppales N°3 y 4", "Obra": "Desagüe urbano Villa Trinidad", "Tipo": "Desague Urbano", "Region": "Region 3", "Cuenca": "8- Río Salado", "Código": null, "Localidad": "Ceres, san Cristóbal", "Direccion": null, "Resp.": null, "Dpto": "San Cristobal", "Long (Km)": 4.76 }, "geometry": { "type": "MultiLineString", "coordinates": [ [ [ -61.86687708072138, -30.223891877653294, 0.0 ], [ -61.86383480000007, -30.211826000000283, 0.0 ], [ -61.861689, -30.20967500000032, 0.0 ], [ -61.859800800000073, -30.209081600000307, 0.0 ], [ -61.857397500000069, -30.208784900000296, 0.0 ], [ -61.830446700000088, -30.213680300000298, 0.0 ] ] ] } },
{ "type": "Feature", "properties": { "Nombre": "Canal Intercomunal Hersilia-Ceres", "Datos": null, "Estado": "Finalizado", "C Cuenca": "Comité Canales Ppales N°3 y 4", "Obra": "Canal Intercomunal Hersilia-Ceres", "Tipo": "Canal", "Region": "Region 3", "Cuenca": "8- Río Salado", "Código": null, "Localidad": "Ceres", "Direccion": null, "Resp.": null, "Dpto": "San Cristobal", "Long (Km)": 20.64 }, "geometry": { "type": "MultiLineString", "coordinates": [ [ [ -61.884801200000076, -29.947605800000314, 0.0 ], [ -61.77515250000009, -29.906879500000311, 0.0 ], [ -61.757969700000082, -29.825901100000287, 0.0 ] ] ] } },
{ "type": "Feature", "properties": { "Nombre": "Battistón canal Terciario", "Datos": null, "Estado": "Finalizado", "C Cuenca": "Comité Canales Ppales N°3 y 4", "Obra": "Battistón canal Terciario", "Tipo": "Canal", "Region": "Region 3", "Cuenca": "8- Río Salado", "Código": null, "Localidad": "Ceres, san Cristóbal", "Direccion": null, "Resp.": null, "Dpto": "San Cristobal", "Long (Km)": 1.07 }, "geometry": { "type": "MultiLineString", "coordinates": [ [ [ -61.767157400000087, -30.123427900000298, 0.0 ], [ -61.765140300000091, -30.113924800000312, 0.0 ] ] ] } },
{ "type": "Feature", "properties": { "Nombre": "Canal Davicino", "Datos": null, "Estado": "Finalizado", "C Cuenca": "Comité Canales Ppales N°3 y 4", "Obra": "Canal Davicino", "Tipo": "Canal", "Region": "Region 3", "Cuenca": "8- Río Salado", "Código": null, "Localidad": "Ceres", "Direccion": null, "Resp.": null, "Dpto": "San Cristobal", "Long (Km)": 4.99 }, "geometry": { "type": "MultiLineString", "coordinates": [ [ [ -61.851855300000068, -29.935448800000312, 0.0 ], [ -61.854001100000076, -29.8905133000003, 0.0 ] ] ] } },
{ "type": "Feature", "properties": { "Nombre": "Canal Camusso", "Datos": null, "Estado": "Finalizado", "C Cuenca": "Comité Canales Ppales N°3 y 4", "Obra": "Canal Camusso", "Tipo": "Canal", "Region": "Region 3", "Cuenca": "8- Río Salado", "Código": null, "Localidad": "Ceres, san Cristóbal", "Direccion": null, "Resp.": null, "Dpto": "San Cristobal", "Long (Km)": 2.54 }, "geometry": { "type": "MultiLineString", "coordinates": [ [ [ -61.897659600000075, -30.0427892000003, 0.0 ], [ -61.875086100000075, -30.054676400000307, 0.0 ] ] ] } },
{ "type": "Feature", "properties": { "Nombre": "Principal Montefiore", "Datos": null, "Estado": "Finalizado", "C Cuenca": "Comité de Montefiore", "Obra": "Principal Montefiore", "Tipo": "Canal", "Region": "Region 3", "Cuenca": "8- Río Salado", "Código": null, "Localidad": "Ceres", "Direccion": null, "Resp.": null, "Dpto": "9 de Julio", "Long (Km)": 28.37 }, "geometry": { "type": "MultiLineString", "coordinates": [ [ [ -61.904575478634548, -29.536020895343714, 0.0 ], [ -61.942141, -29.740624000000306, 0.0 ], [ -61.906991, -29.778507000000303, 0.0 ] ] ] } },
{ "type": "Feature", "properties": { "Nombre": "San Carlos prolongación Secundario", "Datos": null, "Estado": "Finalizado", "C Cuenca": "Comité Canales Ppales N°3 y 4", "Obra": "San Carlos prolongación Secundario", "Tipo": "Canal", "Region": "Region 3", "Cuenca": "8- Río Salado", "Código": null, "Localidad": "Ceres, san Cristóbal", "Direccion": null, "Resp.": null, "Dpto": "San Cristobal", "Long (Km)": 8.04 }, "geometry": { "type": "MultiLineString", "coordinates": [ [ [ -61.753414700000071, -30.188882100000288, 0.0 ], [ -61.764401, -30.194149400000281, 0.0 ], [ -61.767319300000089, -30.196820100000302, 0.0 ], [ -61.77264080000009, -30.197339400000288, 0.0 ], [ -61.778648900000093, -30.200306600000296, 0.0 ], [ -61.79375510000007, -30.201790300000308, 0.0 ], [ -61.805428100000071, -30.205350800000296, 0.0 ], [ -61.821220900000078, -30.209504700000306, 0.0 ], [ -61.830446700000088, -30.213680300000298, 0.0 ] ] ] } },
{ "type": "Feature", "properties": { "Nombre": "San Carlos prolongación Secundario", "Datos": null, "Estado": "Finalizado", "C Cuenca": "Comité Canales Ppales N°3 y 4", "Obra": "San Carlos prolongación Secundario", "Tipo": "Canal", "Region": "Region 3", "Cuenca": "8- Río Salado", "Código": null, "Localidad": "Ceres, san Cristóbal", "Direccion": null, "Resp.": null, "Dpto": "San Cristobal", "Long (Km)": 3.7 }, "geometry": { "type": "MultiLineString", "coordinates": [ [ [ -61.830446700000088, -30.213680300000298, 0.0 ], [ -61.837013800000072, -30.216625100000314, 0.0 ], [ -61.848171800000088, -30.218998500000286, 0.0 ], [ -61.86687708072138, -30.223891877653294, 0.0 ] ] ] } },
{ "type": "Feature", "properties": { "Nombre": "San Carlos prolongación Secundario", "Datos": null, "Estado": "Finalizado", "C Cuenca": "Comité Canales Ppales N°3 y 4", "Obra": "San Carlos prolongación Secundario", "Tipo": "Canal", "Region": "Region 3", "Cuenca": "8- Río Salado", "Código": null, "Localidad": "Ceres, san Cristóbal", "Direccion": null, "Resp.": null, "Dpto": "San Cristobal", "Long (Km)": 0.0 }, "geometry": { "type": "MultiLineString", "coordinates": [ [ [ -61.86687708072138, -30.223891877653294, 0.0 ], [ -61.866882900000085, -30.223893400000293, 0.0 ] ] ] } },
{ "type": "Feature", "properties": { "Nombre": "Canal Ruta 91", "Datos": null, "Estado": "Finalizado", "C Cuenca": "Comité Canales Ppales N°3 y 4", "Obra": "Canal Ruta 91", "Tipo": "Canal", "Region": "Region 3", "Cuenca": "8- Río Salado", "Código": null, "Localidad": "Ceres", "Direccion": null, "Resp.": null, "Dpto": "San Cristobal", "Long (Km)": 11.46 }, "geometry": { "type": "MultiLineString", "coordinates": [ [ [ -61.837177500000095, -29.993330400000289, 0.0 ], [ -61.831770100000071, -29.991472000000311, 0.0 ], [ -61.77387730000008, -29.907062600000287, 0.0 ] ] ] } },
{ "type": "Feature", "properties": { "Nombre": "San Carlos prolongación secundario", "Datos": null, "Estado": "Finalizado", "C Cuenca": "Comité Canales Ppales N°3 y 4", "Obra": "San Carlos prolongación secundario", "Tipo": "Canal", "Region": "Region 3", "Cuenca": "8- Río Salado", "Código": null, "Localidad": "Ceres, san Cristóbal", "Direccion": null, "Resp.": null, "Dpto": "San Cristobal", "Long (Km)": 14.38 }, "geometry": { "type": "MultiLineString", "coordinates": [ [ [ -61.752308200000087, -30.188246300000277, 0.0 ], [ -61.738403600000069, -30.183794800000303, 0.0 ], [ -61.728361400000075, -30.182533500000297, 0.0 ], [ -61.719606700000071, -30.1797883000003, 0.0 ], [ -61.714542700000088, -30.177265500000292, 0.0 ], [ -61.698664, -30.172665100000312, 0.0 ], [ -61.670511500000067, -30.157007300000291, 0.0 ], [ -61.650255500000085, -30.149288800000278, 0.0 ], [ -61.640556600000068, -30.143573700000292, 0.0 ], [ -61.622145900000085, -30.128616500000319, 0.0 ] ] ] } },
{ "type": "Feature", "properties": { "Nombre": "Canal Intercomunal Ceres- Hersilia ", "Datos": null, "Estado": "Finalizado", "C Cuenca": "Comité Canales Ppales N°3 y 4", "Obra": "Canal Intercomunal Ceres- Hersilia ", "Tipo": "Canal", "Region": "Region 3", "Cuenca": "8- Río Salado", "Código": null, "Localidad": "Ceres", "Direccion": null, "Resp.": null, "Dpto": "San Cristobal", "Long (Km)": 11.66 }, "geometry": { "type": "MultiLineString", "coordinates": [ [ [ -61.929522400000074, -29.881569800000289, 0.0 ], [ -61.808865600000075, -29.877458500000305, 0.0 ] ] ] } },
{ "type": "Feature", "properties": { "Nombre": "Canal del Cementerio", "Datos": null, "Estado": "Finalizado", "C Cuenca": "Comité Canales Ppales N°3 y 4", "Obra": "Canal del Cementerio", "Tipo": "Canal", "Region": "Region 3", "Cuenca": "8- Río Salado", "Código": null, "Localidad": "Ceres", "Direccion": null, "Resp.": null, "Dpto": "San Cristobal", "Long (Km)": 10.01 }, "geometry": { "type": "MultiLineString", "coordinates": [ [ [ -61.911914, -29.857861600000295, 0.0 ], [ -61.911613600000081, -29.858029000000297, 0.0 ], [ -61.808445100000078, -29.854437400000297, 0.0 ] ] ] } },
{ "type": "Feature", "properties": { "Nombre": "La Victoria Canal Terciario", "Datos": null, "Estado": "Finalizado", "C Cuenca": "Comité Canales Ppales N°3 y 4", "Obra": "La Victoria Canal Terciario", "Tipo": "Canal", "Region": "Region 3", "Cuenca": "8- Río Salado", "Código": null, "Localidad": "Ceres", "Direccion": null, "Resp.": null, "Dpto": "San Cristobal", "Long (Km)": 22.4 }, "geometry": { "type": "MultiLineString", "coordinates": [ [ [ -61.878513500000068, -29.902844700000298, 0.0 ], [ -61.877998500000068, -29.91452540000029, 0.0 ], [ -61.914219100000082, -29.915567000000284, 0.0 ], [ -61.915849900000083, -29.916608500000287, 0.0 ], [ -61.927073600000092, -29.955462700000293, 0.0 ], [ -62.016615900000076, -30.019950600000289, 0.0 ], [ -62.028331800000068, -30.019987800000283, 0.0 ], [ -62.028503400000083, -30.025635700000283, 0.0 ] ] ] } },
{ "type": "Feature", "properties": { "Nombre": "Clausen Canal Secundario", "Datos": null, "Estado": "Finalizado", "C Cuenca": "Comité Canales Ppales N°3 y 4", "Obra": "Clausen Canal Secundario", "Tipo": "Canal", "Region": "Region 3", "Cuenca": "8- Río Salado", "Código": null, "Localidad": "Ceres, san Cristóbal", "Direccion": null, "Resp.": null, "Dpto": "San Cristobal", "Long (Km)": 7.35 }, "geometry": { "type": "MultiLineString", "coordinates": [ [ [ -61.648118, -29.934808200000301, 0.0 ], [ -61.723007500000072, -29.922764700000311, 0.0 ] ] ] } },
{ "type": "Feature", "properties": { "Nombre": "Nro 4 Canal Principal", "Datos": null, "Estado": "Finalizado", "C Cuenca": "Comité Canales Ppales N°3 y 4", "Obra": "Nro 4 Canal Principal", "Tipo": "Canal", "Region": "Region 3", "Cuenca": "Comité Canales Ppales N°3 y 4", "Código": null, "Localidad": "Ceres, san Cristóbal", "Direccion": null, "Resp.": null, "Dpto": "9 de Julio", "Long (Km)": 11.72 }, "geometry": { "type": "MultiLineString", "coordinates": [ [ [ -61.480571700000084, -29.732812000000301, 0.0 ], [ -61.499111100000057, -29.748313300000287, 0.0 ], [ -61.515590600000095, -29.759267000000314, 0.0 ], [ -61.535932500000072, -29.775360100000295, 0.0 ], [ -61.536277500000089, -29.777270700000301, 0.0 ], [ -61.539109900000085, -29.778462700000283, 0.0 ], [ -61.552585300000089, -29.788370300000288, 0.0 ], [ -61.553272, -29.789413200000293, 0.0 ], [ -61.566578800000073, -29.796997800000295, 0.0 ], [ -61.569777, -29.802490000000294, 0.0 ] ] ] } },
{ "type": "Feature", "properties": { "Nombre": "Nro 4 Canal Principal", "Datos": null, "Estado": "Finalizado", "C Cuenca": "Comité Canales Ppales N°3 y 4", "Obra": "Nro 4 Canal Principal", "Tipo": "Canal", "Region": "Region 3", "Cuenca": "8- Río Salado", "Código": null, "Localidad": "Ceres, san Cristóbal", "Direccion": null, "Resp.": null, "Dpto": "San Cristobal", "Long (Km)": 37.57 }, "geometry": { "type": "MultiLineString", "coordinates": [ [ [ -61.569777, -29.802490000000294, 0.0 ], [ -61.57971090000008, -29.811446500000301, 0.0 ], [ -61.584131200000094, -29.815393500000297, 0.0 ], [ -61.594774200000082, -29.817627500000295, 0.0 ], [ -61.595718400000081, -29.819414700000291, 0.0 ], [ -61.595975800000083, -29.821239100000287, 0.0 ], [ -61.596190400000076, -29.82231890000028, 0.0 ], [ -61.59692, -29.823547500000313, 0.0 ], [ -61.596962900000065, -29.824552800000319, 0.0 ], [ -61.618678100000068, -29.925287100000308, 0.0 ], [ -61.619107200000073, -29.926700400000303, 0.0 ], [ -61.631896, -29.936965200000287, 0.0 ], [ -61.632926, -29.937783400000292, 0.0 ], [ -61.634900100000081, -29.9371140000003, 0.0 ], [ -61.648118, -29.934808200000301, 0.0 ], [ -61.672751400000088, -29.934808200000301, 0.0 ], [ -61.67481130000008, -29.935923900000329, 0.0 ], [ -61.686226800000092, -29.988645000000297, 0.0 ], [ -61.71704, -30.000315700000311, 0.0 ], [ -61.729828800000092, -30.017819200000286, 0.0 ], [ -61.730129200000071, -30.018413700000302, 0.0 ], [ -61.731373800000092, -30.02146070000029, 0.0 ], [ -61.73188870000007, -30.022092400000297, 0.0 ], [ -61.733605400000087, -30.022352500000284, 0.0 ], [ -61.746651600000092, -30.020606100000297, 0.0 ], [ -61.753046, -30.02313280000029, 0.0 ], [ -61.753303500000087, -30.023838800000302, 0.0 ], [ -61.753561, -30.02465620000029, 0.0 ], [ -61.772157190212972, -30.031705261483911, 0.0 ] ] ] } },
{ "type": "Feature", "properties": { "Nombre": "Nro 4 Canal Principal", "Datos": null, "Estado": "Finalizado", "C Cuenca": "Comité Canales Ppales N°3 y 4", "Obra": "Nro 4 Canal Principal", "Tipo": "Canal", "Region": "Region 3", "Cuenca": "8- Río Salado", "Código": null, "Localidad": "Ceres, san Cristóbal", "Direccion": null, "Resp.": null, "Dpto": "San Cristobal", "Long (Km)": 5.71 }, "geometry": { "type": "MultiLineString", "coordinates": [ [ [ -61.772157190212972, -30.031705261483911, 0.0 ], [ -61.778065600000069, -30.033944900000286, 0.0 ], [ -61.780109900000078, -30.033775300000304, 0.0 ], [ -61.78083950000007, -30.034128300000294, 0.0 ], [ -61.78416540000007, -30.039719600000304, 0.0 ], [ -61.784852, -30.040276900000304, 0.0 ], [ -61.78648280000008, -30.040351200000298, 0.0 ], [ -61.818795900000083, -30.033414800000298, 0.0 ], [ -61.825061600000083, -30.035718300000269, 0.0 ] ] ] } },
{ "type": "Feature", "properties": { "Nombre": "Defensa ciudad Ceres", "Datos": null, "Estado": "Finalizado", "C Cuenca": "Comité Canales Ppales N°3 y 4", "Obra": "Defensa ciudad Ceres", "Tipo": "Defensa", "Region": "Region 3", "Cuenca": "8- Río Salado", "Código": null, "Localidad": "Ceres", "Direccion": null, "Resp.": null, "Dpto": "San Cristobal", "Long (Km)": 7.96 }, "geometry": { "type": "MultiLineString", "coordinates": [ [ [ -61.957744900000094, -29.870700100000295, 0.0 ], [ -61.957744900000066, -29.870942000000301, 0.0 ], [ -61.964439700000085, -29.871146700000278, 0.0 ], [ -61.96347590000007, -29.8940237000003, 0.0 ], [ -61.93802710000007, -29.899641500000296, 0.0 ], [ -61.936310500000083, -29.893726000000292, 0.0 ], [ -61.926201200000079, -29.904462700000291, 0.0 ] ] ] } },
{ "type": "Feature", "properties": { "Nombre": "Charabón", "Datos": null, "Estado": "Finalizado", "C Cuenca": "Comité de Montefiore", "Obra": "Charabón", "Tipo": "Canal", "Region": "Region 3", "Cuenca": "8- Río Salado", "Código": null, "Localidad": "Ceres", "Direccion": null, "Resp.": null, "Dpto": "9 de Julio", "Long (Km)": 7.29 }, "geometry": { "type": "MultiLineString", "coordinates": [ [ [ -61.965768, -29.512307000000281, 0.0 ], [ -61.955237900000078, -29.527522900000299, 0.0 ], [ -61.945968200000081, -29.533497400000282, 0.0 ], [ -61.918159, -29.535439000000313, 0.0 ], [ -61.918159, -29.536783200000283, 0.0 ], [ -61.904239873519622, -29.536646927961982, 0.0 ] ] ] } },
{ "type": "Feature", "properties": { "Nombre": "Bolatti Canal Principal", "Datos": null, "Estado": "Finalizado", "C Cuenca": "Comité Canales Ppales N°3 y 4", "Obra": "Bolatti Canal Principal", "Tipo": "Canal", "Region": "Region 3", "Cuenca": "8- Río Salado", "Código": null, "Localidad": "Ceres, san Cristóbal", "Direccion": null, "Resp.": null, "Dpto": "San Cristobal", "Long (Km)": 31.26 }, "geometry": { "type": "MultiLineString", "coordinates": [ [ [ -61.392065100000082, -30.018637100000284, 0.0 ], [ -61.392268, -30.022729000000311, 0.0 ], [ -61.394125100000075, -30.024730900000296, 0.0 ], [ -61.397987400000069, -30.025622700000298, 0.0 ], [ -61.405823800000093, -30.024373700000293, 0.0 ], [ -61.443074300000085, -30.018577100000289, 0.0 ], [ -61.490882, -30.010104500000288, 0.0 ], [ -61.50083830000009, -30.01448950000028, 0.0 ], [ -61.501267500000075, -30.015530000000293, 0.0 ], [ -61.510108, -30.019394600000282, 0.0 ], [ -61.510537200000087, -30.021103800000301, 0.0 ], [ -61.51560120000007, -30.026417300000279, 0.0 ], [ -61.520085900000076, -30.031098800000287, 0.0 ], [ -61.520879800000074, -30.031098800000304, 0.0 ], [ -61.521051500000077, -30.031841900000302, 0.0 ], [ -61.534526900000081, -30.043451800000302, 0.0 ], [ -61.534569800000071, -30.044752000000287, 0.0 ], [ -61.535471, -30.04493770000029, 0.0 ], [ -61.564610500000086, -30.060167600000277, 0.0 ], [ -61.570618700000075, -30.061356200000294, 0.0 ], [ -61.574910200000083, -30.063287600000294, 0.0 ], [ -61.59454950000007, -30.076975900000306, 0.0 ], [ -61.597467800000075, -30.078164300000282, 0.0 ], [ -61.600386, -30.079946800000283, 0.0 ], [ -61.60605080000007, -30.084551500000305, 0.0 ], [ -61.610857400000079, -30.087076600000305, 0.0 ], [ -61.616007200000091, -30.08989870000029, 0.0 ], [ -61.62098540000008, -30.0913840000003, 0.0 ], [ -61.64227140000007, -30.1034138000003, 0.0 ], [ -61.654042200000085, -30.110813000000316, 0.0 ], [ -61.658419600000066, -30.113560100000292, 0.0 ], [ -61.661509500000072, -30.115267800000296, 0.0 ], [ -61.664170200000093, -30.118831500000301, 0.0 ] ] ] } },
{ "type": "Feature", "properties": { "Nombre": "Nro 3. Tramo tres. Canal Principal", "Datos": null, "Estado": "Finalizado", "C Cuenca": "Comité Canales Ppales N°3 y 4", "Obra": "Nro 3. Tramo tres. Canal Principal", "Tipo": "Canal", "Region": "Region 3", "Cuenca": "8- Río Salado", "Código": null, "Localidad": "Ceres, san Cristóbal", "Direccion": null, "Resp.": null, "Dpto": "San Cristobal", "Long (Km)": 44.58 }, "geometry": { "type": "MultiLineString", "coordinates": [ [ [ -61.361952300000077, -30.088675700000291, 0.0 ], [ -61.366930500000073, -30.087933000000298, 0.0 ], [ -61.387529900000068, -30.103824600000294, 0.0 ], [ -61.424651600000075, -30.112994500000291, 0.0 ], [ -61.427226600000054, -30.11937950000031, 0.0 ], [ -61.434093, -30.127842700000297, 0.0 ], [ -61.441474500000083, -30.133336000000298, 0.0 ], [ -61.451087500000085, -30.141352700000301, 0.0 ], [ -61.45838310000007, -30.15768090000029, 0.0 ], [ -61.458769300000078, -30.158868300000321, 0.0 ], [ -61.460400100000093, -30.15886830000029, 0.0 ], [ -61.462803400000091, -30.157309900000307, 0.0 ], [ -61.534755900000079, -30.144813700000302, 0.0 ], [ -61.593981400000068, -30.134566900000284, 0.0 ], [ -61.647024800000082, -30.1227635000003, 0.0 ], [ -61.665724600000068, -30.131948700000279, 0.0 ], [ -61.691731300000072, -30.144344800000304, 0.0 ], [ -61.693533700000081, -30.143899400000301, 0.0 ], [ -61.734045800000075, -30.158594600000285, 0.0 ], [ -61.770266300000088, -30.151618400000302, 0.0 ] ] ] } },
{ "type": "Feature", "properties": { "Nombre": "Limpieza", "Datos": "Comuna Marcelino Escalada", "Estado": "Finalizado", "C Cuenca": "Por Localidad", "Obra": "“CONSTRUCCION DE ALCANTARILLAS EN ZONA RURAL DEL DISTRITO MARCELINO ESCALADA – DEPARTAMENTO SAN JUSTO – PROVINCIA DE SANTA FE”", "Tipo": "Canal", "Region": "Region 3", "Cuenca": "8- Río Salado", "Código": null, "Localidad": "Marcelino Escalada", "Direccion": null, "Resp.": null, "Dpto": "San Justo", "Long (Km)": 1.06 }, "geometry": { "type": "MultiLineString", "coordinates": [ [ [ -60.525050370977944, -30.571459372924011, 0.0 ], [ -60.534041033721692, -30.570084804473929, 0.0 ], [ -60.534013050282844, -30.57174754011951, 0.0 ] ] ] } },
{ "type": "Feature", "properties": { "Nombre": "doble hilera tubos de 1000mm", "Datos": null, "Estado": "En Ejecucion", "C Cuenca": "Ejecutado por Localidad", "Obra": "“DESAGÜES PLUVIALES CIUDAD DE VERA - CONDUCTO CALLE BELGRANO - SEGUNDA ETAPA – DEPARTAMENTO VERA – PROVINCIA DE SANTA FE”", "Tipo": "Desague", "Region": "Region 1", "Cuenca": "10- Los Saladillos", "Código": null, "Localidad": "Vera", "Direccion": null, "Resp.": "Municipalidad de Vera", "Dpto": "Vera", "Long (Km)": 0.35 }, "geometry": { "type": "MultiLineString", "coordinates": [ [ [ -60.213390443991578, -29.467578971380046, 0.0 ], [ -60.21399139651195, -29.470662546956639, 0.0 ] ] ] } },
{ "type": "Feature", "properties": { "Nombre": "Simple hilera tubos de 1000mm", "Datos": null, "Estado": "En Ejecucion", "C Cuenca": "Ejecutado por Localidad", "Obra": "“DESAGÜES PLUVIALES CIUDAD DE VERA - CONDUCTO CALLE BELGRANO - SEGUNDA ETAPA – DEPARTAMENTO VERA – PROVINCIA DE SANTA FE”", "Tipo": "Desague", "Region": "Region 1", "Cuenca": "10- Los Saladillos", "Código": null, "Localidad": "Vera", "Direccion": null, "Resp.": "Municipalidad de Vera", "Dpto": "Vera", "Long (Km)": 0.01 }, "geometry": { "type": "MultiLineString", "coordinates": [ [ [ -60.213435833261904, -29.467754031343148, 0.0 ], [ -60.213358697301302, -29.467764088291936, 0.0 ] ] ] } },
{ "type": "Feature", "properties": { "Nombre": "Simple hilera tubos de 1000mm", "Datos": null, "Estado": "En Ejecucion", "C Cuenca": "Ejecutado por Localidad", "Obra": "“DESAGÜES PLUVIALES CIUDAD DE VERA - CONDUCTO CALLE BELGRANO - SEGUNDA ETAPA – DEPARTAMENTO VERA – PROVINCIA DE SANTA FE”“DESAGÜES PLUVIALES CIUDAD DE VERA - CONDUCTO CALLE BELGRANO - SEGUNDA ETAPA – DEPARTAMENTO VERA – PROVINCIA DE SANTA", "Tipo": "Desague", "Region": "Region 1", "Cuenca": "10- Los Saladillos", "Código": null, "Localidad": "Vera", "Direccion": null, "Resp.": "Municipalidad de Vera", "Dpto": "Vera", "Long (Km)": 0.02 }, "geometry": { "type": "MultiLineString", "coordinates": [ [ [ -60.213325592041528, -29.467559464799447, 0.0 ], [ -60.213349480676584, -29.467763025437939, 0.0 ] ] ] } },
{ "type": "Feature", "properties": { "Nombre": "canal existente", "Datos": null, "Estado": "En Ejecucion", "C Cuenca": "Ejecutado por Localidad", "Obra": "“DESAGÜES PLUVIALES CIUDAD DE VERA - CONDUCTO CALLE BELGRANO - SEGUNDA ETAPA – DEPARTAMENTO VERA – PROVINCIA DE SANTA FE”", "Tipo": "Canal", "Region": "Region 1", "Cuenca": "10- Los Saladillos", "Código": null, "Localidad": "Vera", "Direccion": null, "Resp.": "Municipalidad de Vera", "Dpto": "Vera", "Long (Km)": 0.01 }, "geometry": { "type": "MultiLineString", "coordinates": [ [ [ -60.2134017378634, -29.467576405734285, 0.0 ], [ -60.213474834039417, -29.467574145312483, 0.0 ] ] ] } },
{ "type": "Feature", "properties": { "Nombre": "hilera 400mm", "Datos": null, "Estado": "En Ejecucion", "C Cuenca": "Ejecutado por Localidad", "Obra": "“DESAGÜES PLUVIALES CIUDAD DE VERA - CONDUCTO CALLE BELGRANO - SEGUNDA ETAPA – DEPARTAMENTO VERA – PROVINCIA DE SANTA FE”", "Tipo": "Desague", "Region": "Region 1", "Cuenca": "10- Los Saladillos", "Código": null, "Localidad": "Vera", "Direccion": null, "Resp.": "Municipalidad de Vera", "Dpto": "Vera", "Long (Km)": 0.01 }, "geometry": { "type": "MultiLineString", "coordinates": [ [ [ -60.213647105257444, -29.468834977102631, 0.0 ], [ -60.213550689612141, -29.468850178713428, 0.0 ] ] ] } },
{ "type": "Feature", "properties": { "Nombre": "hilera 400mm", "Datos": null, "Estado": "En Ejecucion", "C Cuenca": "Ejecutado por Localidad", "Obra": "“DESAGÜES PLUVIALES CIUDAD DE VERA - CONDUCTO CALLE BELGRANO - SEGUNDA ETAPA – DEPARTAMENTO VERA – PROVINCIA DE SANTA FE”", "Tipo": "Desague", "Region": "Region 1", "Cuenca": "10- Los Saladillos", "Código": null, "Localidad": "Vera", "Direccion": null, "Resp.": "Municipalidad de Vera", "Dpto": "Vera", "Long (Km)": 0.01 }, "geometry": { "type": "MultiLineString", "coordinates": [ [ [ -60.213801016727615, -29.469636342672029, 0.0 ], [ -60.213712344367764, -29.469656253639783, 0.0 ] ] ] } },
{ "type": "Feature", "properties": { "Nombre": "hilera 400mm", "Datos": null, "Estado": "En Ejecucion", "C Cuenca": "Ejecutado por Localidad", "Obra": "“DESAGÜES PLUVIALES CIUDAD DE VERA - CONDUCTO CALLE BELGRANO - SEGUNDA ETAPA – DEPARTAMENTO VERA – PROVINCIA DE SANTA FE”", "Tipo": "Desague", "Region": "Region 1", "Cuenca": "10- Los Saladillos", "Código": null, "Localidad": "Vera", "Direccion": null, "Resp.": "Municipalidad de Vera", "Dpto": "Vera", "Long (Km)": 0.01 }, "geometry": { "type": "MultiLineString", "coordinates": [ [ [ -60.213839857741448, -29.4698681323184, 0.0 ], [ -60.213769435948528, -29.46988124746828, 0.0 ] ] ] } },
{ "type": "Feature", "properties": { "Nombre": "hilera 400mm", "Datos": null, "Estado": "En Ejecucion", "C Cuenca": "Ejecutado por Localidad", "Obra": "“DESAGÜES PLUVIALES CIUDAD DE VERA - CONDUCTO CALLE BELGRANO - SEGUNDA ETAPA – DEPARTAMENTO VERA – PROVINCIA DE SANTA FE”", "Tipo": "Desague", "Region": "Region 1", "Cuenca": "10- Los Saladillos", "Código": null, "Localidad": "Vera", "Direccion": null, "Resp.": "Municipalidad de Vera", "Dpto": "Vera", "Long (Km)": 0.01 }, "geometry": { "type": "MultiLineString", "coordinates": [ [ [ -60.213997779515971, -29.470663596218383, 0.0 ], [ -60.213919643400104, -29.470673760829353, 0.0 ] ] ] } },
{ "type": "Feature", "properties": { "Nombre": "hilera 400mm", "Datos": null, "Estado": "En Ejecucion", "C Cuenca": "Ejecutado por Localidad", "Obra": "“DESAGÜES PLUVIALES CIUDAD DE VERA - CONDUCTO CALLE BELGRANO - SEGUNDA ETAPA – DEPARTAMENTO VERA – PROVINCIA DE SANTA FE”", "Tipo": "Desague", "Region": "Region 1", "Cuenca": "10- Los Saladillos", "Código": null, "Localidad": "Vera", "Direccion": null, "Resp.": "Municipalidad de Vera", "Dpto": "Vera", "Long (Km)": 0.01 }, "geometry": { "type": "MultiLineString", "coordinates": [ [ [ -60.214086783599328, -29.470986629286678, 0.0 ], [ -60.213986450880476, -29.471007320708928, 0.0 ] ] ] } },
{ "type": "Feature", "properties": { "Nombre": "hilera 400mm", "Datos": null, "Estado": "En Ejecucion", "C Cuenca": "Ejecutado por Localidad", "Obra": "“DESAGÜES PLUVIALES CIUDAD DE VERA - CONDUCTO CALLE BELGRANO - SEGUNDA ETAPA – DEPARTAMENTO VERA – PROVINCIA DE SANTA FE”", "Tipo": "Desague", "Region": "Region 1", "Cuenca": "10- Los Saladillos", "Código": null, "Localidad": "Vera", "Direccion": null, "Resp.": "Municipalidad de Vera", "Dpto": "Vera", "Long (Km)": 0.01 }, "geometry": { "type": "MultiLineString", "coordinates": [ [ [ -60.214219335821689, -29.471769588082115, 0.0 ], [ -60.214111427970934, -29.471781668092571, 0.0 ] ] ] } },
{ "type": "Feature", "properties": { "Nombre": "hilera 400mm", "Datos": null, "Estado": "En Ejecucion", "C Cuenca": "Ejecutado por Localidad", "Obra": "“DESAGÜES PLUVIALES CIUDAD DE VERA - CONDUCTO CALLE BELGRANO - SEGUNDA ETAPA – DEPARTAMENTO VERA – PROVINCIA DE SANTA FE”", "Tipo": "Desague", "Region": "Region 1", "Cuenca": "10- Los Saladillos", "Código": null, "Localidad": "Vera", "Direccion": null, "Resp.": "Municipalidad de Vera", "Dpto": "Vera", "Long (Km)": 0.01 }, "geometry": { "type": "MultiLineString", "coordinates": [ [ [ -60.21426673531716, -29.472036376943613, 0.0 ], [ -60.214172391283846, -29.472056172580057, 0.0 ] ] ] } },
{ "type": "Feature", "properties": { "Nombre": "hilera 400mm", "Datos": null, "Estado": "En Ejecucion", "C Cuenca": "Ejecutado por Localidad", "Obra": "“DESAGÜES PLUVIALES CIUDAD DE VERA - CONDUCTO CALLE BELGRANO - SEGUNDA ETAPA – DEPARTAMENTO VERA – PROVINCIA DE SANTA FE”", "Tipo": "Desague", "Region": "Region 1", "Cuenca": "10- Los Saladillos", "Código": null, "Localidad": "Vera", "Direccion": null, "Resp.": "Municipalidad de Vera", "Dpto": "Vera", "Long (Km)": 0.01 }, "geometry": { "type": "MultiLineString", "coordinates": [ [ [ -60.214359697597814, -29.472477244528132, 0.0 ], [ -60.214258447840812, -29.472501265316257, 0.0 ] ] ] } },
{ "type": "Feature", "properties": { "Nombre": "hilera 400mm", "Datos": null, "Estado": "En Ejecucion", "C Cuenca": "Ejecutado por Localidad", "Obra": "“DESAGÜES PLUVIALES CIUDAD DE VERA - CONDUCTO CALLE BELGRANO - SEGUNDA ETAPA – DEPARTAMENTO VERA – PROVINCIA DE SANTA FE”", "Tipo": "Desague", "Region": "Region 1", "Cuenca": "10- Los Saladillos", "Código": null, "Localidad": "Vera", "Direccion": null, "Resp.": "Municipalidad de Vera", "Dpto": "Vera", "Long (Km)": 0.01 }, "geometry": { "type": "MultiLineString", "coordinates": [ [ [ -60.214440387819494, -29.467435473235973, 0.0 ], [ -60.214447547232162, -29.467527094072146, 0.0 ] ] ] } },
{ "type": "Feature", "properties": { "Nombre": "hilera 400mm", "Datos": null, "Estado": "En Ejecucion", "C Cuenca": "Ejecutado por Localidad", "Obra": "“DESAGÜES PLUVIALES CIUDAD DE VERA - CONDUCTO CALLE BELGRANO - SEGUNDA ETAPA – DEPARTAMENTO VERA – PROVINCIA DE SANTA FE”", "Tipo": "Desague", "Region": "Region 1", "Cuenca": "10- Los Saladillos", "Código": null, "Localidad": "Vera", "Direccion": null, "Resp.": "Municipalidad de Vera", "Dpto": "Vera", "Long (Km)": 0.01 }, "geometry": { "type": "MultiLineString", "coordinates": [ [ [ -60.214739762937924, -29.467376415521237, 0.0 ], [ -60.214757273763333, -29.467459819772063, 0.0 ] ] ] } },
{ "type": "Feature", "properties": { "Nombre": "hilera 400mm", "Datos": null, "Estado": "En Ejecucion", "C Cuenca": "Ejecutado por Localidad", "Obra": "“DESAGÜES PLUVIALES CIUDAD DE VERA - CONDUCTO CALLE BELGRANO - SEGUNDA ETAPA – DEPARTAMENTO VERA – PROVINCIA DE SANTA FE”", "Tipo": "Desague", "Region": "Region 1", "Cuenca": "10- Los Saladillos", "Código": null, "Localidad": "Vera", "Direccion": null, "Resp.": "Municipalidad de Vera", "Dpto": "Vera", "Long (Km)": 0.01 }, "geometry": { "type": "MultiLineString", "coordinates": [ [ [ -60.216449285957509, -29.463771596853999, 0.0 ], [ -60.216311678860301, -29.463801268025072, 0.0 ] ] ] } },
{ "type": "Feature", "properties": { "Nombre": "hilera 400mm", "Datos": null, "Estado": "En Ejecucion", "C Cuenca": "Ejecutado por Localidad", "Obra": "“DESAGÜES PLUVIALES CIUDAD DE VERA - CONDUCTO CALLE BELGRANO - SEGUNDA ETAPA – DEPARTAMENTO VERA – PROVINCIA DE SANTA FE”", "Tipo": "Desague", "Region": "Region 1", "Cuenca": "10- Los Saladillos", "Código": null, "Localidad": "Vera", "Direccion": null, "Resp.": "Municipalidad de Vera", "Dpto": "Vera", "Long (Km)": 0.02 }, "geometry": { "type": "MultiLineString", "coordinates": [ [ [ -60.216313315865094, -29.462964663534152, 0.0 ], [ -60.216150771121477, -29.462980033725838, 0.0 ] ] ] } },
{ "type": "Feature", "properties": { "Nombre": "hilera 400mm", "Datos": null, "Estado": "En Ejecucion", "C Cuenca": "Ejecutado por Localidad", "Obra": "“DESAGÜES PLUVIALES CIUDAD DE VERA - CONDUCTO CALLE BELGRANO - SEGUNDA ETAPA – DEPARTAMENTO VERA – PROVINCIA DE SANTA FE”", "Tipo": "Desague", "Region": "Region 1", "Cuenca": "10- Los Saladillos", "Código": null, "Localidad": "Vera", "Direccion": null, "Resp.": "Municipalidad de Vera", "Dpto": "Vera", "Long (Km)": 0.01 }, "geometry": { "type": "MultiLineString", "coordinates": [ [ [ -60.216089551394759, -29.461878272482046, 0.0 ], [ -60.215967863465309, -29.461902409095309, 0.0 ] ] ] } },
{ "type": "Feature", "properties": { "Nombre": "hilera 400mm", "Datos": null, "Estado": "En Ejecucion", "C Cuenca": "Ejecutado por Localidad", "Obra": "“DESAGÜES PLUVIALES CIUDAD DE VERA - CONDUCTO CALLE BELGRANO - SEGUNDA ETAPA – DEPARTAMENTO VERA – PROVINCIA DE SANTA FE”", "Tipo": "Desague", "Region": "Region 1", "Cuenca": "10- Los Saladillos", "Código": null, "Localidad": "Vera", "Direccion": null, "Resp.": "Municipalidad de Vera", "Dpto": "Vera", "Long (Km)": 0.01 }, "geometry": { "type": "MultiLineString", "coordinates": [ [ [ -60.215886054249815, -29.46082534472686, 0.0 ], [ -60.215740723479009, -29.460845458047238, 0.0 ] ] ] } },
{ "type": "Feature", "properties": { "Nombre": "Traza Defensa Saguier", "Datos": "Obra de alteo por camino comunal con colocación y/o reemplazo de obras de arte.", "Estado": "En Ejecucion", "C Cuenca": "Canal Principal Saguier Romero Corralitos Tramo Superior", "Obra": "“Defensa de las localidades de Saguier y Estación Saguier – Depto. Castellanos - Provincia de Santa Fe”.", "Tipo": "Defensa", "Region": "Region 4", "Cuenca": "11- Arroyo Colastiné", "Código": null, "Localidad": "Plaza Saguier, Villa San José", "Direccion": null, "Resp.": null, "Dpto": "Castellanos", "Long (Km)": 6.17 }, "geometry": { "type": "MultiLineString", "coordinates": [ [ [ -61.705599447146895, -31.331943663832693, 0.0 ], [ -61.701053904851541, -31.313122500899095, 0.0 ], [ -61.685031960321716, -31.316018639358781, 0.0 ], [ -61.680522668859751, -31.315057187729646, 0.0 ], [ -61.678914940181798, -31.314772185492824, 0.0 ], [ -61.659662114050434, -31.318420447044932, 0.0 ] ] ] } },
{ "type": "Feature", "properties": { "Nombre": "Hughes - Limpieza Canal PPa", "Datos": "9200 metros de limpieza", "Estado": "Finalizado", "C Cuenca": "Por Localidad", "Obra": "Limpieza Canal PPa", "Tipo": "Canal", "Region": "Region 6", "Cuenca": "25- Río Arrecifes", "Código": null, "Localidad": "Hughes", "Direccion": null, "Resp.": null, "Dpto": "General Lopez", "Long (Km)": 9.24 }, "geometry": { "type": "MultiLineString", "coordinates": [ [ [ -61.282493029965764, -33.779880030021232, 0.0 ], [ -61.284889646745675, -33.780207642166872, 0.0 ], [ -61.287174287088455, -33.780686357373469, 0.0 ], [ -61.289343591224302, -33.781321373565746, 0.0 ], [ -61.290479789780925, -33.781800116926085, 0.0 ], [ -61.2911483455241, -33.78200527829884, 0.0 ], [ -61.293418783896485, -33.783098268243464, 0.0 ], [ -61.293607966762536, -33.782974047796827, 0.0 ], [ -61.2998699086233, -33.781110080078363, 0.0 ], [ -61.306754376106419, -33.773494256014899, 0.0 ], [ -61.30816251898959, -33.774004564972408, 0.0 ], [ -61.313205467827693, -33.768423563984236, 0.0 ], [ -61.315309882998903, -33.768077036105588, 0.0 ], [ -61.320211717196237, -33.770625522246064, 0.0 ], [ -61.321731951064166, -33.768796401787284, 0.0 ], [ -61.328149954232288, -33.772322716276925, 0.0 ], [ -61.32749899257994, -33.77321398401984, 0.0 ], [ -61.339474441820563, -33.779652289376095, 0.0 ], [ -61.353603228630469, -33.761308973295499, 0.0 ] ] ] } },
{ "type": "Feature", "properties": { "Nombre": "Maria Teresa - Limpieza Canal Norte", "Datos": "4700 metros de Limpieza", "Estado": "Finalizado", "C Cuenca": "Comite Las Encadenadas", "Obra": "Limpieza Canal Norte", "Tipo": "Canal", "Region": "Region 6", "Cuenca": "23- Las Encadenadas - Salado Brazo Norte", "Código": null, "Localidad": "Maria Teresa, Santa Isabel", "Direccion": null, "Resp.": null, "Dpto": "General Lopez", "Long (Km)": 4.72 }, "geometry": { "type": "MultiLineString", "coordinates": [ [ [ -61.820670146285174, -33.961077333377965, 0.0 ], [ -61.821211473883885, -33.960985344190433, 0.0 ], [ -61.821545918124293, -33.960989295036796, 0.0 ], [ -61.822376821495304, -33.961223137258365, 0.0 ], [ -61.823023354781348, -33.96154968741223, 0.0 ], [ -61.831793821125267, -33.966204485574266, 0.0 ], [ -61.863982712282585, -33.983351500464281, 0.0 ] ] ] } },
{ "type": "Feature", "properties": { "Nombre": "Alcorta - Limpieza Canal Secundario N2\"El Milagrito\"", "Datos": "5200 metros de limpieza", "Estado": "Finalizado", "C Cuenca": "Por Localidad", "Obra": "Limpieza Canal Secundario N2\"El Milagrito\"", "Tipo": "Canal", "Region": "Region 5", "Cuenca": "20- Arroyo Pavón", "Código": null, "Localidad": "Carreras", "Direccion": null, "Resp.": null, "Dpto": "Constitución", "Long (Km)": 5.21 }, "geometry": { "type": "MultiLineString", "coordinates": [ [ [ -61.272872636047119, -33.636066519618907, 0.0 ], [ -61.264680141143792, -33.62794452314192, 0.0 ], [ -61.264821359164756, -33.627051339918509, 0.0 ], [ -61.280643349185745, -33.606259360225671, 0.0 ], [ -61.280776829769586, -33.605468149423785, 0.0 ], [ -61.274543064849809, -33.601854909101618, 0.0 ], [ -61.270831305994101, -33.59984998135161, 0.0 ] ] ] } },
{ "type": "Feature", "properties": { "Nombre": "Firmat - Limpieza Canal Madre Selva - 6000m", "Datos": null, "Estado": "Finalizado", "C Cuenca": "Comité Arroyo Saladillo", "Obra": "Limpieza Canal Madre Selva", "Tipo": "Canal", "Region": "Region 5", "Cuenca": "17- Arroyo Saladillo", "Código": null, "Localidad": "Firmat", "Direccion": null, "Resp.": null, "Dpto": "Constitución", "Long (Km)": 4.11 }, "geometry": { "type": "MultiLineString", "coordinates": [ [ [ -61.468469706925355, -33.468031190657982, 0.0 ], [ -61.440518840194926, -33.452848276333427, 0.0 ], [ -61.446440428471796, -33.445191759068358, 0.0 ] ] ] } },
{ "type": "Feature", "properties": { "Nombre": "Firmat - Limpieza Canal Blas Parera - 1400m", "Datos": null, "Estado": "Finalizado", "C Cuenca": "Comité Arroyo Saladillo", "Obra": "Limpieza Canal Blas Parera", "Tipo": "Canal", "Region": "Region 5", "Cuenca": "17- Arroyo Saladillo", "Código": null, "Localidad": "Firmat", "Direccion": null, "Resp.": null, "Dpto": "Constitución", "Long (Km)": 1.44 }, "geometry": { "type": "MultiLineString", "coordinates": [ [ [ -61.459375039499818, -33.445314763650508, 0.0 ], [ -61.461510292637236, -33.442488767814297, 0.0 ], [ -61.47117304632534, -33.447659696053599, 0.0 ] ] ] } },
{ "type": "Feature", "properties": { "Nombre": "Chañar Ladeado - Limpieza Canal Miguelito - 2600m", "Datos": null, "Estado": "En Ejecucion", "C Cuenca": "Comite Rio Carcaraña", "Obra": "Limpieza Canal Miguelito", "Tipo": "Canal", "Region": "Region 5", "Cuenca": "14- Río Carcaraña", "Código": null, "Localidad": "Chañar Ladeado", "Direccion": null, "Resp.": null, "Dpto": "Caseros", "Long (Km)": 2.6 }, "geometry": { "type": "MultiLineString", "coordinates": [ [ [ -62.03336914699301, -33.332457482290614, 0.0 ], [ -62.03632759167985, -33.343896567061073, 0.0 ], [ -62.022713009358768, -33.346470408805686, 0.0 ] ] ] } },
{ "type": "Feature", "properties": { "Nombre": "Chañar Ladeado - Limpieza Canal Maestro - 6400m", "Datos": null, "Estado": "En Ejecucion", "C Cuenca": "Comite Rio Carcaraña", "Obra": "Limpieza Canal Maestro", "Tipo": "Canal", "Region": "Region 5", "Cuenca": "14- Río Carcaraña", "Código": null, "Localidad": "Chañar Ladeado", "Direccion": null, "Resp.": null, "Dpto": "Caseros", "Long (Km)": 6.4 }, "geometry": { "type": "MultiLineString", "coordinates": [ [ [ -62.027994800384029, -33.368631329183941, 0.0 ], [ -62.016851255784573, -33.323380590206796, 0.0 ], [ -62.030279077225515, -33.321007610500359, 0.0 ] ] ] } },
{ "type": "Feature", "properties": { "Nombre": "Chañar Ladeado - Limpieza Canal Tucuman - 1270m", "Datos": null, "Estado": "En Ejecucion", "C Cuenca": "Comite Rio Carcaraña", "Obra": "Limpieza Canal Tucuman", "Tipo": "Canal", "Region": "Region 5", "Cuenca": "14- Río Carcaraña", "Código": null, "Localidad": "Chañar Ladeado", "Direccion": null, "Resp.": null, "Dpto": "Caseros", "Long (Km)": 1.27 }, "geometry": { "type": "MultiLineString", "coordinates": [ [ [ -62.03018755750356, -33.321022728482738, 0.0 ], [ -62.016858715885647, -33.323489126677487, 0.0 ] ] ] } },
{ "type": "Feature", "properties": { "Nombre": "Revestimiento Canal Perimetral Ramona", "Datos": "Se solicitó ampliación de obra por retraso en la ejecución por las lluvias y licencia de operarios", "Estado": "Finalizado", "C Cuenca": "Comité de Cuenca del Departamento Castellanos Zona Sur", "Obra": "“INTERVENCIÓN URBANA CANAL DE DESAGÜE SECTOR OESTE- SEGUNDA ETAPA- DISTRITO RAMONA- DEPARTAMENTO CASTELLANOS- PCIA. DE SANTA FE”", "Tipo": "Canal", "Region": "Region 3", "Cuenca": "8- Río Salado", "Código": null, "Localidad": "Ramona", "Direccion": null, "Resp.": "Comuna de Ramona", "Dpto": "Castellanos", "Long (Km)": 0.21 }, "geometry": { "type": "MultiLineString", "coordinates": [ [ [ -61.907502102075178, -31.086162369591587, 0.0 ], [ -61.905369001611675, -31.086548907996164, 0.0 ] ] ] } },
{ "type": "Feature", "properties": { "Nombre": "Canal Ppal Vila Cululu - Loma San Antonio", "Datos": "Limpieza de Protocolo del canal principal Vila-cululú. Tramo Loma de San Antonio. Long. 5.800 m", "Estado": "Finalizado", "C Cuenca": "Comité de Cuenca del Departamento Castellanos Zona Sur", "Obra": "\"Limpieza canal principal Vila-Cululú – Tramo Loma de San Antonio – Progr. Km 92+300 a Km 98+100 – Distrito San Antonio - Departamento Castellanos - Provincia de Santa Fe.”", "Tipo": "Canal", "Region": "Region 3", "Cuenca": "8- Río Salado", "Código": null, "Localidad": "Vila, Coronel Fraga, Bauer y Sigel", "Direccion": null, "Resp.": null, "Dpto": "Castellanos", "Long (Km)": 3.15 }, "geometry": { "type": "MultiLineString", "coordinates": [ [ [ -61.776731746435203, -31.18883484176791, 0.0 ], [ -61.777795897299242, -31.193297835467774, 0.0 ], [ -61.778968758419069, -31.198170057989064, 0.0 ], [ -61.779423988894834, -31.199911317551098, 0.0 ], [ -61.779530037954778, -31.200239677514908, 0.0 ], [ -61.779524762972891, -31.200514542938485, 0.0 ], [ -61.779461290402253, -31.200778504081889, 0.0 ], [ -61.77933225672237, -31.201002517346282, 0.0 ], [ -61.779215876218466, -31.20116063269888, 0.0 ], [ -61.778877596952555, -31.201402478449417, 0.0 ], [ -61.777665920019906, -31.20196897292907, 0.0 ], [ -61.77645423134193, -31.202533522233743, 0.0 ], [ -61.77557838803105, -31.202968623289113, 0.0 ], [ -61.774986084419879, -31.203252161324883, 0.0 ], [ -61.77457007483045, -31.20345406595305, 0.0 ], [ -61.77439096524386, -31.203608688290668, 0.0 ], [ -61.774206387075772, -31.20379383513642, 0.0 ], [ -61.774059359053638, -31.20398724522552, 0.0 ], [ -61.77399329597327, -31.204188008794031, 0.0 ], [ -61.773939271596113, -31.204432226613815, 0.0 ], [ -61.773964017821996, -31.204861276818288, 0.0 ], [ -61.776091005289963, -31.214224247790682, 0.0 ] ] ] } },
{ "type": "Feature", "properties": { "Nombre": "Canal Bauer y Sigel - Traza Actual", "Datos": "Limpieza de Protocolo del canal secundario Bauer y Sigel. Long. 25.600m", "Estado": "Finalizado", "C Cuenca": "Comité de Cuenca del Departamento Castellanos Zona Sur", "Obra": "“LIMPIEZA DEL CANAL SECUNDARIO BAUER Y SIGEL- DEPARTAMENTO CASTELLANOS- PCIA. DE SANTA FE”", "Tipo": "Canal", "Region": "Region 3", "Cuenca": "8- Río Salado", "Código": null, "Localidad": "Vila, Coronel Fraga, Bauer y Sigel", "Direccion": null, "Resp.": null, "Dpto": "Castellanos", "Long (Km)": 25.38 }, "geometry": { "type": "MultiLineString", "coordinates": [ [ [ -61.775900606627062, -31.209612674638556, 0.0 ], [ -61.915189894365398, -31.185306166925923, 0.0 ], [ -61.940245356885143, -31.289875020776869, 0.0 ] ] ] } },
{ "type": "Feature", "properties": { "Nombre": "Traza Los Llanos", "Datos": "Consiste en la Limpieza por Protocolo del Canal Los Llanos en una Longitud de 17.200 ml desde el Canal Secundario San Eugenio hasta el km 17,200 de Los Llanos en su intersección con el FFCC", "Estado": "Finalizado", "C Cuenca": "Comité de San Eugenio", "Obra": "LIMPIEZA DEL CANAL LOS LLANOS – DPTO. SAN JERÓNIMO – PROV. DE SANTA FE", "Tipo": "Canal", "Region": "Region 3", "Cuenca": "11- Arroyo Colastiné", "Código": null, "Localidad": "Gálvez", "Direccion": null, "Resp.": "Municipalidad de Galvez", "Dpto": "San Jerónimo", "Long (Km)": 16.99 }, "geometry": { "type": "MultiLineString", "coordinates": [ [ [ -61.092261039596401, -32.022594023237296, 0.0 ], [ -61.092593762548255, -32.02245502221858, 0.0 ], [ -61.092896102002946, -32.022332675221072, 0.0 ], [ -61.093236683765504, -32.022350931146143, 0.0 ], [ -61.093502645187421, -32.022389761235971, 0.0 ], [ -61.093661970638443, -32.022448930275665, 0.0 ], [ -61.093914951863681, -32.022596669139361, 0.0 ], [ -61.094080991800539, -32.022771539262592, 0.0 ], [ -61.094192314344909, -32.022981921642788, 0.0 ], [ -61.09420924145428, -32.023190286504871, 0.0 ], [ -61.093998854030595, -32.024753699258291, 0.0 ], [ -61.093977748326381, -32.024980447195496, 0.0 ], [ -61.094049732260181, -32.025311119530336, 0.0 ], [ -61.094604215982933, -32.026431494286619, 0.0 ], [ -61.095855866089416, -32.028952595260307, 0.0 ], [ -61.099845751415636, -32.037209600933394, 0.0 ], [ -61.100083564619041, -32.037548381203145, 0.0 ], [ -61.100469331569059, -32.037781359722587, 0.0 ], [ -61.100918744864614, -32.037976774260443, 0.0 ], [ -61.101610163140094, -32.038306709060528, 0.0 ], [ -61.102104746045498, -32.038514615633815, 0.0 ], [ -61.102549589546591, -32.038624090596826, 0.0 ], [ -61.10331461759376, -32.038556806865252, 0.0 ], [ -61.104744330761129, -32.038348387476347, 0.0 ], [ -61.109790577518766, -32.03747066741586, 0.0 ], [ -61.110894947731758, -32.037278119718316, 0.0 ], [ -61.111601000193808, -32.037146189658458, 0.0 ], [ -61.111969189051152, -32.03693484338001, 0.0 ], [ -61.114003176945978, -32.036548824936119, 0.0 ], [ -61.116544205079023, -32.036115693257038, 0.0 ], [ -61.121608577967926, -32.035208379472856, 0.0 ], [ -61.127057485859019, -32.034232047324942, 0.0 ], [ -61.130627888024335, -32.033562074573666, 0.0 ], [ -61.133912244370435, -32.032993201705928, 0.0 ], [ -61.141949869947346, -32.031565541488774, 0.0 ], [ -61.153222095209415, -32.029468593904852, 0.0 ], [ -61.184647241422766, -32.023884100070738, 0.0 ], [ -61.193848278026721, -32.022308625322452, 0.0 ], [ -61.194546503621403, -32.0221629625227, 0.0 ], [ -61.195005117638516, -32.021837339041411, 0.0 ], [ -61.195468328214851, -32.021472058230245, 0.0 ], [ -61.195619125030127, -32.021031207011255, 0.0 ], [ -61.195153975844114, -32.018902265992914, 0.0 ], [ -61.195264568240148, -32.018374109878593, 0.0 ], [ -61.195781637274287, -32.017869435160335, 0.0 ], [ -61.196703339289044, -32.017627706692586, 0.0 ], [ -61.200921188369982, -32.017408477580553, 0.0 ], [ -61.214547633331421, -32.016628335868795, 0.0 ], [ -61.227885143503705, -32.015899138279927, 0.0 ], [ -61.232792475848257, -32.015761307554499, 0.0 ], [ -61.235841447863251, -32.015550340012524, 0.0 ], [ -61.242125324751377, -32.015207948526474, 0.0 ], [ -61.24909169937041, -32.014811976069943, 0.0 ], [ -61.250456606676366, -32.014762841049311, 0.0 ], [ -61.252204619084161, -32.014745543942468, 0.0 ] ] ] } },
{ "type": "Feature", "properties": { "Nombre": "Protección Gaviones", "Datos": "La Obra consiste en la construcción de un muro de gaviones en un desarrollo de 90 metros de longitud (incorporando una membrana geotextil) y la Construcción de ejecución de 3 (tres) alcantarillas de módulos de hormigón armado prefabricados", "Estado": "En Ejecucion", "C Cuenca": "Comité de la Sucuenca Superior Cañada Carrizales", "Obra": "DEFENSA OESTE COLONIA BELGRANO PROVISIÓN DE MODULOS PREMOLDEADOS Y MEJORA EN EL SERVICIO DE AGUA POTABLE PARA LA LOCALIDAD DE COLONIA BLEGRANO – DEPARTAMENTO SAN MARTIN – PROVINCIA DE SANTA FE", "Tipo": "Proteccion", "Region": "Region 4", "Cuenca": "13- Cañada Carrizales", "Código": null, "Localidad": "Colonia Belgrano", "Direccion": null, "Resp.": null, "Dpto": "San Martín", "Long (Km)": 0.09 }, "geometry": { "type": "MultiLineString", "coordinates": [ [ [ -61.376241519619171, -31.930535492697132, 0.0 ], [ -61.37628963721756, -31.930565560165778, 0.0 ], [ -61.376809755231932, -31.930547417886842, 0.0 ], [ -61.377079286429506, -31.930496258470612, 0.0 ], [ -61.377127947135264, -31.930511448740123, 0.0 ], [ -61.377146484589701, -31.930545392948826, 0.0 ] ] ] } },
{ "type": "Feature", "properties": { "Nombre": "Elisa N° 1469", "Datos": null, "Estado": "Finalizado", "C Cuenca": "Comite Canal Ppal N°1 y Sec N°1", "Obra": "Elisa N° 1469", "Tipo": "Canal", "Region": "Region 3", "Cuenca": "8- Río Salado", "Código": null, "Localidad": "Elisa", "Direccion": null, "Resp.": null, "Dpto": "Las Colonias", "Long (Km)": 0.12 }, "geometry": { "type": "MultiLineString", "coordinates": [ [ [ -61.051140887340559, -30.691300388762485, 0.0 ], [ -61.052295163116661, -30.691648898741189, 0.0 ] ] ] } },
{ "type": "Feature", "properties": { "Nombre": "Villa San Jose N° 803 1", "Datos": null, "Estado": "Finalizado", "C Cuenca": "Canal Principal Saguier Romero Corralitos Tramo Superior", "Obra": "Villa San Jose N° 803 1", "Tipo": "Canal", "Region": "Region 4", "Cuenca": "11- Arroyo Colastiné", "Código": null, "Localidad": "Plaza Saguier, Villa San José", "Direccion": null, "Resp.": null, "Dpto": "Castellanos", "Long (Km)": 3.27 }, "geometry": { "type": "MultiLineString", "coordinates": [ [ [ -61.627609332406493, -31.336382297009646, 0.0 ], [ -61.626832573909404, -31.336848699874061, 0.0 ], [ -61.626119988542534, -31.337435863836458, 0.0 ], [ -61.625539869477294, -31.337900796501462, 0.0 ], [ -61.624951823822073, -31.338412120559301, 0.0 ], [ -61.624412086420847, -31.33878910739994, 0.0 ], [ -61.623811458876027, -31.339106040343903, 0.0 ], [ -61.622956656277935, -31.339410743449012, 0.0 ], [ -61.622055869798672, -31.33961100063728, 0.0 ], [ -61.620862733048689, -31.339761425651844, 0.0 ], [ -61.619957825225399, -31.33984553234022, 0.0 ], [ -61.619277817059462, -31.339804951802982, 0.0 ], [ -61.618438690852138, -31.339654531818173, 0.0 ], [ -61.617696745970981, -31.339283090204646, 0.0 ], [ -61.617031684461743, -31.338914295712531, 0.0 ], [ -61.61633149996895, -31.338590198841626, 0.0 ], [ -61.61588016476707, -31.338463297499366, 0.0 ], [ -61.615621611338263, -31.338281710499338, 0.0 ], [ -61.61547436420539, -31.337999661018397, 0.0 ], [ -61.60912026120419, -31.339158787034503, 0.0 ], [ -61.595631271262398, -31.341533057402412, 0.0 ] ] ] } },
{ "type": "Feature", "properties": { "Nombre": "DEFENSA CIERRE SUR - LOCALIDAD MARIA SUSANA", "Datos": "Terraplén de cierre perimetral al sur de la localidad de María Susana.\nInicio enero 2025- Fin de Obra Agosto 2025", "Estado": "Finalizado", "C Cuenca": "Comité de Cuenca Arroyo Las Turbias", "Obra": "DEFENSA CIERRE SUR", "Tipo": "Defensa", "Region": "Region 4", "Cuenca": "13- Cañada Carrizales", "Código": null, "Localidad": "María Susana", "Direccion": null, "Resp.": null, "Dpto": "San Martín", "Long (Km)": 1.24 }, "geometry": { "type": "MultiLineString", "coordinates": [ [ [ -61.902388981936788, -32.277439736186217, 0.0 ], [ -61.896199863923137, -32.278557502455847, 0.0 ], [ -61.898638339583698, -32.274164092636177, 0.0 ], [ -61.897503169629886, -32.274399320600921, 0.0 ] ] ] } },
{ "type": "Feature", "properties": { "Nombre": "LIMPIEZA CANAL CANDELARIA", "Datos": "TRAMO CON TRASLADO", "Estado": "Finalizado", "C Cuenca": "Comité Arroyo Saladillo", "Obra": "LIMPIEZA CANAL CANDELARIA", "Tipo": "Canal", "Region": "Region 5", "Cuenca": "17- Arroyo Saladillo", "Código": null, "Localidad": "Casilda", "Direccion": null, "Resp.": "Municipalidad de Casilda", "Dpto": "Caseros", "Long (Km)": 4.24 }, "geometry": { "type": "MultiLineString", "coordinates": [ [ [ -61.150720043776289, -33.044669522965677, 0.0 ], [ -61.151800667267175, -33.045528763079446, 0.0 ], [ -61.152484714553808, -33.046464233524887, 0.0 ], [ -61.155276112203353, -33.04821752365487, 0.0 ], [ -61.157399732440425, -33.048902562133748, 0.0 ], [ -61.157924164932631, -33.050406030179943, 0.0 ], [ -61.159385418818644, -33.051526252196368, 0.0 ], [ -61.161936962472467, -33.053001847322335, 0.0 ], [ -61.163379237210641, -33.053687628286418, 0.0 ], [ -61.16408162494649, -33.054342347853705, 0.0 ], [ -61.167635424139533, -33.056633511172613, 0.0 ], [ -61.169505432907997, -33.057539588159344, 0.0 ], [ -61.17315417637284, -33.059807518173166, 0.0 ], [ -61.175348673007228, -33.06095690038822, 0.0 ], [ -61.177518310277073, -33.062024017575297, 0.0 ], [ -61.18113701026688, -33.063557019855047, 0.0 ], [ -61.182850423935953, -33.064666608981511, 0.0 ], [ -61.185082763392934, -33.066410402587344, 0.0 ], [ -61.186277202201417, -33.067394625791451, 0.0 ] ] ] } },
{ "type": "Feature", "properties": { "Nombre": "LIMPIEZA CANAL CANDELARIA", "Datos": "TRAMO SIN TRASLADO DEL SUELO", "Estado": "Finalizado", "C Cuenca": "Comité Arroyo Saladillo", "Obra": "LIMPIEZA CANAL CANDELARIA", "Tipo": "Canal", "Region": "Region 5", "Cuenca": "17- Arroyo Saladillo", "Código": null, "Localidad": "Casilda", "Direccion": null, "Resp.": "Municipalidad de Casilda", "Dpto": "Caseros", "Long (Km)": 2.98 }, "geometry": { "type": "MultiLineString", "coordinates": [ [ [ -61.150658568974166, -33.044637071591097, 0.0 ], [ -61.14748615537659, -33.041955483273092, 0.0 ], [ -61.142713722419309, -33.038287672777209, 0.0 ], [ -61.140159409021834, -33.035479009091105, 0.0 ], [ -61.138099477361628, -33.034329791403238, 0.0 ], [ -61.134588223769136, -33.032855661304374, 0.0 ], [ -61.132072942437006, -33.032417408591023, 0.0 ], [ -61.129370416543495, -33.032679666476454, 0.0 ], [ -61.12784526055929, -33.033548956283965, 0.0 ], [ -61.126422591066856, -33.03597511189389, 0.0 ] ] ] } },
{ "type": "Feature", "properties": { "Nombre": "LIMPEZA CANAL CAÑADA DE GOMEZ", "Datos": null, "Estado": "Finalizado", "C Cuenca": "Comité Rio Carcaraña", "Obra": "LIMPEZA CANAL CAÑADA DE GOMEZ", "Tipo": "Canal", "Region": "Region 5", "Cuenca": "14- Río Carcaraña", "Código": null, "Localidad": "Cañada de Gomez", "Direccion": null, "Resp.": "Municipalidad de Cañada de Gomez", "Dpto": "Iriondo", "Long (Km)": 4.66 }, "geometry": { "type": "MultiLineString", "coordinates": [ [ [ -61.368275045105506, -32.830223182932109, 0.0 ], [ -61.376675438133674, -32.829125765180436, 0.0 ], [ -61.378519306299673, -32.829116211798663, 0.0 ], [ -61.379216462531915, -32.829575648625529, 0.0 ], [ -61.379638650656268, -32.829857758170228, 0.0 ], [ -61.380539286379488, -32.829729789021805, 0.0 ], [ -61.382514746731282, -32.828649672900191, 0.0 ], [ -61.384262295154869, -32.827794739018266, 0.0 ], [ -61.388989936580565, -32.826866451930783, 0.0 ], [ -61.394177572902372, -32.826073895585026, 0.0 ], [ -61.396375464989639, -32.825570305287641, 0.0 ], [ -61.399353514071663, -32.82516158060816, 0.0 ], [ -61.400267444412911, -32.824668659076721, 0.0 ], [ -61.401482320616836, -32.823293664145737, 0.0 ], [ -61.404236328749541, -32.8220745910848, 0.0 ], [ -61.408311234345504, -32.82111311739132, 0.0 ], [ -61.409136840322141, -32.820472166522187, 0.0 ], [ -61.412820412563896, -32.819804151778762, 0.0 ], [ -61.414643755372111, -32.819368483643487, 0.0 ] ] ] } },
{ "type": "Feature", "properties": { "Nombre": "Canal Larrechea", "Datos": null, "Estado": "Finalizado", "C Cuenca": "Comite A° Malaquias - Los Troncos", "Obra": "Canal Larrechea", "Tipo": "Canal", "Region": "Region 3", "Cuenca": "11- Arroyo Colastiné", "Código": null, "Localidad": "Matilde, Gessier", "Direccion": null, "Resp.": null, "Dpto": "Las Colonias", "Long (Km)": 4.22 }, "geometry": { "type": "MultiLineString", "coordinates": [ [ [ -61.034527167000078, -31.857360482100269, 0.0 ], [ -61.034482390600076, -31.857204442800292, 0.0 ], [ -61.034461668500086, -31.857166331100277, 0.0 ], [ -61.03441972460007, -31.857141882600281, 0.0 ], [ -61.034385364200077, -31.857137067000298, 0.0 ], [ -61.034361427600068, -31.857125223000306, 0.0 ], [ -61.034272629400071, -31.857139949800299, 0.0 ], [ -61.034243562500066, -31.857134198400292, 0.0 ], [ -61.034210215800073, -31.857139736000288, 0.0 ], [ -61.034192861100081, -31.85713731600028, 0.0 ], [ -61.034137272700072, -31.857146542300274, 0.0 ], [ -61.034123975800078, -31.85713281730029, 0.0 ], [ -61.034090565800064, -31.857138364300276, 0.0 ], [ -61.034012579800077, -31.857023733800272, 0.0 ], [ -61.025432224200074, -31.8203375285003, 0.0 ] ] ] } },
{ "type": "Feature", "properties": { "Nombre": "Canal Larrechea", "Datos": null, "Estado": "Finalizado", "C Cuenca": "Comite A° Malaquias - Los Troncos", "Obra": "Canal Larrechea", "Tipo": "Canal", "Region": "Region 3", "Cuenca": "11- Arroyo Colastiné", "Código": null, "Localidad": "Matilde, Gessier", "Direccion": null, "Resp.": null, "Dpto": "San Jerónimo", "Long (Km)": 2.91 }, "geometry": { "type": "MultiLineString", "coordinates": [ [ [ -61.040411399700083, -31.88307544940028, 0.0 ], [ -61.034527167000078, -31.857360482100269, 0.0 ] ] ] } },
{ "type": "Feature", "properties": { "Nombre": "Firmat - Limpieza Canal Madre Selva - 6000m", "Datos": null, "Estado": "Finalizado", "C Cuenca": "Comité Arroyo Saladillo", "Obra": "Limpieza Canal Madre Selva", "Tipo": "Canal", "Region": "Region 5", "Cuenca": "17- Arroyo Saladillo", "Código": null, "Localidad": "Firmat", "Direccion": null, "Resp.": null, "Dpto": "General Lopez", "Long (Km)": 1.85 }, "geometry": { "type": "MultiLineString", "coordinates": [ [ [ -61.485229947422411, -33.477090036056019, 0.0 ], [ -61.468469706925355, -33.468031190657982, 0.0 ] ] ] } },
{ "type": "Feature", "properties": { "Nombre": "01907-0020616-0 Limpieza Canal El Relincho Plan de Obra 2025", "Datos": "01907-0020616-0 Limpieza Canal El Relincho", "Estado": "Finalizado", "C Cuenca": "02- Comite Villa Minetti", "Obra": "Limpieza Canal El Relincho", "Tipo": "Canal", "Region": null, "Cuenca": null, "Código": null, "Localidad": "San Bernardo", "Direccion": null, "Resp.": null, "Dpto": "9 de Julio", "Long (Km)": 69.98 }, "geometry": { "type": "MultiLineString", "coordinates": [ [ [ -61.598143600268202, -28.626513588086603, 0.0 ], [ -61.52306724841317, -28.631315969065639, 0.0 ], [ -61.5233919940314, -28.63627719528364, 0.0 ], [ -61.435698953849553, -28.649923162155833, 0.0 ], [ -61.433775867248201, -28.640142998034964, 0.0 ], [ -61.344916123062809, -28.653744226257192, 0.0 ], [ -61.33599944303463, -28.649779489153048, 0.0 ], [ -61.3252278151962, -28.651516448735382, 0.0 ], [ -61.324481497457043, -28.651297647931131, 0.0 ], [ -61.30647603304029, -28.654092160078399, 0.0 ], [ -61.27186993314379, -28.65837575510194, 0.0 ], [ -61.268866601078791, -28.662943343254483, 0.0 ], [ -61.268625444818078, -28.663082467849311, 0.0 ], [ -61.250064692185191, -28.666075403594196, 0.0 ], [ -61.24010527722271, -28.667732877882663, 0.0 ], [ -61.239065089297632, -28.667891601340003, 0.0 ], [ -61.216628533896582, -28.671655842296179, 0.0 ], [ -61.208144266858902, -28.673107963078394, 0.0 ], [ -61.207815810055173, -28.67326829448476, 0.0 ], [ -61.189217454194257, -28.676131591672871, 0.0 ], [ -61.160157402561737, -28.680959408259909, 0.0 ], [ -61.142876127360957, -28.683872598640264, 0.0 ], [ -61.144014739871118, -28.68999097287336, 0.0 ], [ -61.092432875278767, -28.697789133515002, 0.0 ], [ -61.064529241875356, -28.702275757131115, 0.0 ], [ -61.016900782112948, -28.709171005828594, 0.0 ], [ -60.960329758746624, -28.697445883267466, 0.0 ], [ -60.919621149834398, -28.703302710543102, 0.0 ] ] ] } },
{ "type": "Feature", "properties": { "Nombre": "Limpieza Canal Ruta 290 Plan de Obra 2025", "Datos": "01907-0020916-7 Limpieza Canal RP 290 y Canal Medve  Pozo Borrado", "Estado": "Finalizado", "C Cuenca": "03- Pozo Borrado", "Obra": "Limpieza Canal Ruta 290", "Tipo": "Canal", "Region": null, "Cuenca": null, "Código": null, "Localidad": "Pozo Borrado", "Direccion": null, "Resp.": null, "Dpto": "9 de Julio", "Long (Km)": 12.47 }, "geometry": { "type": "MultiLineString", "coordinates": [ [ [ -61.58280029873962, -28.945073422825434, 0.0 ], [ -61.583398216922731, -28.944898429036876, 0.0 ], [ -61.663339904679852, -28.9326957127304, 0.0 ], [ -61.664490795662594, -28.932574843850794, 0.0 ], [ -61.665625574201577, -28.932748578080083, 0.0 ], [ -61.66611606754482, -28.932891813869848, 0.0 ], [ -61.666805785188757, -28.93323327617377, 0.0 ], [ -61.667259870027813, -28.933597960457885, 0.0 ], [ -61.66763293100901, -28.933994632552601, 0.0 ], [ -61.667895253426295, -28.934304051602378, 0.0 ], [ -61.668148706837499, -28.934716304456966, 0.0 ], [ -61.668248773389287, -28.934954301781165, 0.0 ], [ -61.668393522688184, -28.935643747826663, 0.0 ], [ -61.66853917115354, -28.936270205310826, 0.0 ], [ -61.669686778667717, -28.942391470064234, 0.0 ], [ -61.700722397088619, -28.93777442225808, 0.0 ] ] ] } },
{ "type": "Feature", "properties": { "Nombre": "Limpieza Canal Medve Plan de Obras 2025", "Datos": "01907-0020916-7 Limpieza Canal RP 290 y Canal Medve PO 2025 Pozo Borrado", "Estado": "Finalizado", "C Cuenca": "03- Pozo Borrado", "Obra": "Limpieza Canal Medve", "Tipo": "Canal", "Region": null, "Cuenca": null, "Código": null, "Localidad": "Pozo Borrado", "Direccion": null, "Resp.": null, "Dpto": "9 de Julio", "Long (Km)": 21.04 }, "geometry": { "type": "MultiLineString", "coordinates": [ [ [ -61.640769152873737, -28.894960198582599, 0.0 ], [ -61.6512728191192, -28.905828931309227, 0.0 ], [ -61.658779801144981, -28.910838962799772, 0.0 ], [ -61.660549928427649, -28.911814839714022, 0.0 ], [ -61.661339196166033, -28.913321880444236, 0.0 ], [ -61.661526598262625, -28.914029973970749, 0.0 ], [ -61.66254636824506, -28.915737754799625, 0.0 ], [ -61.663668437332213, -28.916718296336594, 0.0 ], [ -61.664871742687104, -28.917370505412126, 0.0 ], [ -61.696373621484966, -28.91292131713347, 0.0 ], [ -61.731432421560896, -28.907261144460517, 0.0 ], [ -61.744109453032358, -28.905101034010894, 0.0 ], [ -61.75413345254303, -28.903589826693398, 0.0 ], [ -61.756777453620721, -28.900405281875742, 0.0 ], [ -61.757288959293575, -28.899811246641399, 0.0 ], [ -61.757765932865333, -28.89933436039917, 0.0 ], [ -61.758160021099968, -28.899253535557381, 0.0 ], [ -61.809727648588392, -28.891230533510541, 0.0 ], [ -61.83277486562519, -28.887778147066459, 0.0 ], [ -61.839960138865223, -28.886625978132404, 0.0 ] ] ] } },
{ "type": "Feature", "properties": { "Nombre": "Limpieza Canal Secundario Ruta 290 Plan de Obras 2025", "Datos": "01907-0020916-7 Limpieza Canal RP 290 y Canal Medve PO 2025 Pozo Borrado", "Estado": "Finalizado", "C Cuenca": "03- Pozo Borrado", "Obra": "Limpieza Canal Secundario Ruta 290", "Tipo": "Canal", "Region": null, "Cuenca": null, "Código": null, "Localidad": "Pozo Borrado", "Direccion": null, "Resp.": null, "Dpto": "9 de Julio", "Long (Km)": 2.0 }, "geometry": { "type": "MultiLineString", "coordinates": [ [ [ -61.664769775274806, -28.917344806258622, 0.0 ], [ -61.668381200822886, -28.935101771229306, 0.0 ] ] ] } },
{ "type": "Feature", "properties": { "Nombre": "01907-0021140-5 Limpieza Canal RP N30 Plan de Obras 2025", "Datos": "01907-0021140-5 Limpieza Canal RP N30 Plan de Obras 2025.kmz", "Estado": "Finalizado", "C Cuenca": null, "Obra": "Limpieza Canal RP N30", "Tipo": "Canal", "Region": null, "Cuenca": null, "Código": null, "Localidad": "Gato Colorado", "Direccion": null, "Resp.": null, "Dpto": "9 de Julio", "Long (Km)": 43.67 }, "geometry": { "type": "MultiLineString", "coordinates": [ [ [ -61.183707148137387, -28.089076645215052, 0.0 ], [ -61.092314253669826, -28.089375805086462, 0.0 ], [ -61.080072583624258, -28.089316082921687, 0.0 ], [ -61.070765153987793, -28.089359108624009, 0.0 ], [ -61.057243952244704, -28.089452865022952, 0.0 ], [ -61.050746239278759, -28.089460728243083, 0.0 ], [ -61.042562746847693, -28.089499216620066, 0.0 ], [ -61.032451801750526, -28.089601853636548, 0.0 ], [ -61.006066160427508, -28.089718993692735, 0.0 ], [ -60.981160651048313, -28.089748177650431, 0.0 ], [ -60.962746929651253, -28.089755046951655, 0.0 ], [ -60.939088895894884, -28.089815983501939, 0.0 ], [ -60.908167943705323, -28.089841193275316, 0.0 ], [ -60.881263000027516, -28.090021675965531, 0.0 ], [ -60.861376321058266, -28.090080042958434, 0.0 ], [ -60.850316292142772, -28.090066645676433, 0.0 ], [ -60.850210236904339, -28.090093162450785, 0.0 ], [ -60.850155137112537, -28.090154036135463, 0.0 ], [ -60.850126129437577, -28.090225527646343, 0.0 ], [ -60.850118539372204, -28.090292893558587, 0.0 ], [ -60.850178513391199, -28.097747142783479, 0.0 ], [ -60.849960151939882, -28.097895396456028, 0.0 ], [ -60.849352291436709, -28.097891983204867, 0.0 ], [ -60.847661272315662, -28.097883662051085, 0.0 ], [ -60.830179422680921, -28.098089388362549, 0.0 ], [ -60.754030804628904, -28.099171247517233, 0.0 ], [ -60.748087337325273, -28.099175311888892, 0.0 ] ] ] } },
{ "type": "Feature", "properties": { "Nombre": "Limpieza Canal Las Artes (RP 253-s)", "Datos": "01907-0022849-4 Limpieza de 7000 m lineales de canales de variado ancho y profundidad", "Estado": "Finalizado", "C Cuenca": null, "Obra": "Limpieza Canal Las Artes (RP 253-s)", "Tipo": "Canal", "Region": null, "Cuenca": null, "Código": null, "Localidad": "Helvecia", "Direccion": null, "Resp.": null, "Dpto": "Garay", "Long (Km)": 4.24 }, "geometry": { "type": "MultiLineString", "coordinates": [ [ [ -60.095635343577655, -31.09161770331194, 0.0 ], [ -60.139189402885805, -31.083945709228608, 0.0 ] ] ] } },
{ "type": "Feature", "properties": { "Nombre": "Limpieza Canal La Borja", "Datos": "01907-0022849-4 Limpieza de 7000 m lineales de canales de variado ancho y profundidad", "Estado": "Finalizado", "C Cuenca": null, "Obra": "Limpieza Canal La Borja", "Tipo": "Canal", "Region": null, "Cuenca": null, "Código": null, "Localidad": "Helvecia", "Direccion": null, "Resp.": null, "Dpto": "Garay", "Long (Km)": 1.55 }, "geometry": { "type": "MultiLineString", "coordinates": [ [ [ -60.104290946088078, -31.10204866481752, 0.0 ], [ -60.102083262427328, -31.102420790206686, 0.0 ], [ -60.101753853599604, -31.102498258865985, 0.0 ], [ -60.100458500164159, -31.096795962285377, 0.0 ], [ -60.099120043337237, -31.091000876403193, 0.0 ] ] ] } },
{ "type": "Feature", "properties": { "Nombre": "Limpieza Canal", "Datos": "01907-0022849-4 Limpieza de 7000 m lineales de canales de variado ancho y profundidad", "Estado": "Finalizado", "C Cuenca": null, "Obra": "Limpieza Canal", "Tipo": "Canal", "Region": null, "Cuenca": null, "Código": null, "Localidad": "Helvecia", "Direccion": null, "Resp.": null, "Dpto": "Garay", "Long (Km)": 0.56 }, "geometry": { "type": "MultiLineString", "coordinates": [ [ [ -60.106649225747866, -31.10771889189061, 0.0 ], [ -60.106671013246711, -31.109519841166886, 0.0 ], [ -60.106762694007806, -31.109829750870261, 0.0 ], [ -60.106276468620209, -31.110821280176996, 0.0 ], [ -60.106144693725341, -31.110933886271948, 0.0 ], [ -60.105261807041515, -31.111084711944528, 0.0 ], [ -60.105044530855146, -31.111269457243743, 0.0 ], [ -60.104820983670159, -31.111554724757376, 0.0 ], [ -60.104624318760727, -31.111818792533509, 0.0 ] ] ] } },
{ "type": "Feature", "properties": { "Nombre": "Limpieza Canal Tiburoncito", "Datos": "01907-0022849-4 Limpieza de 7000 m lineales de canales de variado ancho y profundidad", "Estado": "Finalizado", "C Cuenca": null, "Obra": "Limpieza Canal Tiburoncito", "Tipo": "Canal", "Region": null, "Cuenca": null, "Código": null, "Localidad": "Helvecia", "Direccion": null, "Resp.": null, "Dpto": "Garay", "Long (Km)": 0.9 }, "geometry": { "type": "MultiLineString", "coordinates": [ [ [ -60.131709372812729, -31.145630281560504, 0.0 ], [ -60.127649303390669, -31.146330234671574, 0.0 ], [ -60.12505676296081, -31.146810821792574, 0.0 ], [ -60.122703727818312, -31.147210686852024, 0.0 ], [ -60.122470908856648, -31.147298839959706, 0.0 ] ] ] } },
{ "type": "Feature", "properties": { "Nombre": "Limpieza Canal", "Datos": "01907-0022849-4 Limpieza de 7000 m lineales de canales de variado ancho y profundidad", "Estado": "Finalizado", "C Cuenca": null, "Obra": "Limpieza Canal", "Tipo": "Canal", "Region": null, "Cuenca": null, "Código": null, "Localidad": "Helvecia", "Direccion": null, "Resp.": null, "Dpto": "Garay", "Long (Km)": 0.45 }, "geometry": { "type": "MultiLineString", "coordinates": [ [ [ -60.100448724602479, -31.096758436950463, 0.0 ], [ -60.095828864122645, -31.097542702779364, 0.0 ] ] ] } },
{ "type": "Feature", "properties": { "Nombre": "Limpieza Canal La Tortafrita", "Datos": "01907-0022849-4 Limpieza de 7000 m lineales de canales de variado ancho y profundidad", "Estado": "Finalizado", "C Cuenca": null, "Obra": "Limpieza Canal La Tortafrita", "Tipo": "Canal", "Region": null, "Cuenca": null, "Código": null, "Localidad": "Helvecia", "Direccion": null, "Resp.": null, "Dpto": "Garay", "Long (Km)": 0.55 }, "geometry": { "type": "MultiLineString", "coordinates": [ [ [ -60.127595202553323, -31.152401235255894, 0.0 ], [ -60.124710844637434, -31.152909621408241, 0.0 ], [ -60.123375432699959, -31.153120215894681, 0.0 ], [ -60.122331199346739, -31.153252655636059, 0.0 ], [ -60.122095257729441, -31.153302734744784, 0.0 ], [ -60.121930111748199, -31.153290241565816, 0.0 ] ] ] } },
{ "type": "Feature", "properties": { "Nombre": "Canal La Chiva", "Datos": "Limpieza", "Estado": "Finalizado", "C Cuenca": "Comite de Fortin Olmos", "Obra": null, "Tipo": "Canal", "Region": null, "Cuenca": null, "Código": null, "Localidad": "Fortin Olmos", "Direccion": null, "Resp.": null, "Dpto": "Vera", "Long (Km)": 15.67 }, "geometry": { "type": "MultiLineString", "coordinates": [ [ [ -60.963317889490334, -28.963803313899277, 0.0 ], [ -60.881227205771758, -28.976958329248355, 0.0 ], [ -60.879992390708495, -28.978193144311607, 0.0 ], [ -60.892679335365763, -29.042978585880068, 0.0 ], [ -60.893321260886005, -29.043299548640164, 0.0 ] ] ] } },
{ "type": "Feature", "properties": { "Nombre": "Canal Interdistritos", "Datos": "Limpieza", "Estado": "Finalizado", "C Cuenca": "Comite de Fortin Olmos", "Obra": null, "Tipo": "Canal", "Region": null, "Cuenca": null, "Código": null, "Localidad": "Fortin Olmos", "Direccion": null, "Resp.": null, "Dpto": "Vera", "Long (Km)": 5.49 }, "geometry": { "type": "MultiLineString", "coordinates": [ [ [ -60.934354622357979, -29.105503481277744, 0.0 ], [ -60.989912879885473, -29.096865224276826, 0.0 ] ] ] } },
{ "type": "Feature", "properties": { "Nombre": "Canal Media Luna", "Datos": "Limpieza", "Estado": "Finalizado", "C Cuenca": "Comite de Fortin Olmos", "Obra": null, "Tipo": "Canal", "Region": null, "Cuenca": null, "Código": null, "Localidad": "Fortin Olmos", "Direccion": null, "Resp.": null, "Dpto": "Vera", "Long (Km)": 0.76 }, "geometry": { "type": "MultiLineString", "coordinates": [ [ [ -60.852882584453262, -29.239048755135517, 0.0 ], [ -60.845195328223063, -29.240174106047562, 0.0 ] ] ] } },
{ "type": "Feature", "properties": { "Nombre": "Canal Hidrovial 2", "Datos": "Limpieza de canal", "Estado": "Finalizado", "C Cuenca": "06- Comite Hidrovial Tostado", "Obra": null, "Tipo": "Canal", "Region": null, "Cuenca": null, "Código": null, "Localidad": "Tostado", "Direccion": null, "Resp.": null, "Dpto": "9 de Julio", "Long (Km)": 24.78 }, "geometry": { "type": "MultiLineString", "coordinates": [ [ [ -61.696114164730922, -29.130162138762625, 0.0 ], [ -61.652724754565227, -29.129952126092423, 0.0 ], [ -61.656102788552985, -29.267472781298274, 0.0 ], [ -61.651367597215263, -29.267544106356095, 0.0 ], [ -61.651676672465747, -29.31134759810735, 0.0 ] ] ] } },
{ "type": "Feature", "properties": { "Nombre": "Canal Hidrovial 3", "Datos": "Limpieza de Canal", "Estado": "Finalizado", "C Cuenca": "06- Comite Hidrovial Tostado", "Obra": null, "Tipo": "Canal", "Region": null, "Cuenca": null, "Código": null, "Localidad": "Tostado", "Direccion": null, "Resp.": null, "Dpto": "9 de Julio", "Long (Km)": 7.3 }, "geometry": { "type": "MultiLineString", "coordinates": [ [ [ -61.483484756464364, -29.272393219661119, 0.0 ], [ -61.483389656387274, -29.272646819866633, 0.0 ], [ -61.483476831457942, -29.273193645309842, 0.0 ], [ -61.496949342376944, -29.337180147168777, 0.0 ] ] ] } },
{ "type": "Feature", "properties": { "Nombre": "Canal de Vinculacion RN95 - RP91 S", "Datos": "Nuevo canal", "Estado": "Finalizado", "C Cuenca": "06- Comite Hidrovial Tostado", "Obra": null, "Tipo": "Canal", "Region": null, "Cuenca": null, "Código": null, "Localidad": "Tostado", "Direccion": null, "Resp.": null, "Dpto": "9 de Julio", "Long (Km)": 1.32 }, "geometry": { "type": "MultiLineString", "coordinates": [ [ [ -61.758533991882501, -29.265676776717648, 0.0 ], [ -61.745003034041105, -29.265785745556016, 0.0 ] ] ] } },
{ "type": "Feature", "properties": { "Nombre": "Canal Colonia Medici N", "Datos": "Exacavacion Canal completo desde 2023 a 2024", "Estado": "Finalizado", "C Cuenca": "Comite A° Totoras, Canals Salto Grande - Serodino", "Obra": null, "Tipo": "Canal", "Region": null, "Cuenca": null, "Código": null, "Localidad": "Totoras", "Direccion": null, "Resp.": null, "Dpto": "Iriondo", "Long (Km)": 6.6 }, "geometry": { "type": "MultiLineString", "coordinates": [ [ [ -61.331693, -32.570660000000288, 0.0 ], [ -61.331752, -32.570588000000271, 0.0 ], [ -61.331786, -32.570549000000291, 0.0 ], [ -61.331864, -32.570549000000277, 0.0 ], [ -61.331891, -32.570588000000285, 0.0 ], [ -61.331937, -32.57059400000027, 0.0 ], [ -61.331964, -32.570565000000272, 0.0 ], [ -61.332006, -32.570561000000282, 0.0 ], [ -61.332049, -32.570563000000298, 0.0 ], [ -61.332073, -32.570583000000269, 0.0 ], [ -61.332114, -32.570592000000296, 0.0 ], [ -61.332191, -32.570631000000276, 0.0 ], [ -61.33231, -32.570694000000294, 0.0 ], [ -61.332403, -32.570746000000284, 0.0 ], [ -61.332476, -32.570744000000282, 0.0 ], [ -61.332575, -32.570707000000276, 0.0 ], [ -61.332672, -32.570656000000305, 0.0 ], [ -61.332832, -32.57059400000027, 0.0 ], [ -61.332902, -32.570565000000265, 0.0 ], [ -61.333093, -32.570513000000261, 0.0 ], [ -61.333216, -32.570488000000289, 0.0 ], [ -61.333331, -32.570509000000285, 0.0 ], [ -61.333412, -32.570477000000274, 0.0 ], [ -61.333603, -32.57047300000027, 0.0 ], [ -61.333769, -32.570450000000278, 0.0 ], [ -61.333861, -32.570428000000284, 0.0 ], [ -61.333981, -32.570416000000272, 0.0 ], [ -61.334223, -32.570310000000283, 0.0 ], [ -61.334303000000105, -32.57029000000027, 0.0 ], [ -61.334542, -32.570281000000271, 0.0 ], [ -61.334646, -32.570249000000281, 0.0 ], [ -61.334711, -32.570206000000283, 0.0 ], [ -61.334756, -32.570179000000273, 0.0 ], [ -61.334826, -32.570159000000281, 0.0 ], [ -61.335877, -32.569956000000289, 0.0 ], [ -61.336634, -32.569827000000274, 0.0 ], [ -61.336738, -32.569800000000285, 0.0 ], [ -61.33684, -32.569780000000272, 0.0 ], [ -61.337051, -32.569760000000272, 0.0 ], [ -61.337134, -32.569739000000276, 0.0 ], [ -61.338161, -32.569543000000294, 0.0 ], [ -61.338424, -32.569491000000284, 0.0 ], [ -61.338534, -32.569484000000294, 0.0 ], [ -61.338577, -32.569459000000272, 0.0 ], [ -61.338807, -32.569433000000274, 0.0 ], [ -61.338914, -32.569406000000285, 0.0 ], [ -61.339115, -32.569322000000284, 0.0 ], [ -61.339166, -32.569293000000286, 0.0 ], [ -61.339217, -32.569274000000284, 0.0 ], [ -61.339263, -32.569295000000274, 0.0 ], [ -61.339306, -32.569313000000271, 0.0 ], [ -61.339427, -32.569351000000268, 0.0 ], [ -61.339555, -32.569326000000267, 0.0 ], [ -61.339652, -32.569302000000292, 0.0 ], [ -61.339764, -32.569308000000298, 0.0 ], [ -61.339816, -32.569304000000301, 0.0 ], [ -61.339872, -32.569295000000295, 0.0 ], [ -61.342477, -32.568854000000286, 0.0 ], [ -61.344679, -32.568488000000272, 0.0 ], [ -61.344979, -32.568434000000273, 0.0 ], [ -61.345478, -32.568357000000283, 0.0 ], [ -61.34558, -32.56827600000026, 0.0 ], [ -61.345773, -32.568253000000261, 0.0 ], [ -61.345865, -32.568298000000254, 0.0 ], [ -61.346009, -32.56829800000029, 0.0 ], [ -61.346144, -32.568239000000275, 0.0 ], [ -61.346803, -32.568095000000291, 0.0 ], [ -61.346986, -32.568068000000274, 0.0 ], [ -61.347056, -32.568031000000282, 0.0 ], [ -61.347125, -32.5679590000003, 0.0 ], [ -61.34719, -32.567873000000276, 0.0 ], [ -61.347378, -32.567639000000284, 0.0 ], [ -61.347544, -32.567512000000285, 0.0 ], [ -61.347727, -32.56734500000028, 0.0 ], [ -61.347882, -32.567191000000278, 0.0 ], [ -61.348011, -32.56695600000026, 0.0 ], [ -61.348054, -32.566775000000284, 0.0 ], [ -61.348027, -32.566599000000295, 0.0 ], [ -61.348102, -32.566454000000284, 0.0 ], [ -61.348199, -32.56641800000029, 0.0 ], [ -61.348451, -32.566373000000283, 0.0 ], [ -61.349019, -32.566255000000289, 0.0 ], [ -61.349191, -32.566183000000279, 0.0 ], [ -61.349304, -32.566134000000275, 0.0 ], [ -61.349414, -32.566056000000295, 0.0 ], [ -61.349623, -32.565964000000299, 0.0 ], [ -61.349782, -32.565828000000295, 0.0 ], [ -61.34996, -32.565664000000304, 0.0 ], [ -61.350157, -32.56551200000029, 0.0 ], [ -61.350348, -32.565331000000285, 0.0 ], [ -61.350542, -32.565166000000289, 0.0 ], [ -61.351164, -32.564696000000289, 0.0 ], [ -61.351606, -32.564314000000302, 0.0 ], [ -61.351893, -32.564118000000299, 0.0 ], [ -61.352108, -32.563964000000276, 0.0 ], [ -61.352301, -32.563575000000256, 0.0 ], [ -61.352484, -32.563304000000279, 0.0 ], [ -61.352714, -32.563010000000283, 0.0 ], [ -61.353056, -32.562645000000266, 0.0 ], [ -61.353412, -32.562415000000279, 0.0 ], [ -61.353739, -32.562305000000279, 0.0 ], [ -61.354962, -32.5619110000003, 0.0 ], [ -61.355573, -32.561754000000285, 0.0 ], [ -61.356179, -32.561643000000281, 0.0 ], [ -61.35642, -32.561620000000268, 0.0 ], [ -61.356662, -32.561616000000271, 0.0 ], [ -61.357104, -32.561650000000284, 0.0 ], [ -61.358706, -32.561778000000295, 0.0 ], [ -61.358963, -32.561821000000279, 0.0 ], [ -61.359462, -32.561973000000265, 0.0 ], [ -61.359781, -32.562074000000273, 0.0 ], [ -61.360114, -32.562158000000274, 0.0 ], [ -61.360854, -32.562438000000299, 0.0 ], [ -61.361026, -32.562493000000273, 0.0 ], [ -61.361117, -32.562583000000281, 0.0 ], [ -61.361216, -32.562698000000275, 0.0 ], [ -61.3613900000001, -32.562841000000262, 0.0 ], [ -61.361793, -32.563175000000285, 0.0 ], [ -61.362182, -32.56346300000029, 0.0 ], [ -61.362431, -32.563667000000287, 0.0 ], [ -61.362646, -32.563786000000285, 0.0 ], [ -61.362823, -32.563890000000299, 0.0 ], [ -61.362984, -32.563966000000271, 0.0 ], [ -61.363188, -32.564055000000295, 0.0 ], [ -61.363375, -32.564098000000271, 0.0 ], [ -61.363587, -32.564092000000279, 0.0 ], [ -61.363745, -32.564099000000269, 0.0 ], [ -61.364006, -32.564125000000281, 0.0 ], [ -61.364588, -32.564133000000261, 0.0 ], [ -61.365192, -32.56416900000027, 0.0 ], [ -61.36643, -32.564261000000272, 0.0 ], [ -61.36688, -32.564326000000271, 0.0 ], [ -61.368364, -32.564521000000305, 0.0 ], [ -61.368639, -32.564524000000262, 0.0 ], [ -61.368848, -32.564504000000277, 0.0 ], [ -61.369068, -32.564475000000272, 0.0 ], [ -61.369148, -32.564498000000292, 0.0 ], [ -61.369257, -32.564981000000266, 0.0 ], [ -61.369459, -32.564948000000264, 0.0 ], [ -61.369493, -32.565081000000298, 0.0 ], [ -61.369634, -32.565084000000283, 0.0 ], [ -61.370248, -32.5652350000003, 0.0 ], [ -61.373274, -32.566125000000262, 0.0 ], [ -61.373799, -32.566233000000281, 0.0 ], [ -61.374325, -32.566396000000275, 0.0 ], [ -61.375936, -32.566763000000279, 0.0 ], [ -61.377459, -32.567414000000277, 0.0 ], [ -61.377725, -32.567857000000288, 0.0 ], [ -61.37806, -32.567975000000281, 0.0 ], [ -61.378811, -32.567902000000267, 0.0 ], [ -61.379433, -32.567975000000281, 0.0 ], [ -61.379849, -32.56807000000029, 0.0 ], [ -61.380471, -32.568117000000264, 0.0 ], [ -61.381085, -32.56840900000028, 0.0 ], [ -61.381747, -32.568707000000302, 0.0 ], [ -61.381814, -32.568723000000269, 0.0 ], [ -61.381892, -32.568720000000283, 0.0 ], [ -61.384453, -32.56985100000027, 0.0 ], [ -61.385376, -32.57036600000027, 0.0 ], [ -61.386288, -32.57099700000029, 0.0 ], [ -61.386376, -32.571122000000273, 0.0 ], [ -61.386404, -32.57122500000029, 0.0 ], [ -61.38646, -32.571393000000285, 0.0 ], [ -61.386554, -32.571479000000295, 0.0 ], [ -61.386668, -32.571523000000276, 0.0 ], [ -61.386832, -32.571577000000268, 0.0 ], [ -61.386998, -32.571632000000271, 0.0 ], [ -61.387237, -32.571711000000292, 0.0 ], [ -61.387626, -32.571860000000299, 0.0 ], [ -61.388067, -32.572053000000274, 0.0 ], [ -61.388477, -32.572284000000273, 0.0 ], [ -61.388826, -32.572470000000294, 0.0 ], [ -61.389842, -32.57303500000026, 0.0 ], [ -61.390942, -32.573564000000253, 0.0 ], [ -61.39107, -32.573609000000282, 0.0 ], [ -61.391341, -32.573712000000285, 0.0 ], [ -61.391825, -32.573820000000275, 0.0 ], [ -61.39227, -32.573883000000279, 0.0 ], [ -61.392415, -32.573888000000295, 0.0 ], [ -61.392753, -32.573951000000292, 0.0 ], [ -61.3933, -32.574069000000286, 0.0 ], [ -61.393466, -32.574082000000274, 0.0 ] ] ] } },
{ "type": "Feature", "properties": { "Nombre": "Canal Larguía -2023 a 2024", "Datos": "Nueva traza canal", "Estado": "Finalizado", "C Cuenca": "Comite A° Totoras, Canals Salto Grande - Serodino", "Obra": null, "Tipo": "Canal", "Region": null, "Cuenca": null, "Código": null, "Localidad": "Totoras", "Direccion": null, "Resp.": null, "Dpto": "Iriondo", "Long (Km)": 1.55 }, "geometry": { "type": "MultiLineString", "coordinates": [ [ [ -61.13189, -32.543289000000271, 0.0 ], [ -61.132431, -32.543403000000275, 0.0 ], [ -61.132707, -32.543443000000273, 0.0 ], [ -61.132936, -32.543476000000261, 0.0 ], [ -61.133176, -32.543497000000279, 0.0 ], [ -61.133425, -32.543470000000262, 0.0 ], [ -61.133901, -32.543375000000275, 0.0 ], [ -61.134585, -32.543240000000281, 0.0 ], [ -61.135496, -32.54303800000028, 0.0 ], [ -61.136723, -32.542794000000292, 0.0 ], [ -61.137713, -32.542587000000282, 0.0 ], [ -61.138673, -32.542381000000276, 0.0 ], [ -61.141244, -32.541849000000298, 0.0 ], [ -61.144231, -32.541224000000277, 0.0 ], [ -61.144393, -32.541191000000303, 0.0 ], [ -61.144504, -32.541179000000263, 0.0 ], [ -61.144622, -32.541182000000269, 0.0 ], [ -61.144718, -32.541200000000273, 0.0 ], [ -61.14482, -32.541234000000294, 0.0 ], [ -61.144911, -32.541272000000284, 0.0 ], [ -61.145147, -32.541417000000294, 0.0 ], [ -61.146066, -32.542162000000289, 0.0 ], [ -61.146177, -32.542242000000272, 0.0 ], [ -61.146243, -32.542515000000272, 0.0 ], [ -61.146334, -32.542868000000269, 0.0 ], [ -61.146394, -32.543091000000281, 0.0 ], [ -61.14641, -32.543147000000296, 0.0 ], [ -61.146437, -32.543247000000264, 0.0 ], [ -61.146459, -32.543324000000275, 0.0 ], [ -61.146476, -32.543397000000283, 0.0 ] ] ] } },
{ "type": "Feature", "properties": { "Nombre": "Canal Larguía", "Datos": "Colocacion de alarmbrado año 2024", "Estado": "Finalizado", "C Cuenca": "Comite A° Totoras, Canals Salto Grande - Serodino", "Obra": null, "Tipo": "Canal", "Region": null, "Cuenca": null, "Código": null, "Localidad": "Totoras", "Direccion": null, "Resp.": null, "Dpto": "Iriondo", "Long (Km)": 1.72 }, "geometry": { "type": "MultiLineString", "coordinates": [ [ [ -61.132155, -32.543593000000286, 0.0 ], [ -61.129376, -32.541992000000278, 0.0 ], [ -61.114882, -32.544923000000274, 0.0 ] ] ] } },
{ "type": "Feature", "properties": { "Nombre": "Canal NE Amstrong", "Datos": null, "Estado": "Finalizado", "C Cuenca": "Comite A° Totoras, Canals Salto Grande - Serodino", "Obra": null, "Tipo": "Canal", "Region": null, "Cuenca": null, "Código": null, "Localidad": "Armstrong", "Direccion": null, "Resp.": null, "Dpto": "Belgrano", "Long (Km)": 5.27 }, "geometry": { "type": "MultiLineString", "coordinates": [ [ [ -61.54767, -32.748167000000279, 0.0 ], [ -61.552307, -32.750638000000272, 0.0 ], [ -61.552527, -32.750668000000289, 0.0 ], [ -61.552755, -32.750841000000285, 0.0 ], [ -61.552977, -32.751140000000269, 0.0 ], [ -61.553179, -32.751445000000274, 0.0 ], [ -61.55506, -32.75238100000027, 0.0 ], [ -61.555239, -32.752547000000284, 0.0 ], [ -61.555932, -32.752985000000272, 0.0 ], [ -61.557609, -32.75401200000028, 0.0 ], [ -61.5588, -32.754719000000271, 0.0 ], [ -61.560217, -32.75557400000028, 0.0 ], [ -61.562942, -32.757284000000297, 0.0 ], [ -61.566785, -32.759820000000275, 0.0 ], [ -61.568588, -32.760930000000286, 0.0 ], [ -61.569038, -32.761164000000292, 0.0 ], [ -61.56928, -32.761277000000298, 0.0 ], [ -61.570305, -32.762053000000293, 0.0 ], [ -61.570935, -32.762657000000281, 0.0 ], [ -61.573618, -32.76443500000029, 0.0 ], [ -61.57748, -32.766759000000278, 0.0 ], [ -61.577548, -32.76690400000026, 0.0 ], [ -61.578729, -32.76774300000028, 0.0 ], [ -61.580757, -32.769213000000271, 0.0 ], [ -61.582259, -32.770224000000283, 0.0 ], [ -61.583525, -32.771017000000271, 0.0 ], [ -61.584434, -32.771609000000275, 0.0 ], [ -61.585024, -32.772092000000278, 0.0 ], [ -61.585418, -32.772270000000283, 0.0 ], [ -61.585664, -32.77235100000027, 0.0 ], [ -61.585898, -32.772448000000253, 0.0 ], [ -61.586022367895325, -32.772522708094037, 0.0 ], [ -61.586203265016181, -32.772493743487786, 0.0 ], [ -61.586333189701676, -32.772540244759476, 0.0 ], [ -61.587813251881954, -32.773248226449404, 0.0 ], [ -61.589071724171397, -32.773822947248334, 0.0 ], [ -61.58968120757654, -32.774214195369829, 0.0 ], [ -61.590993325079829, -32.775027458886605, 0.0 ], [ -61.592411949805154, -32.775906275916007, 0.0 ], [ -61.592675273979538, -32.776205835408881, 0.0 ] ] ] } },
{ "type": "Feature", "properties": { "Nombre": "CANAL TERCIARIO-1 Santo Grande", "Datos": "Limpieza de canal Año 2024", "Estado": "Finalizado", "C Cuenca": "Comite A° Totoras, Canals Salto Grande - Serodino", "Obra": null, "Tipo": "Canal", "Region": null, "Cuenca": null, "Código": null, "Localidad": "Salto Grande", "Direccion": null, "Resp.": null, "Dpto": "Iriondo", "Long (Km)": 4.87 }, "geometry": { "type": "MultiLineString", "coordinates": [ [ [ -61.050615, -32.659322000000294, 0.0 ], [ -61.051806, -32.657845000000258, 0.0 ], [ -61.063708, -32.6429940000003, 0.0 ], [ -61.063942, -32.64296700000029, 0.0 ], [ -61.06576, -32.643995000000274, 0.0 ], [ -61.065905, -32.644038000000293, 0.0 ], [ -61.066055, -32.644065000000275, 0.0 ], [ -61.067342, -32.644791000000282, 0.0 ], [ -61.07046, -32.646562000000301, 0.0 ], [ -61.072554, -32.647727000000287, 0.0 ], [ -61.072707, -32.64772700000028, 0.0 ], [ -61.072764, -32.647646000000279, 0.0 ], [ -61.073023, -32.64730500000028, 0.0 ], [ -61.073093, -32.647253000000298, 0.0 ], [ -61.073152, -32.647251000000281, 0.0 ], [ -61.073232, -32.647289000000292, 0.0 ], [ -61.083254, -32.653061000000285, 0.0 ], [ -61.085478, -32.654291000000299, 0.0 ], [ -61.086701, -32.654968000000288, 0.0 ], [ -61.087366, -32.655429000000275, 0.0 ] ] ] } },
{ "type": "Feature", "properties": { "Nombre": "Canal Secundario y Terciario Salto Grande", "Datos": "Nueva traza canal", "Estado": "Finalizado", "C Cuenca": "Comite A° Totoras, Canals Salto Grande - Serodino", "Obra": null, "Tipo": "Canal", "Region": null, "Cuenca": null, "Código": null, "Localidad": "Salto Grande", "Direccion": null, "Resp.": null, "Dpto": "Iriondo", "Long (Km)": 7.19 }, "geometry": { "type": "MultiLineString", "coordinates": [ [ [ -61.046563, -32.697171000000274, 0.0 ], [ -61.04866, -32.695530000000289, 0.0 ], [ -61.05024, -32.694314000000276, 0.0 ], [ -61.050597, -32.694025000000295, 0.0 ], [ -61.053733, -32.691557000000302, 0.0 ], [ -61.055935, -32.689833000000284, 0.0 ], [ -61.0563, -32.689546000000284, 0.0 ], [ -61.061816, -32.68522200000028, 0.0 ], [ -61.065056, -32.682766000000278, 0.0 ], [ -61.067234, -32.681032000000272, 0.0 ], [ -61.068543, -32.680093000000291, 0.0 ], [ -61.069534, -32.67925400000027, 0.0 ], [ -61.070706, -32.678304000000253, 0.0 ], [ -61.071519, -32.677646000000287, 0.0 ], [ -61.072139, -32.677163000000277, 0.0 ], [ -61.072376, -32.676968000000286, 0.0 ], [ -61.072535, -32.676876000000306, 0.0 ], [ -61.072658, -32.676869000000302, 0.0 ], [ -61.072773, -32.676889000000287, 0.0 ], [ -61.072905, -32.676961000000276, 0.0 ], [ -61.07305, -32.67707200000028, 0.0 ], [ -61.073278, -32.677203000000276, 0.0 ], [ -61.073406, -32.677295000000285, 0.0 ], [ -61.073498, -32.67731800000027, 0.0 ], [ -61.073565, -32.67733800000029, 0.0 ], [ -61.073648, -32.67734100000029, 0.0 ], [ -61.073736, -32.677307000000255, 0.0 ], [ -61.073844, -32.677257000000289, 0.0 ], [ -61.074349, -32.677012000000289, 0.0 ], [ -61.075223, -32.676705000000268, 0.0 ], [ -61.076124, -32.676456000000279, 0.0 ], [ -61.076774, -32.67628000000029, 0.0 ], [ -61.07753, -32.676140000000267, 0.0 ], [ -61.078273, -32.676005000000281, 0.0 ], [ -61.078683, -32.675942000000269, 0.0 ], [ -61.079456, -32.675842000000301, 0.0 ], [ -61.080051, -32.67577000000027, 0.0 ], [ -61.080475, -32.675748000000262, 0.0 ], [ -61.081718, -32.67564500000028, 0.0 ], [ -61.083005, -32.675527000000265, 0.0 ], [ -61.083925, -32.675448000000301, 0.0 ], [ -61.084894, -32.675363000000281, 0.0 ], [ -61.085602, -32.675266000000271, 0.0 ], [ -61.086288, -32.675143000000276, 0.0 ], [ -61.087326, -32.674888000000294, 0.0 ], [ -61.08767, -32.674791000000269, 0.0 ], [ -61.087863, -32.674717000000292, 0.0 ], [ -61.088029, -32.674638000000279, 0.0 ], [ -61.088433, -32.674476000000283, 0.0 ], [ -61.088808, -32.674318000000298, 0.0 ], [ -61.089184, -32.674138000000262, 0.0 ], [ -61.089629, -32.673910000000291, 0.0 ], [ -61.089964, -32.673709000000287, 0.0 ], [ -61.090251, -32.673530000000284, 0.0 ], [ -61.090487, -32.6733660000003, 0.0 ], [ -61.090993, -32.673009000000285, 0.0 ], [ -61.091272, -32.672793000000269, 0.0 ], [ -61.091556, -32.672558000000286, 0.0 ], [ -61.091894, -32.672251000000273, 0.0 ], [ -61.092093, -32.672056000000275, 0.0 ], [ -61.092206, -32.671934000000284, 0.0 ], [ -61.092299, -32.671821000000278, 0.0 ], [ -61.092409, -32.671713000000267, 0.0 ], [ -61.092482, -32.671618000000265, 0.0 ], [ -61.09257, -32.671525000000287, 0.0 ], [ -61.092815, -32.671209000000289, 0.0 ], [ -61.093078, -32.670807000000295, 0.0 ], [ -61.093287, -32.670491000000268, 0.0 ], [ -61.093464, -32.670161000000292, 0.0 ], [ -61.093641, -32.669836000000281, 0.0 ], [ -61.093727, -32.669646000000299, 0.0 ], [ -61.093786, -32.669511000000263, 0.0 ], [ -61.093947, -32.669046000000286, 0.0 ], [ -61.094201, -32.668593000000278, 0.0 ], [ -61.094376, -32.668270000000284, 0.0 ], [ -61.094454, -32.668106000000272, 0.0 ], [ -61.094652, -32.667663000000267, 0.0 ], [ -61.094936, -32.667094000000276, 0.0 ], [ -61.095172, -32.666575000000286, 0.0 ], [ -61.09544, -32.665988000000283, 0.0 ], [ -61.095735, -32.66537400000027, 0.0 ], [ -61.095977, -32.66484100000028, 0.0 ], [ -61.096212, -32.664326000000287, 0.0 ], [ -61.0964, -32.663920000000275, 0.0 ], [ -61.096679, -32.663328000000284, 0.0 ], [ -61.096963, -32.662696000000281, 0.0 ], [ -61.097285, -32.662036000000278, 0.0 ], [ -61.097703, -32.6610620000003, 0.0 ], [ -61.0981, -32.660195000000279, 0.0 ], [ -61.098481, -32.659445000000289, 0.0 ], [ -61.098838, -32.658702000000275, 0.0 ], [ -61.099121, -32.658058000000281, 0.0 ], [ -61.099357, -32.657570000000277, 0.0 ], [ -61.099561, -32.657164000000286, 0.0 ], [ -61.099735, -32.656893000000281, 0.0 ], [ -61.099902, -32.656667000000283, 0.0 ], [ -61.099979, -32.656546000000283, 0.0 ] ] ] } },
{ "type": "Feature", "properties": { "Nombre": "Canal Bustinza", "Datos": "Limpieza 2025", "Estado": null, "C Cuenca": "Comite A° Totoras, Canals Salto Grande - Serodino", "Obra": null, "Tipo": "Canal", "Region": null, "Cuenca": null, "Código": null, "Localidad": "Bustinza", "Direccion": null, "Resp.": null, "Dpto": "Iriondo", "Long (Km)": 1.63 }, "geometry": { "type": "MultiLineString", "coordinates": [ [ [ -61.299863, -32.738883000000286, 0.0 ], [ -61.29981, -32.738617000000261, 0.0 ], [ -61.299597, -32.737892000000279, 0.0 ], [ -61.299382, -32.737152000000293, 0.0 ], [ -61.299109, -32.736186000000281, 0.0 ], [ -61.298846, -32.735148000000279, 0.0 ], [ -61.298237, -32.732889000000284, 0.0 ], [ -61.297952, -32.73191000000029, 0.0 ], [ -61.297748, -32.731166000000279, 0.0 ], [ -61.297472, -32.730088000000286, 0.0 ], [ -61.29707, -32.728594000000285, 0.0 ], [ -61.296623, -32.726993000000256, 0.0 ], [ -61.296398, -32.726198000000274, 0.0 ], [ -61.296344, -32.725982000000279, 0.0 ], [ -61.297278, -32.725855000000301, 0.0 ], [ -61.297417, -32.725823000000275, 0.0 ], [ -61.297439, -32.725774000000278, 0.0 ], [ -61.297429, -32.725705000000289, 0.0 ], [ -61.297329, -32.725306000000259, 0.0 ] ] ] } },
{ "type": "Feature", "properties": { "Nombre": "Canal Salto Grande", "Datos": "Limpieza de canal en año 2024", "Estado": null, "C Cuenca": "Comite A° Totoras, Canals Salto Grande - Serodino", "Obra": null, "Tipo": "Canal", "Region": null, "Cuenca": null, "Código": null, "Localidad": "Salto Grande", "Direccion": null, "Resp.": null, "Dpto": "Iriondo", "Long (Km)": 1.69 }, "geometry": { "type": "MultiLineString", "coordinates": [ [ [ -61.143134788042538, -32.640928441179938, 0.0 ], [ -61.140418249747448, -32.641416277579417, 0.0 ], [ -61.136762207029207, -32.642118314516509, 0.0 ], [ -61.132502624618596, -32.642929617967575, 0.0 ], [ -61.131794918532051, -32.64299750510029, 0.0 ], [ -61.131517654420684, -32.642751527782558, 0.0 ], [ -61.130069523668617, -32.641199377924956, 0.0 ], [ -61.128111588057116, -32.63900146399358, 0.0 ], [ -61.127909171369041, -32.638869959813903, 0.0 ], [ -61.127807227364741, -32.638937975471876, 0.0 ] ] ] } },
{ "type": "Feature", "properties": { "Nombre": "Canal El Flotante", "Datos": "Limpieza de canal - a pedido por comuna Serodino - año 2024", "Estado": "Finalizado", "C Cuenca": "Comite A° Totoras, Canals Salto Grande - Serodino", "Obra": null, "Tipo": "Canal", "Region": null, "Cuenca": null, "Código": null, "Localidad": "Serodino", "Direccion": null, "Resp.": null, "Dpto": "Iriondo", "Long (Km)": 0.36 }, "geometry": { "type": "MultiLineString", "coordinates": [ [ [ -60.956185364919762, -32.607071975694673, 0.0 ], [ -60.956432615856549, -32.607198105422981, 0.0 ], [ -60.957111089204155, -32.607539799517497, 0.0 ], [ -60.957274979304273, -32.607638720814798, 0.0 ], [ -60.957810050538988, -32.607666381444041, 0.0 ], [ -60.958118162795941, -32.60769911648358, 0.0 ], [ -60.958476189565069, -32.607512953565156, 0.0 ], [ -60.958959874596523, -32.607327132008059, 0.0 ], [ -60.95956798520664, -32.607144735726372, 0.0 ], [ -60.959682768098688, -32.60716462142689, 0.0 ] ] ] } },
{ "type": "Feature", "properties": { "Nombre": "Canal desagüe Municipal Armstrong", "Datos": "Limpieza canal desague municipal - año 2025", "Estado": "Finalizado", "C Cuenca": null, "Obra": null, "Tipo": "Canal", "Region": null, "Cuenca": null, "Código": null, "Localidad": "Armstrong", "Direccion": null, "Resp.": null, "Dpto": "Belgrano", "Long (Km)": 0.19 }, "geometry": { "type": "MultiLineString", "coordinates": [ [ [ -61.592668406173139, -32.77621728937693, 0.0 ], [ -61.592686215711119, -32.776278299538191, 0.0 ], [ -61.592834684325162, -32.77625361672284, 0.0 ], [ -61.593971671375257, -32.777130003599474, 0.0 ], [ -61.594095932662633, -32.777167296425993, 0.0 ], [ -61.5941741138056, -32.777156987813733, 0.0 ] ] ] } },
{ "type": "Feature", "properties": { "Nombre": "Canal cuneta RP19S", "Datos": "Limpieza canal cuneta RP19S - Trabajo encomendado por Comuna Bustinza y D.P.V.", "Estado": "Finalizado", "C Cuenca": "Comite A° Totoras, Canals Salto Grande - Serodino", "Obra": null, "Tipo": "Canal", "Region": null, "Cuenca": null, "Código": null, "Localidad": "Bustinza", "Direccion": null, "Resp.": null, "Dpto": "Iriondo", "Long (Km)": 2.39 }, "geometry": { "type": "MultiLineString", "coordinates": [ [ [ -61.404922460419897, -32.70783363283244, 0.0 ], [ -61.403871348925449, -32.703534988354114, 0.0 ], [ -61.402961037491409, -32.699923531195473, 0.0 ], [ -61.399964359914868, -32.687841050428851, 0.0 ], [ -61.399802393659662, -32.687226468649307, 0.0 ], [ -61.399404457942019, -32.686813939398562, 0.0 ] ] ] } },
{ "type": "Feature", "properties": { "Nombre": "Canal Defensa Oeste I", "Datos": null, "Estado": "En Ejecucion", "C Cuenca": "06- Comite Hidrovial Tostado", "Obra": null, "Tipo": "Canal", "Region": null, "Cuenca": null, "Código": null, "Localidad": "Tostado", "Direccion": null, "Resp.": null, "Dpto": "9 de Julio", "Long (Km)": 9.57 }, "geometry": { "type": "MultiLineString", "coordinates": [ [ [ -61.809412369184351, -29.200285922460026, 0.0 ], [ -61.810057047247831, -29.251300718103696, 0.0 ], [ -61.779873730228552, -29.274699253785514, 0.0 ] ] ] } },
{ "type": "Feature", "properties": { "Nombre": "Canal Defensa Oeste II", "Datos": null, "Estado": "En Ejecucion", "C Cuenca": "06- Comite Hidrovial Tostado", "Obra": null, "Tipo": "Canal", "Region": null, "Cuenca": null, "Código": null, "Localidad": "Tostado", "Direccion": null, "Resp.": null, "Dpto": "9 de Julio", "Long (Km)": 3.52 }, "geometry": { "type": "MultiLineString", "coordinates": [ [ [ -61.779325935987032, -29.274454494656283, 0.0 ], [ -61.778926745502517, -29.243017515549635, 0.0 ], [ -61.778798538339593, -29.242720308035633, 0.0 ] ] ] } },
{ "type": "Feature", "properties": { "Nombre": "Canal Defensa Norte", "Datos": null, "Estado": "En Ejecucion", "C Cuenca": "06- Comite Hidrovial Tostado", "Obra": null, "Tipo": "Canal", "Region": null, "Cuenca": null, "Código": null, "Localidad": "Tostado", "Direccion": null, "Resp.": null, "Dpto": "9 de Julio", "Long (Km)": 2.82 }, "geometry": { "type": "MultiLineString", "coordinates": [ [ [ -61.758085797030908, -29.215605221528815, 0.0 ], [ -61.787089753841322, -29.21529198811945, 0.0 ] ] ] } }
]
}
