{
"type": "FeatureCollection",
"name": "ConAdmDelegada_alcantarillas",
"crs": { "type": "name", "properties": { "name": "urn:ogc:def:crs:OGC:1.3:CRS84" } },
"features": [
{ "type": "Feature", "properties": { "Nombre": "ALC 0", "Datos": null, "Estado": "Finalizado", "Obra": "“CANAL COLECTOR N° 8 Y COLECTOR N° 11 – REACONDICIONAMIENTO OBRAS DE ARTE – DISTRITO CRESPO – DPTO. SAN JUSTO – PROVINCIA DE SANTA FE”", "C Cuenca": "Comité A° Pantanoso y Saladillo Amargo", "Tipo": "Alcantarilla", "Region": "Region 1", "Cuenca": "10- Los Saladillos", "Código": null, "Localidad": "Gobernador Crespo, San Martín Norte, Colonia Dolores", "Direccion": null, "Resp.": null, "Dpto": "San Justo" }, "geometry": { "type": "Point", "coordinates": [ -60.34339065230381, -30.358274213019392 ] } },
{ "type": "Feature", "properties": { "Nombre": "ALC 2", "Datos": null, "Estado": "Finalizado", "Obra": "“CANAL COLECTOR N° 8 Y COLECTOR N° 11 – REACONDICIONAMIENTO OBRAS DE ARTE – DISTRITO CRESPO – DPTO. SAN JUSTO – PROVINCIA DE SANTA FE”", "C Cuenca": "Comité A° Pantanoso y Saladillo Amargo", "Tipo": "Alcantarilla", "Region": "Region 1", "Cuenca": "10- Los Saladillos", "Código": null, "Localidad": "Gobernador Crespo, San Martín Norte, Colonia Dolores", "Direccion": null, "Resp.": null, "Dpto": "San Justo" }, "geometry": { "type": "Point", "coordinates": [ -60.369074492762167, -30.354497222221941 ] } },
{ "type": "Feature", "properties": { "Nombre": "ALC 3", "Datos": null, "Estado": "Finalizado", "Obra": "“CANAL COLECTOR N° 8 Y COLECTOR N° 11 – REACONDICIONAMIENTO OBRAS DE ARTE – DISTRITO CRESPO – DPTO. SAN JUSTO – PROVINCIA DE SANTA FE”", "C Cuenca": "Comité A° Pantanoso y Saladillo Amargo", "Tipo": "Alcantarilla", "Region": "Region 1", "Cuenca": "10- Los Saladillos", "Código": null, "Localidad": "Gobernador Crespo, San Martín Norte, Colonia Dolores", "Direccion": null, "Resp.": null, "Dpto": "San Justo" }, "geometry": { "type": "Point", "coordinates": [ -60.374106827083281, -30.353757506899584 ] } },
{ "type": "Feature", "properties": { "Nombre": "ALC 4", "Datos": null, "Estado": "Finalizado", "Obra": "“CANAL COLECTOR N° 8 Y COLECTOR N° 11 – REACONDICIONAMIENTO OBRAS DE ARTE – DISTRITO CRESPO – DPTO. SAN JUSTO – PROVINCIA DE SANTA FE”", "C Cuenca": "Comité A° Pantanoso y Saladillo Amargo", "Tipo": "Alcantarilla", "Region": "Region 1", "Cuenca": "10- Los Saladillos", "Código": null, "Localidad": "Gobernador Crespo, San Martín Norte, Colonia Dolores", "Direccion": null, "Resp.": null, "Dpto": "San Justo" }, "geometry": { "type": "Point", "coordinates": [ -60.384410367305762, -30.35212222222194 ] } },
{ "type": "Feature", "properties": { "Nombre": "ALC 5", "Datos": null, "Estado": "Finalizado", "Obra": "“CANAL COLECTOR N° 8 Y COLECTOR N° 11 – REACONDICIONAMIENTO OBRAS DE ARTE – DISTRITO CRESPO – DPTO. SAN JUSTO – PROVINCIA DE SANTA FE”", "C Cuenca": "Comité A° Pantanoso y Saladillo Amargo", "Tipo": "Alcantarilla", "Region": "Region 1", "Cuenca": "10- Los Saladillos", "Código": null, "Localidad": "Gobernador Crespo, San Martín Norte, Colonia Dolores", "Direccion": null, "Resp.": null, "Dpto": "San Justo" }, "geometry": { "type": "Point", "coordinates": [ -60.393019774139425, -30.350923943822011 ] } },
{ "type": "Feature", "properties": { "Nombre": "ALC KRAUSS", "Datos": null, "Estado": "Finalizado", "Obra": "“CANAL COLECTOR N° 8 Y COLECTOR N° 11 – REACONDICIONAMIENTO OBRAS DE ARTE – DISTRITO CRESPO – DPTO. SAN JUSTO – PROVINCIA DE SANTA FE”", "C Cuenca": "Comité A° Pantanoso y Saladillo Amargo", "Tipo": "Alcantarilla", "Region": "Region 1", "Cuenca": "10- Los Saladillos", "Código": null, "Localidad": "Vera y pintado, La Criolla", "Direccion": null, "Resp.": null, "Dpto": "San Justo" }, "geometry": { "type": "Point", "coordinates": [ -60.299375, -30.185416666666686 ] } },
{ "type": "Feature", "properties": { "Nombre": "Alcantarilla 2", "Datos": null, "Estado": "Finalizado", "Obra": "“CONSTRUCCION DE ALCANTARILLAS EN ZONA RURAL DEL DISTRITO MARCELINO ESCALADA – DEPARTAMENTO SAN JUSTO – PROVINCIA DE SANTA FE”", "C Cuenca": "Ejecutado por Localidad", "Tipo": "Alcantarilla", "Region": "Region 3", "Cuenca": "8- Río Salado", "Código": null, "Localidad": "Marcelino Escalada", "Direccion": null, "Resp.": "Comuna Marcelino Escalada", "Dpto": "San Justo" }, "geometry": { "type": "Point", "coordinates": [ -60.53408012861528, -30.571714535626981 ] } },
{ "type": "Feature", "properties": { "Nombre": "Alcantarilla 1", "Datos": null, "Estado": "Finalizado", "Obra": "“CONSTRUCCION DE ALCANTARILLAS EN ZONA RURAL DEL DISTRITO MARCELINO ESCALADA – DEPARTAMENTO SAN JUSTO – PROVINCIA DE SANTA FE”", "C Cuenca": "Ejecutado por Localidad", "Tipo": "Alcantarilla", "Region": "Region 3", "Cuenca": "8- Río Salado", "Código": null, "Localidad": "Marcelino Escalada", "Direccion": null, "Resp.": "Comuna Marcelino Escalada", "Dpto": "San Justo" }, "geometry": { "type": "Point", "coordinates": [ -60.534097748443628, -30.571331892749622 ] } },
{ "type": "Feature", "properties": { "Nombre": "T3", "Datos": null, "Estado": "En Ejecucion", "Obra": "“DESAGÜES PLUVIALES CIUDAD DE VERA - CONDUCTO CALLE BELGRANO - SEGUNDA ETAPA – DEPARTAMENTO VERA – PROVINCIA DE SANTA FE”", "C Cuenca": "Ejecutado por Localidad", "Tipo": "Alcantarilla", "Region": "Region 1", "Cuenca": "10- Los Saladillos", "Código": "1712/2024", "Localidad": "Vera", "Direccion": null, "Resp.": "Municipalidad de Vera", "Dpto": "Vera" }, "geometry": { "type": "Point", "coordinates": [ -60.214363438741316, -29.472478555226154 ] } },
{ "type": "Feature", "properties": { "Nombre": "T3", "Datos": null, "Estado": "En Ejecucion", "Obra": "“DESAGÜES PLUVIALES CIUDAD DE VERA - CONDUCTO CALLE BELGRANO - SEGUNDA ETAPA – DEPARTAMENTO VERA – PROVINCIA DE SANTA FE”", "C Cuenca": "Ejecutado por Localidad", "Tipo": "Alcantarilla", "Region": "Region 1", "Cuenca": "10- Los Saladillos", "Código": "1712/2024", "Localidad": "Vera", "Direccion": null, "Resp.": "Municipalidad de Vera", "Dpto": "Vera" }, "geometry": { "type": "Point", "coordinates": [ -60.214270398276355, -29.472038736454781 ] } },
{ "type": "Feature", "properties": { "Nombre": "T3", "Datos": null, "Estado": "En Ejecucion", "Obra": "“DESAGÜES PLUVIALES CIUDAD DE VERA - CONDUCTO CALLE BELGRANO - SEGUNDA ETAPA – DEPARTAMENTO VERA – PROVINCIA DE SANTA FE”", "C Cuenca": "Ejecutado por Localidad", "Tipo": "Alcantarilla", "Region": "Region 1", "Cuenca": "10- Los Saladillos", "Código": "1712/2024", "Localidad": "Vera", "Direccion": null, "Resp.": "Municipalidad de Vera", "Dpto": "Vera" }, "geometry": { "type": "Point", "coordinates": [ -60.214222192321635, -29.471768174031254 ] } },
{ "type": "Feature", "properties": { "Nombre": "T3", "Datos": null, "Estado": "En Ejecucion", "Obra": "“DESAGÜES PLUVIALES CIUDAD DE VERA - CONDUCTO CALLE BELGRANO - SEGUNDA ETAPA – DEPARTAMENTO VERA – PROVINCIA DE SANTA FE”", "C Cuenca": "Ejecutado por Localidad", "Tipo": "Alcantarilla", "Region": "Region 1", "Cuenca": "10- Los Saladillos", "Código": "1712/2024", "Localidad": "Vera", "Direccion": null, "Resp.": "Municipalidad de Vera", "Dpto": "Vera" }, "geometry": { "type": "Point", "coordinates": [ -60.214088099183179, -29.470988859528617 ] } },
{ "type": "Feature", "properties": { "Nombre": "T3 - Belgrano e irigoyen (norte)", "Datos": null, "Estado": "En Ejecucion", "Obra": "“DESAGÜES PLUVIALES CIUDAD DE VERA - CONDUCTO CALLE BELGRANO - SEGUNDA ETAPA – DEPARTAMENTO VERA – PROVINCIA DE SANTA FE”", "C Cuenca": "Ejecutado por Localidad", "Tipo": "Alcantarilla", "Region": "Region 1", "Cuenca": "10- Los Saladillos", "Código": "1712/2024", "Localidad": "Vera", "Direccion": null, "Resp.": "Municipalidad de Vera", "Dpto": "Vera" }, "geometry": { "type": "Point", "coordinates": [ -60.214012485154988, -29.470658277971669 ] } },
{ "type": "Feature", "properties": { "Nombre": "T3 - Belgrano y Leiva (noreste)", "Datos": null, "Estado": "En Ejecucion", "Obra": "“DESAGÜES PLUVIALES CIUDAD DE VERA - CONDUCTO CALLE BELGRANO - SEGUNDA ETAPA – DEPARTAMENTO VERA – PROVINCIA DE SANTA FE”", "C Cuenca": "Ejecutado por Localidad", "Tipo": "Alcantarilla", "Region": "Region 1", "Cuenca": "10- Los Saladillos", "Código": "1712/2024", "Localidad": "Vera", "Direccion": null, "Resp.": "Municipalidad de Vera Municipalidad de Vera", "Dpto": "Vera" }, "geometry": { "type": "Point", "coordinates": [ -60.213702397876098, -29.469699689922617 ] } },
{ "type": "Feature", "properties": { "Nombre": "T3", "Datos": null, "Estado": "En Ejecucion", "Obra": "“DESAGÜES PLUVIALES CIUDAD DE VERA - CONDUCTO CALLE BELGRANO - SEGUNDA ETAPA – DEPARTAMENTO VERA – PROVINCIA DE SANTA FE”", "C Cuenca": "Ejecutado por Localidad", "Tipo": "Alcantarilla", "Region": "Region 1", "Cuenca": "10- Los Saladillos", "Código": "1712/2024", "Localidad": "Vera", "Direccion": null, "Resp.": "Municipalidad de Vera", "Dpto": "Vera" }, "geometry": { "type": "Point", "coordinates": [ -60.213811474185796, -29.469609929471812 ] } },
{ "type": "Feature", "properties": { "Nombre": "T3", "Datos": null, "Estado": "En Ejecucion", "Obra": "“DESAGÜES PLUVIALES CIUDAD DE VERA - CONDUCTO CALLE BELGRANO - SEGUNDA ETAPA – DEPARTAMENTO VERA – PROVINCIA DE SANTA FE”", "C Cuenca": "Ejecutado por Localidad", "Tipo": "Alcantarilla", "Region": "Region 1", "Cuenca": "10- Los Saladillos", "Código": "1712/2024", "Localidad": "Vera", "Direccion": null, "Resp.": "Municipalidad de Vera", "Dpto": "Vera" }, "geometry": { "type": "Point", "coordinates": [ -60.213643932572175, -29.468837123838522 ] } },
{ "type": "Feature", "properties": { "Nombre": "T3", "Datos": null, "Estado": "En Ejecucion", "Obra": "“DESAGÜES PLUVIALES CIUDAD DE VERA - CONDUCTO CALLE BELGRANO - SEGUNDA ETAPA – DEPARTAMENTO VERA – PROVINCIA DE SANTA FE”", "C Cuenca": "Ejecutado por Localidad", "Tipo": "Alcantarilla", "Region": "Region 1", "Cuenca": "10- Los Saladillos", "Código": "1712/2024", "Localidad": "Vera", "Direccion": null, "Resp.": "Municipalidad de Vera Municipalidad de Vera Municipalidad de Vera Municipalidad de Vera", "Dpto": "Vera" }, "geometry": { "type": "Point", "coordinates": [ -60.213461364495579, -29.467761939257986 ] } },
{ "type": "Feature", "properties": { "Nombre": "T1", "Datos": null, "Estado": "En Ejecucion", "Obra": "“DESAGÜES PLUVIALES CIUDAD DE VERA - CONDUCTO CALLE BELGRANO - SEGUNDA ETAPA – DEPARTAMENTO VERA – PROVINCIA DE SANTA FE”", "C Cuenca": "Ejecutado por Localidad", "Tipo": "Alcantarilla", "Region": "Region 1", "Cuenca": "10- Los Saladillos", "Código": "1712/2024", "Localidad": "Vera", "Direccion": null, "Resp.": "Municipalidad de Vera", "Dpto": "Vera" }, "geometry": { "type": "Point", "coordinates": [ -60.21426654876548, -29.472501300892052 ] } },
{ "type": "Feature", "properties": { "Nombre": "T1", "Datos": null, "Estado": "En Ejecucion", "Obra": "“DESAGÜES PLUVIALES CIUDAD DE VERA - CONDUCTO CALLE BELGRANO - SEGUNDA ETAPA – DEPARTAMENTO VERA – PROVINCIA DE SANTA FE”", "C Cuenca": "Ejecutado por Localidad", "Tipo": "Alcantarilla", "Region": "Region 1", "Cuenca": "10- Los Saladillos", "Código": "1712/2024", "Localidad": "Vera", "Direccion": null, "Resp.": "Municipalidad de Vera", "Dpto": "Vera" }, "geometry": { "type": "Point", "coordinates": [ -60.214170323056436, -29.472063608349135 ] } },
{ "type": "Feature", "properties": { "Nombre": "T1", "Datos": null, "Estado": "En Ejecucion", "Obra": "“DESAGÜES PLUVIALES CIUDAD DE VERA - CONDUCTO CALLE BELGRANO - SEGUNDA ETAPA – DEPARTAMENTO VERA – PROVINCIA DE SANTA FE”", "C Cuenca": "Ejecutado por Localidad", "Tipo": "Alcantarilla", "Region": "Region 1", "Cuenca": "10- Los Saladillos", "Código": "1712/2024", "Localidad": "Vera", "Direccion": null, "Resp.": "Municipalidad de Vera", "Dpto": "Vera" }, "geometry": { "type": "Point", "coordinates": [ -60.2141215574065, -29.471776844835254 ] } },
{ "type": "Feature", "properties": { "Nombre": "T1", "Datos": null, "Estado": "En Ejecucion", "Obra": "“DESAGÜES PLUVIALES CIUDAD DE VERA - CONDUCTO CALLE BELGRANO - SEGUNDA ETAPA – DEPARTAMENTO VERA – PROVINCIA DE SANTA FE”", "C Cuenca": "Ejecutado por Localidad", "Tipo": "Alcantarilla", "Region": "Region 1", "Cuenca": "10- Los Saladillos", "Código": "1712/2024", "Localidad": "Vera", "Direccion": null, "Resp.": "Municipalidad de Vera", "Dpto": "Vera" }, "geometry": { "type": "Point", "coordinates": [ -60.21398960662529, -29.471011161558014 ] } },
{ "type": "Feature", "properties": { "Nombre": "T1 - Belgrano e Irigoyen (Norte)", "Datos": null, "Estado": "En Ejecucion", "Obra": "“DESAGÜES PLUVIALES CIUDAD DE VERA - CONDUCTO CALLE BELGRANO - SEGUNDA ETAPA – DEPARTAMENTO VERA – PROVINCIA DE SANTA FE”", "C Cuenca": "Ejecutado por Localidad", "Tipo": "Alcantarilla", "Region": "Region 1", "Cuenca": "10- Los Saladillos", "Código": "1712/2024", "Localidad": "Vera", "Direccion": null, "Resp.": "Municipalidad de Vera", "Dpto": "Vera" }, "geometry": { "type": "Point", "coordinates": [ -60.213934039352928, -29.470689138108742 ] } },
{ "type": "Feature", "properties": { "Nombre": "T1 - Leiva y Belgrano (oeste)", "Datos": null, "Estado": "En Ejecucion", "Obra": "“DESAGÜES PLUVIALES CIUDAD DE VERA - CONDUCTO CALLE BELGRANO - SEGUNDA ETAPA – DEPARTAMENTO VERA – PROVINCIA DE SANTA FE”", "C Cuenca": "Ejecutado por Localidad", "Tipo": "Alcantarilla", "Region": "Region 1", "Cuenca": "10- Los Saladillos", "Código": "1712/2024", "Localidad": "Vera", "Direccion": null, "Resp.": "Municipalidad de Vera", "Dpto": "Vera" }, "geometry": { "type": "Point", "coordinates": [ -60.2138534063969, -29.469833981633027 ] } },
{ "type": "Feature", "properties": { "Nombre": "T1", "Datos": null, "Estado": "En Ejecucion", "Obra": "“DESAGÜES PLUVIALES CIUDAD DE VERA - CONDUCTO CALLE BELGRANO - SEGUNDA ETAPA – DEPARTAMENTO VERA – PROVINCIA DE SANTA FE”", "C Cuenca": "Ejecutado por Localidad", "Tipo": "Alcantarilla", "Region": "Region 1", "Cuenca": "10- Los Saladillos", "Código": "1712/2024", "Localidad": "Vera", "Direccion": null, "Resp.": "Municipalidad de Vera", "Dpto": "Vera" }, "geometry": { "type": "Point", "coordinates": [ -60.213704334656128, -29.469625734381239 ] } },
{ "type": "Feature", "properties": { "Nombre": "T1", "Datos": null, "Estado": "En Ejecucion", "Obra": "“DESAGÜES PLUVIALES CIUDAD DE VERA - CONDUCTO CALLE BELGRANO - SEGUNDA ETAPA – DEPARTAMENTO VERA – PROVINCIA DE SANTA FE”", "C Cuenca": "Ejecutado por Localidad", "Tipo": "Alcantarilla", "Region": "Region 1", "Cuenca": "10- Los Saladillos", "Código": "1712/2024", "Localidad": "Vera", "Direccion": null, "Resp.": "Municipalidad de Vera", "Dpto": "Vera" }, "geometry": { "type": "Point", "coordinates": [ -60.213533922051717, -29.468850509505749 ] } },
{ "type": "Feature", "properties": { "Nombre": "T2", "Datos": null, "Estado": "En Ejecucion", "Obra": "“DESAGÜES PLUVIALES CIUDAD DE VERA - CONDUCTO CALLE BELGRANO - SEGUNDA ETAPA – DEPARTAMENTO VERA – PROVINCIA DE SANTA FE”", "C Cuenca": "Ejecutado por Localidad", "Tipo": "Alcantarilla", "Region": "Region 1", "Cuenca": "10- Los Saladillos", "Código": "1712/2024", "Localidad": "Vera", "Direccion": null, "Resp.": "Municipalidad de Vera", "Dpto": "Vera" }, "geometry": { "type": "Point", "coordinates": [ -60.213356853487241, -29.467769240804312 ] } },
{ "type": "Feature", "properties": { "Nombre": "T2", "Datos": null, "Estado": "En Ejecucion", "Obra": "“DESAGÜES PLUVIALES CIUDAD DE VERA - CONDUCTO CALLE BELGRANO - SEGUNDA ETAPA – DEPARTAMENTO VERA – PROVINCIA DE SANTA FE”", "C Cuenca": "Ejecutado por Localidad", "Tipo": "Alcantarilla", "Region": "Region 1", "Cuenca": "10- Los Saladillos", "Código": "1712/2024", "Localidad": "Vera", "Direccion": null, "Resp.": "Municipalidad de Vera", "Dpto": "Vera" }, "geometry": { "type": "Point", "coordinates": [ -60.213425219671869, -29.467570524734015 ] } },
{ "type": "Feature", "properties": { "Nombre": "T2", "Datos": null, "Estado": "En Ejecucion", "Obra": "“DESAGÜES PLUVIALES CIUDAD DE VERA - CONDUCTO CALLE BELGRANO - SEGUNDA ETAPA – DEPARTAMENTO VERA – PROVINCIA DE SANTA FE”", "C Cuenca": "Ejecutado por Localidad", "Tipo": "Alcantarilla", "Region": "Region 1", "Cuenca": "10- Los Saladillos", "Código": "1712/2024", "Localidad": "Vera", "Direccion": null, "Resp.": "Municipalidad de Vera", "Dpto": "Vera" }, "geometry": { "type": "Point", "coordinates": [ -60.214437368632645, -29.467428841828582 ] } },
{ "type": "Feature", "properties": { "Nombre": "T2", "Datos": null, "Estado": "En Ejecucion", "Obra": "“DESAGÜES PLUVIALES CIUDAD DE VERA - CONDUCTO CALLE BELGRANO - SEGUNDA ETAPA – DEPARTAMENTO VERA – PROVINCIA DE SANTA FE”", "C Cuenca": "Ejecutado por Localidad", "Tipo": "Alcantarilla", "Region": "Region 1", "Cuenca": "10- Los Saladillos", "Código": "1712/2024", "Localidad": "Vera", "Direccion": null, "Resp.": "Municipalidad de Vera", "Dpto": "Vera" }, "geometry": { "type": "Point", "coordinates": [ -60.214742642083259, -29.467377284856319 ] } },
{ "type": "Feature", "properties": { "Nombre": "T2", "Datos": null, "Estado": "En Ejecucion", "Obra": "“DESAGÜES PLUVIALES CIUDAD DE VERA - CONDUCTO CALLE BELGRANO - SEGUNDA ETAPA – DEPARTAMENTO VERA – PROVINCIA DE SANTA FE”", "C Cuenca": "Ejecutado por Localidad", "Tipo": "Alcantarilla", "Region": "Region 1", "Cuenca": "10- Los Saladillos", "Código": "1712/2024", "Localidad": "Vera", "Direccion": null, "Resp.": "Municipalidad de Vera", "Dpto": "Vera" }, "geometry": { "type": "Point", "coordinates": [ -60.215652819206568, -29.467232161298703 ] } },
{ "type": "Feature", "properties": { "Nombre": "T2", "Datos": null, "Estado": "En Ejecucion", "Obra": "“DESAGÜES PLUVIALES CIUDAD DE VERA - CONDUCTO CALLE BELGRANO - SEGUNDA ETAPA – DEPARTAMENTO VERA – PROVINCIA DE SANTA FE”", "C Cuenca": "Ejecutado por Localidad", "Tipo": "Alcantarilla", "Region": "Region 1", "Cuenca": "10- Los Saladillos", "Código": "1712/2024", "Localidad": "Vera", "Direccion": null, "Resp.": "Municipalidad de Vera", "Dpto": "Vera" }, "geometry": { "type": "Point", "coordinates": [ -60.21599663409151, -29.46718052577442 ] } },
{ "type": "Feature", "properties": { "Nombre": "T2", "Datos": null, "Estado": "En Ejecucion", "Obra": "“DESAGÜES PLUVIALES CIUDAD DE VERA - CONDUCTO CALLE BELGRANO - SEGUNDA ETAPA – DEPARTAMENTO VERA – PROVINCIA DE SANTA FE”", "C Cuenca": "Ejecutado por Localidad", "Tipo": "Alcantarilla", "Region": "Region 1", "Cuenca": "10- Los Saladillos", "Código": "1712/2024", "Localidad": "Vera", "Direccion": null, "Resp.": "Municipalidad de Vera", "Dpto": "Vera" }, "geometry": { "type": "Point", "coordinates": [ -60.216844340866068, -29.467068647315713 ] } },
{ "type": "Feature", "properties": { "Nombre": "T2", "Datos": null, "Estado": "En Ejecucion", "Obra": "“DESAGÜES PLUVIALES CIUDAD DE VERA - CONDUCTO CALLE BELGRANO - SEGUNDA ETAPA – DEPARTAMENTO VERA – PROVINCIA DE SANTA FE”", "C Cuenca": "Ejecutado por Localidad", "Tipo": "Alcantarilla", "Region": "Region 1", "Cuenca": "10- Los Saladillos", "Código": "1712/2024", "Localidad": "Vera", "Direccion": null, "Resp.": "Municipalidad de Vera", "Dpto": "Vera" }, "geometry": { "type": "Point", "coordinates": [ -60.216971955376138, -29.466932527914455 ] } },
{ "type": "Feature", "properties": { "Nombre": "T2", "Datos": null, "Estado": "En Ejecucion", "Obra": "“DESAGÜES PLUVIALES CIUDAD DE VERA - CONDUCTO CALLE BELGRANO - SEGUNDA ETAPA – DEPARTAMENTO VERA – PROVINCIA DE SANTA FE”", "C Cuenca": "Ejecutado por Localidad", "Tipo": "Alcantarilla", "Region": "Region 1", "Cuenca": "10- Los Saladillos", "Código": "1712/2024", "Localidad": "Vera", "Direccion": null, "Resp.": "Municipalidad de Vera", "Dpto": "Vera" }, "geometry": { "type": "Point", "coordinates": [ -60.216830889959802, -29.466191675029471 ] } },
{ "type": "Feature", "properties": { "Nombre": "T2", "Datos": null, "Estado": "En Ejecucion", "Obra": "“DESAGÜES PLUVIALES CIUDAD DE VERA - CONDUCTO CALLE BELGRANO - SEGUNDA ETAPA – DEPARTAMENTO VERA – PROVINCIA DE SANTA FE”", "C Cuenca": "Ejecutado por Localidad", "Tipo": "Alcantarilla", "Region": "Region 1", "Cuenca": "10- Los Saladillos", "Código": "1712/2024", "Localidad": "Vera", "Direccion": null, "Resp.": "Municipalidad de Vera", "Dpto": "Vera" }, "geometry": { "type": "Point", "coordinates": [ -60.216760426305996, -29.465891040623326 ] } },
{ "type": "Feature", "properties": { "Nombre": "T2", "Datos": null, "Estado": "En Ejecucion", "Obra": "“DESAGÜES PLUVIALES CIUDAD DE VERA - CONDUCTO CALLE BELGRANO - SEGUNDA ETAPA – DEPARTAMENTO VERA – PROVINCIA DE SANTA FE”", "C Cuenca": "Ejecutado por Localidad", "Tipo": "Alcantarilla", "Region": "Region 1", "Cuenca": "10- Los Saladillos", "Código": "1712/2024", "Localidad": "Vera", "Direccion": null, "Resp.": "Municipalidad de Vera", "Dpto": "Vera" }, "geometry": { "type": "Point", "coordinates": [ -60.216612471566954, -29.465083920707329 ] } },
{ "type": "Feature", "properties": { "Nombre": "T2", "Datos": null, "Estado": "En Ejecucion", "Obra": "“DESAGÜES PLUVIALES CIUDAD DE VERA - CONDUCTO CALLE BELGRANO - SEGUNDA ETAPA – DEPARTAMENTO VERA – PROVINCIA DE SANTA FE”", "C Cuenca": "Ejecutado por Localidad", "Tipo": "Alcantarilla", "Region": "Region 1", "Cuenca": "10- Los Saladillos", "Código": "1712/2024", "Localidad": "Vera", "Direccion": null, "Resp.": "Municipalidad de Vera", "Dpto": "Vera" }, "geometry": { "type": "Point", "coordinates": [ -60.216567371100801, -29.464832500159076 ] } },
{ "type": "Feature", "properties": { "Nombre": "T2", "Datos": null, "Estado": "En Ejecucion", "Obra": "“DESAGÜES PLUVIALES CIUDAD DE VERA - CONDUCTO CALLE BELGRANO - SEGUNDA ETAPA – DEPARTAMENTO VERA – PROVINCIA DE SANTA FE”", "C Cuenca": "Ejecutado por Localidad", "Tipo": "Alcantarilla", "Region": "Region 1", "Cuenca": "10- Los Saladillos", "Código": "1712/2024", "Localidad": "Vera", "Direccion": null, "Resp.": "Municipalidad de Vera", "Dpto": "Vera" }, "geometry": { "type": "Point", "coordinates": [ -60.216157694107515, -29.463007047245835 ] } },
{ "type": "Feature", "properties": { "Nombre": "T2", "Datos": null, "Estado": "En Ejecucion", "Obra": "“DESAGÜES PLUVIALES CIUDAD DE VERA - CONDUCTO CALLE BELGRANO - SEGUNDA ETAPA – DEPARTAMENTO VERA – PROVINCIA DE SANTA FE”", "C Cuenca": "Ejecutado por Localidad", "Tipo": "Alcantarilla", "Region": "Region 1", "Cuenca": "10- Los Saladillos", "Código": "1712/2024", "Localidad": "Vera", "Direccion": null, "Resp.": "Municipalidad de Vera", "Dpto": "Vera" }, "geometry": { "type": "Point", "coordinates": [ -60.215978876186433, -29.461917981127346 ] } },
{ "type": "Feature", "properties": { "Nombre": "T2", "Datos": null, "Estado": "En Ejecucion", "Obra": "“DESAGÜES PLUVIALES CIUDAD DE VERA - CONDUCTO CALLE BELGRANO - SEGUNDA ETAPA – DEPARTAMENTO VERA – PROVINCIA DE SANTA FE”", "C Cuenca": "Ejecutado por Localidad", "Tipo": "Alcantarilla", "Region": "Region 1", "Cuenca": "10- Los Saladillos", "Código": "1712/2024", "Localidad": "Vera", "Direccion": null, "Resp.": "Municipalidad de Vera", "Dpto": "Vera" }, "geometry": { "type": "Point", "coordinates": [ -60.215899626071831, -29.460824433507238 ] } },
{ "type": "Feature", "properties": { "Nombre": "T2", "Datos": null, "Estado": "En Ejecucion", "Obra": "“DESAGÜES PLUVIALES CIUDAD DE VERA - CONDUCTO CALLE BELGRANO - SEGUNDA ETAPA – DEPARTAMENTO VERA – PROVINCIA DE SANTA FE”", "C Cuenca": "Ejecutado por Localidad", "Tipo": "Alcantarilla", "Region": "Region 1", "Cuenca": "10- Los Saladillos", "Código": "1712/2024", "Localidad": "Vera", "Direccion": null, "Resp.": "Municipalidad de Vera", "Dpto": "Vera" }, "geometry": { "type": "Point", "coordinates": [ -60.216095510126557, -29.461902737782882 ] } },
{ "type": "Feature", "properties": { "Nombre": "T2", "Datos": null, "Estado": "En Ejecucion", "Obra": "“DESAGÜES PLUVIALES CIUDAD DE VERA - CONDUCTO CALLE BELGRANO - SEGUNDA ETAPA – DEPARTAMENTO VERA – PROVINCIA DE SANTA FE”", "C Cuenca": "Ejecutado por Localidad", "Tipo": "Alcantarilla", "Region": "Region 1", "Cuenca": "10- Los Saladillos", "Código": "1712/2024", "Localidad": "Vera", "Direccion": null, "Resp.": "Municipalidad de Vera", "Dpto": "Vera" }, "geometry": { "type": "Point", "coordinates": [ -60.216282588092611, -29.463002189217054 ] } },
{ "type": "Feature", "properties": { "Nombre": "T2", "Datos": null, "Estado": "En Ejecucion", "Obra": "“DESAGÜES PLUVIALES CIUDAD DE VERA - CONDUCTO CALLE BELGRANO - SEGUNDA ETAPA – DEPARTAMENTO VERA – PROVINCIA DE SANTA FE”", "C Cuenca": "Ejecutado por Localidad", "Tipo": "Alcantarilla", "Region": "Region 1", "Cuenca": "10- Los Saladillos", "Código": "1712/2024", "Localidad": "Vera", "Direccion": null, "Resp.": "Municipalidad de Vera", "Dpto": "Vera" }, "geometry": { "type": "Point", "coordinates": [ -60.216441540374731, -29.463779742808487 ] } },
{ "type": "Feature", "properties": { "Nombre": "T1", "Datos": null, "Estado": "En Ejecucion", "Obra": "“DESAGÜES PLUVIALES CIUDAD DE VERA - CONDUCTO CALLE BELGRANO - SEGUNDA ETAPA – DEPARTAMENTO VERA – PROVINCIA DE SANTA FE”", "C Cuenca": "Ejecutado por Localidad", "Tipo": "Alcantarilla", "Region": "Region 1", "Cuenca": "10- Los Saladillos", "Código": "1712/2024", "Localidad": "Vera", "Direccion": null, "Resp.": "Municipalidad de Vera", "Dpto": "Vera" }, "geometry": { "type": "Point", "coordinates": [ -60.214769793646276, -29.467471322624778 ] } },
{ "type": "Feature", "properties": { "Nombre": "T1", "Datos": null, "Estado": "En Ejecucion", "Obra": "“DESAGÜES PLUVIALES CIUDAD DE VERA - CONDUCTO CALLE BELGRANO - SEGUNDA ETAPA – DEPARTAMENTO VERA – PROVINCIA DE SANTA FE”", "C Cuenca": "Ejecutado por Localidad", "Tipo": "Alcantarilla", "Region": "Region 1", "Cuenca": "10- Los Saladillos", "Código": "1712/2024", "Localidad": "Vera", "Direccion": null, "Resp.": "Municipalidad de Vera", "Dpto": "Vera" }, "geometry": { "type": "Point", "coordinates": [ -60.21446292191392, -29.467549903771388 ] } },
{ "type": "Feature", "properties": { "Nombre": "N°1 - Calle Iturraspe", "Datos": "Ejecución de 6 (seis) Alcantarillas sobre el Canal San Martín (intersección Calles Iturraspe, alte. Brown, Gral. Paz, Gral. Artigas, O Higgins y Libertad)", "Estado": "En Ejecucion", "Obra": "ADECUACIÓN CANAL URBANO SAN MARTIN – DISTRITO SAN JORGE – DEPARTAMENTO SAN MARTIN – PROVINCIA DE SANTA FE", "C Cuenca": "Ejecutado por Localidad", "Tipo": "Alcantarilla", "Region": "Region 4", "Cuenca": "13- Cañada Carrizales", "Código": null, "Localidad": "San Jorge", "Direccion": null, "Resp.": "Municipalidad de San Jorge", "Dpto": "San Martin" }, "geometry": { "type": "Point", "coordinates": [ -61.866504689915274, -31.888633808159259 ] } },
{ "type": "Feature", "properties": { "Nombre": "N° 2 - Calle Alte. Brown", "Datos": "Ejecución de 6 (seis) Alcantarillas sobre el Canal San Martín (intersección Calles Iturraspe, alte. Brown, Gral. Paz, Gral. Artigas, O Higgins y Libertad)", "Estado": "En Ejecucion", "Obra": "ADECUACIÓN CANAL URBANO SAN MARTIN – DISTRITO SAN JORGE – DEPARTAMENTO SAN MARTIN – PROVINCIA DE SANTA FE", "C Cuenca": "Ejecutado por Localidad", "Tipo": "Alcantarilla", "Region": "Region 4", "Cuenca": "13- Cañada Carrizales", "Código": null, "Localidad": "San Jorge", "Direccion": null, "Resp.": "Municipalidad de San Jorge", "Dpto": "San Martin" }, "geometry": { "type": "Point", "coordinates": [ -61.867669153828913, -31.889109661934047 ] } },
{ "type": "Feature", "properties": { "Nombre": "N° 4 - Calle Artigas", "Datos": "Ejecución de 6 (seis) Alcantarillas sobre el Canal San Martín (intersección Calles Iturraspe, alte. Brown, Gral. Paz, Gral. Artigas, O Higgins y Libertad)", "Estado": "En Ejecucion", "Obra": "ADECUACIÓN CANAL URBANO SAN MARTIN – DISTRITO SAN JORGE – DEPARTAMENTO SAN MARTIN – PROVINCIA DE SANTA FE", "C Cuenca": "Ejecutado por Localidad", "Tipo": "Alcantarilla", "Region": "Region 4", "Cuenca": "13- Cañada Carrizales", "Código": null, "Localidad": "San Jorge", "Direccion": null, "Resp.": "Municipalidad de San Jorge", "Dpto": "San Martin" }, "geometry": { "type": "Point", "coordinates": [ -61.86999070636957, -31.889529463247424 ] } },
{ "type": "Feature", "properties": { "Nombre": "N° 5 - Calle O Higgins", "Datos": "Ejecución de 6 (seis) Alcantarillas sobre el Canal San Martín (intersección Calles Iturraspe, alte. Brown, Gral. Paz, Gral. Artigas, O Higgins y Libertad)", "Estado": "En Ejecucion", "Obra": "ADECUACIÓN CANAL URBANO SAN MARTIN – DISTRITO SAN JORGE – DEPARTAMENTO SAN MARTIN – PROVINCIA DE SANTA FE", "C Cuenca": "Ejecutado por Localidad", "Tipo": "Alcantarilla", "Region": "Region 4", "Cuenca": "13- Cañada Carrizales", "Código": null, "Localidad": "San Jorge", "Direccion": null, "Resp.": "Municipalidad de San Jorge", "Dpto": "San Martin" }, "geometry": { "type": "Point", "coordinates": [ -61.871045686790708, -31.889562948520879 ] } },
{ "type": "Feature", "properties": { "Nombre": "N° 6 - Calle Libertad", "Datos": "Ejecución de 6 (seis) Alcantarillas sobre el Canal San Martín (intersección Calles Iturraspe, alte. Brown, Gral. Paz, Gral. Artigas, O Higgins y Libertad)", "Estado": "En Ejecucion", "Obra": "ADECUACIÓN CANAL URBANO SAN MARTIN – DISTRITO SAN JORGE – DEPARTAMENTO SAN MARTIN – PROVINCIA DE SANTA FE", "C Cuenca": "Ejecutado por Localidad", "Tipo": "Alcantarilla", "Region": "Region 4", "Cuenca": "13- Cañada Carrizales", "Código": null, "Localidad": "San Jorge", "Direccion": null, "Resp.": "Municipalidad de San Jorge", "Dpto": "San Martin" }, "geometry": { "type": "Point", "coordinates": [ -61.872264072276195, -31.890038335937334 ] } },
{ "type": "Feature", "properties": { "Nombre": "N° 3 - Calle Gral. Paz", "Datos": "Ejecución de 6 (seis) Alcantarillas sobre el Canal San Martín (intersección Calles Iturraspe, alte. Brown, Gral. Paz, Gral. Artigas, O Higgins y Libertad)", "Estado": "En Ejecucion", "Obra": "ADECUACIÓN CANAL URBANO SAN MARTIN – DISTRITO SAN JORGE – DEPARTAMENTO SAN MARTIN – PROVINCIA DE SANTA FE", "C Cuenca": "Ejecutado por Localidad", "Tipo": "Alcantarilla", "Region": "Region 4", "Cuenca": "13- Cañada Carrizales", "Código": null, "Localidad": "San Jorge", "Direccion": null, "Resp.": "Municipalidad de San Jorge", "Dpto": "San Martin" }, "geometry": { "type": "Point", "coordinates": [ -61.868753681539175, -31.889002193675118 ] } },
{ "type": "Feature", "properties": { "Nombre": "N° 1 (1,00)", "Datos": "Diam: 1,00m AC=12,00m", "Estado": "En Ejecucion", "Obra": "EJECUCIÓN DE ALCANTARILLAS SOBRE CAMINOS COMUNALES EN CANAL ALTERNATIVA SUR I – DEPTO. LAS COLONIAS – PROVINCIA DE SANTA FE", "C Cuenca": "Comité de Cuenca Canal Pricipal Santa María - San Jerónimo Norte", "Tipo": "Alcantarilla", "Region": "Region 4", "Cuenca": "12- Arroyo Los Padres", "Código": null, "Localidad": "San Jerónimo del Sauce", "Direccion": null, "Resp.": null, "Dpto": "Las Colonias" }, "geometry": { "type": "Point", "coordinates": [ -61.144378867764253, -31.620552566857409 ] } },
{ "type": "Feature", "properties": { "Nombre": "N° 2 (0,80)", "Datos": "Diam 1,00m AC=10,00m", "Estado": "En Ejecucion", "Obra": "EJECUCIÓN DE ALCANTARILLAS SOBRE CAMINOS COMUNALES EN CANAL ALTERNATIVA SUR I – DEPTO. LAS COLONIAS – PROVINCIA DE SANTA FE", "C Cuenca": "Comité de Cuenca Canal Pricipal Santa María - San Jerónimo Norte", "Tipo": "Alcantarilla", "Region": "Region 4", "Cuenca": "12- Arroyo Los Padres", "Código": null, "Localidad": "San Jerónimo del Sauce", "Direccion": null, "Resp.": null, "Dpto": "Las Colonias" }, "geometry": { "type": "Point", "coordinates": [ -61.138011519983223, -31.621845043536982 ] } },
{ "type": "Feature", "properties": { "Nombre": "N° 3 (1,00)", "Datos": "Diam 1,00m AC=9,00 m", "Estado": "En Ejecucion", "Obra": "EJECUCIÓN DE ALCANTARILLAS SOBRE CAMINOS COMUNALES EN CANAL ALTERNATIVA SUR I – DEPTO. LAS COLONIAS – PROVINCIA DE SANTA FE", "C Cuenca": "Comité de Cuenca Canal Pricipal Santa María - San Jerónimo Norte", "Tipo": "Alcantarilla", "Region": "Region 4", "Cuenca": "12- Arroyo Los Padres", "Código": null, "Localidad": "San Jerónimo del Sauce", "Direccion": null, "Resp.": null, "Dpto": "Las Colonias" }, "geometry": { "type": "Point", "coordinates": [ -61.124857163202819, -31.622563943271871 ] } },
{ "type": "Feature", "properties": { "Nombre": "N° 4 (0,80)", "Datos": "Diam 0,80 m AC=9,00m", "Estado": "En Ejecucion", "Obra": "EJECUCIÓN DE ALCANTARILLAS SOBRE CAMINOS COMUNALES EN CANAL ALTERNATIVA SUR I – DEPTO. LAS COLONIAS – PROVINCIA DE SANTA FE", "C Cuenca": "Comité de Cuenca Canal Pricipal Santa María - San Jerónimo Norte", "Tipo": "Alcantarilla", "Region": "Region 4", "Cuenca": "12- Arroyo Los Padres", "Código": null, "Localidad": "San Jerónimo del Sauce", "Direccion": null, "Resp.": null, "Dpto": "Las Colonias" }, "geometry": { "type": "Point", "coordinates": [ -61.120883931217385, -31.622706081096915 ] } },
{ "type": "Feature", "properties": { "Nombre": "N° 5 (1,00)", "Datos": null, "Estado": "En Ejecucion", "Obra": "EJECUCIÓN DE ALCANTARILLAS SOBRE CAMINOS COMUNALES EN CANAL ALTERNATIVA SUR I – DEPTO. LAS COLONIAS – PROVINCIA DE SANTA FE", "C Cuenca": "Comité de Cuenca Canal Pricipal Santa María - San Jerónimo Norte", "Tipo": "Alcantarilla", "Region": "Region 4", "Cuenca": "12- Arroyo Los Padres", "Código": null, "Localidad": "San Jerónimo del Sauce", "Direccion": null, "Resp.": null, "Dpto": "Las Colonias" }, "geometry": { "type": "Point", "coordinates": [ -61.11721692426687, -31.62299397060621 ] } },
{ "type": "Feature", "properties": { "Nombre": "N° 6 (0,80)", "Datos": null, "Estado": "En Ejecucion", "Obra": "EJECUCIÓN DE ALCANTARILLAS SOBRE CAMINOS COMUNALES EN CANAL ALTERNATIVA SUR I – DEPTO. LAS COLONIAS – PROVINCIA DE SANTA FE", "C Cuenca": "Comité de Cuenca Canal Pricipal Santa María - San Jerónimo Norte", "Tipo": "Alcantarilla", "Region": "Region 4", "Cuenca": "12- Arroyo Los Padres", "Código": null, "Localidad": "San Jerónimo del Sauce", "Direccion": null, "Resp.": null, "Dpto": "Las Colonias" }, "geometry": { "type": "Point", "coordinates": [ -61.107888031793799, -31.62472084683878 ] } },
{ "type": "Feature", "properties": { "Nombre": "N° 7 (0,80)", "Datos": null, "Estado": "En Ejecucion", "Obra": "EJECUCIÓN DE ALCANTARILLAS SOBRE CAMINOS COMUNALES EN CANAL ALTERNATIVA SUR I – DEPTO. LAS COLONIAS – PROVINCIA DE SANTA FE", "C Cuenca": "Comité de Cuenca Canal Pricipal Santa María - San Jerónimo Norte", "Tipo": "Alcantarilla", "Region": "Region 4", "Cuenca": "12- Arroyo Los Padres", "Código": null, "Localidad": "San Jerónimo del Sauce", "Direccion": null, "Resp.": null, "Dpto": "Las Colonias" }, "geometry": { "type": "Point", "coordinates": [ -61.098874836037261, -31.626098868990777 ] } },
{ "type": "Feature", "properties": { "Nombre": "N° 8 (0,60)", "Datos": null, "Estado": "En Ejecucion", "Obra": "EJECUCIÓN DE ALCANTARILLAS SOBRE CAMINOS COMUNALES EN CANAL ALTERNATIVA SUR I – DEPTO. LAS COLONIAS – PROVINCIA DE SANTA FEEJECUCIÓN DE ALCANTARILLAS SOBRE CAMINOS COMUNALES EN CANAL ALTERNATIVA SUR I – DEPTO. LAS COLONIAS – PROVINCIA DE SANTA", "C Cuenca": "Comité de Cuenca Canal Pricipal Santa María - San Jerónimo Norte", "Tipo": "Alcantarilla", "Region": "Region 4", "Cuenca": "12- Arroyo Los Padres", "Código": null, "Localidad": "San Jerónimo del Sauce", "Direccion": null, "Resp.": null, "Dpto": "Las Colonias" }, "geometry": { "type": "Point", "coordinates": [ -61.083982176748322, -31.630351694134831 ] } },
{ "type": "Feature", "properties": { "Nombre": "Alcantarilla N° 1", "Datos": "La Obra consiste en la construcción de un muro de gaviones en un desarrollo de 90 metros de longitud (incorporando una membrana geotextil) y la Construcción de ejecución de 3 (tres) alcantarillas de módulos de hormigón armado prefabricados", "Estado": "En Ejecucion", "Obra": "DEFENSA OESTE COLONIA BELGRANO PROVISIÓN DE MODULOS PREMOLDEADOS Y MEJORA EN EL SERVICIO DE AGUA POTABLE PARA LA LOCALIDAD DE COLONIA BLEGRANO – DEPARTAMENTO SAN MARTIN – PROVINCIA DE SANTA FE", "C Cuenca": "Comité de la Sucuenca Superior Cañada Carrizales", "Tipo": "Alcantarilla", "Region": "Region 4", "Cuenca": "11- Arroyo Colstiné", "Código": null, "Localidad": "Colonia Belgrano, Wlidermuth", "Direccion": null, "Resp.": null, "Dpto": "San Martin" }, "geometry": { "type": "Point", "coordinates": [ -61.441715957434596, -31.90249121712602 ] } },
{ "type": "Feature", "properties": { "Nombre": "Alcantarilla N° 2", "Datos": "La Obra consiste en la construcción de un muro de gaviones en un desarrollo de 90 metros de longitud (incorporando una membrana geotextil) y la Construcción de ejecución de 3 (tres) alcantarillas de módulos de hormigón armado prefabricados", "Estado": "En Ejecucion", "Obra": "DEFENSA OESTE COLONIA BELGRANO PROVISIÓN DE MODULOS PREMOLDEADOS Y MEJORA EN EL SERVICIO DE AGUA POTABLE PARA LA LOCALIDAD DE COLONIA BLEGRANO – DEPARTAMENTO SAN MARTIN – PROVINCIA DE SANTA FE", "C Cuenca": "Comité de la Sucuenca Superior Cañada Carrizales", "Tipo": "Alcantarilla", "Region": "Region 4", "Cuenca": "11- Arroyo Colstiné", "Código": null, "Localidad": "Colonia Belgrano, Wlidermuth", "Direccion": null, "Resp.": null, "Dpto": "San Martin" }, "geometry": { "type": "Point", "coordinates": [ -61.44344697813699, -31.90919622313147 ] } },
{ "type": "Feature", "properties": { "Nombre": "Alcantarilla N° 3", "Datos": "La Obra consiste en la construcción de un muro de gaviones en un desarrollo de 90 metros de longitud (incorporando una membrana geotextil) y la Construcción de ejecución de 3 (tres) alcantarillas de módulos de hormigón armado prefabricados", "Estado": "En Ejecucion", "Obra": "DEFENSA OESTE COLONIA BELGRANO PROVISIÓN DE MODULOS PREMOLDEADOS Y MEJORA EN EL SERVICIO DE AGUA POTABLE PARA LA LOCALIDAD DE COLONIA BLEGRANO – DEPARTAMENTO SAN MARTIN – PROVINCIA DE SANTA FE", "C Cuenca": "Comité de la Sucuenca Superior Cañada Carrizales", "Tipo": "Alcantarilla", "Region": "Region 4", "Cuenca": "13- Cañada Carrizales", "Código": null, "Localidad": "Colonia Belgrano, Wlidermuth", "Direccion": null, "Resp.": null, "Dpto": "San Martin" }, "geometry": { "type": "Point", "coordinates": [ -61.4455049286831, -31.917714723025124 ] } },
{ "type": "Feature", "properties": { "Nombre": "Puente Scaglia Ultimo", "Datos": null, "Estado": "En Ejecucion", "Obra": "Convenios de ADministracion Delegada", "C Cuenca": "Comité de la Sucuenca Superior Cañada Carrizales", "Tipo": "Puente", "Region": "Region 4", "Cuenca": "13- Cañada Carrizales", "Código": null, "Localidad": "Galvez", "Direccion": null, "Resp.": null, "Dpto": "San Jerónimo" }, "geometry": { "type": "Point", "coordinates": [ -61.357666666666745, -32.038472222218672 ] } },
{ "type": "Feature", "properties": { "Nombre": "Villa San Jose N° 803 5", "Datos": null, "Estado": "Finalizado", "Obra": "Reacondicionamiento de alcantarillas en Villa San José - Ruta Pcial. N° 67 - S - Distrito de Villa San José - Dpto. Castellanos - Santa Fe", "C Cuenca": "Comité Ppal Saguier - Romero Corralitos", "Tipo": "Alcantarilla", "Region": "Region 4", "Cuenca": "11- Arroyo Colastiné", "Código": null, "Localidad": "Susana", "Direccion": null, "Resp.": null, "Dpto": "Castellanos" }, "geometry": { "type": "Point", "coordinates": [ -61.632200294343129, -31.335505688943513 ] } },
{ "type": "Feature", "properties": { "Nombre": "Villa San Jose N° 803 4", "Datos": null, "Estado": "Finalizado", "Obra": "Reacondicionamiento de alcantarillas en Villa San José - Ruta Pcial. N° 67 - S - Distrito de Villa San José - Dpto. Castellanos - Santa Fe", "C Cuenca": "Comité Ppal Saguier - Romero Corralitos", "Tipo": "Alcantarilla", "Region": "Region 4", "Cuenca": "11- Arroyo Colastiné", "Código": null, "Localidad": "Susana", "Direccion": null, "Resp.": null, "Dpto": "Castellanos" }, "geometry": { "type": "Point", "coordinates": [ -61.645514685298878, -31.333127056277068 ] } },
{ "type": "Feature", "properties": { "Nombre": "Villa San Jose N° 803 3", "Datos": null, "Estado": "Finalizado", "Obra": "Reacondicionamiento de alcantarillas en Villa San José - Ruta Pcial. N° 67 - S - Distrito de Villa San José - Dpto. Castellanos - Santa Fe", "C Cuenca": "Comité Ppal Saguier - Romero Corralitos", "Tipo": "Alcantarilla", "Region": "Region 4", "Cuenca": "11- Arroyo Colastiné", "Código": null, "Localidad": "Susana", "Direccion": null, "Resp.": null, "Dpto": "Castellanos" }, "geometry": { "type": "Point", "coordinates": [ -61.655629723727117, -31.33144274550525 ] } },
{ "type": "Feature", "properties": { "Nombre": "Villa San Jose N° 803 2", "Datos": null, "Estado": "Finalizado", "Obra": "Reacondicionamiento de alcantarillas en Villa San José - Ruta Pcial. N° 67 - S - Distrito de Villa San José - Dpto. Castellanos - Santa Fe", "C Cuenca": "Comité Ppal Saguier - Romero Corralitos", "Tipo": "Alcantarilla", "Region": "Region 4", "Cuenca": "11- Arroyo Colastiné", "Código": null, "Localidad": "Susana", "Direccion": null, "Resp.": null, "Dpto": "Castellanos" }, "geometry": { "type": "Point", "coordinates": [ -61.662023939273105, -31.330022825654364 ] } },
{ "type": "Feature", "properties": { "Nombre": "Sarmiento N° 090", "Datos": null, "Estado": "Finalizado", "Obra": "Construcción de alcantarillas de módulos prefabricados de H° A° sobre canal Sec. López y camino comunal  distrito Sarmiento", "C Cuenca": "Comité de Cuenca de las Cañadas Las Calaveras - Las Penquitas", "Tipo": "Alcantarilla", "Region": "Region 3", "Cuenca": "8- Río Salado", "Código": null, "Localidad": "Sarmiento", "Direccion": null, "Resp.": null, "Dpto": "Las Colonias" }, "geometry": { "type": "Point", "coordinates": [ -61.164831458525434, -31.156544417263618 ] } },
{ "type": "Feature", "properties": { "Nombre": "Roca N° 1721 12", "Datos": null, "Estado": "Finalizado", "Obra": "Construcción de alcantarillas de módulos prefabricados - Distrito de Presidente Roca - Dpto. Castellanos - Santa FeDelegada", "C Cuenca": "Comité de Cuenca de las Cañadas Las Calaveras - Las Penquitas", "Tipo": "Alcantarilla", "Region": "Region 3", "Cuenca": "8- Río Salado", "Código": null, "Localidad": "Rafaela", "Direccion": null, "Resp.": null, "Dpto": "Castellanos" }, "geometry": { "type": "Point", "coordinates": [ -61.539855343106595, -31.224971962245689 ] } },
{ "type": "Feature", "properties": { "Nombre": "Roca N° 1721 11", "Datos": null, "Estado": "Finalizado", "Obra": "Construcción de alcantarillas de módulos prefabricados - Distrito de Presidente Roca - Dpto. Castellanos - Santa Fe", "C Cuenca": "Comité de Cuenca de las Cañadas Las Calaveras - Las Penquitas", "Tipo": "Alcantarilla", "Region": "Region 3", "Cuenca": "8- Río Salado", "Código": null, "Localidad": "Rafaela", "Direccion": null, "Resp.": null, "Dpto": "Castellanos" }, "geometry": { "type": "Point", "coordinates": [ -61.616751192713785, -31.240459257755909 ] } },
{ "type": "Feature", "properties": { "Nombre": "Roca N° 1721 10", "Datos": null, "Estado": "Finalizado", "Obra": "Construcción de alcantarillas de módulos prefabricados - Distrito de Presidente Roca - Dpto. Castellanos - Santa Fe", "C Cuenca": "Comité de Cuenca de las Cañadas Las Calaveras - Las Penquitas", "Tipo": "Alcantarilla", "Region": "Region 3", "Cuenca": "8- Río Salado", "Código": null, "Localidad": "Rafaela", "Direccion": null, "Resp.": null, "Dpto": "Castellanos" }, "geometry": { "type": "Point", "coordinates": [ -61.606782359236824, -31.239344843630889 ] } },
{ "type": "Feature", "properties": { "Nombre": "Roca N° 1721 9", "Datos": null, "Estado": "Finalizado", "Obra": "Construcción de alcantarillas de módulos prefabricados - Distrito de Presidente Roca - Dpto. Castellanos - Santa Fe", "C Cuenca": "Comité de Cuenca de las Cañadas Las Calaveras - Las Penquitas", "Tipo": "Alcantarilla", "Region": "Region 3", "Cuenca": "8- Río Salado", "Código": null, "Localidad": "Rafaela", "Direccion": null, "Resp.": null, "Dpto": "Castellanos" }, "geometry": { "type": "Point", "coordinates": [ -61.598605111579538, -31.238091277788385 ] } },
{ "type": "Feature", "properties": { "Nombre": "Roca N° 1721 8", "Datos": null, "Estado": "Finalizado", "Obra": "Construcción de alcantarillas de módulos prefabricados - Distrito de Presidente Roca - Dpto. Castellanos - Santa Fe", "C Cuenca": "Comité de Cuenca de las Cañadas Las Calaveras - Las Penquitas", "Tipo": "Alcantarilla", "Region": "Region 3", "Cuenca": "8- Río Salado", "Código": null, "Localidad": "Rafaela", "Direccion": null, "Resp.": null, "Dpto": "Castellanos" }, "geometry": { "type": "Point", "coordinates": [ -61.595583752621451, -31.237097256275113 ] } },
{ "type": "Feature", "properties": { "Nombre": "Roca N° 1721 7", "Datos": null, "Estado": "Finalizado", "Obra": "Construcción de alcantarillas de módulos prefabricados - Distrito de Presidente Roca - Dpto. Castellanos - Santa Fe", "C Cuenca": "Comité de Cuenca de las Cañadas Las Calaveras - Las Penquitas", "Tipo": "Alcantarilla", "Region": "Region 3", "Cuenca": "8- Río Salado", "Código": null, "Localidad": "Rafaela", "Direccion": null, "Resp.": null, "Dpto": "Castellanos" }, "geometry": { "type": "Point", "coordinates": [ -61.588007691257268, -31.236013184090314 ] } },
{ "type": "Feature", "properties": { "Nombre": "Roca N° 1721 6", "Datos": null, "Estado": "Finalizado", "Obra": "Construcción de alcantarillas de módulos prefabricados - Distrito de Presidente Roca - Dpto. Castellanos - Santa Fe", "C Cuenca": "Comité de Cuenca de las Cañadas Las Calaveras - Las Penquitas", "Tipo": "Alcantarilla", "Region": "Region 3", "Cuenca": "8- Río Salado", "Código": null, "Localidad": "Rafaela", "Direccion": null, "Resp.": null, "Dpto": "Castellanos" }, "geometry": { "type": "Point", "coordinates": [ -61.587775760806785, -31.235694549275909 ] } },
{ "type": "Feature", "properties": { "Nombre": "Roca N° 1721 5", "Datos": null, "Estado": "Finalizado", "Obra": "Construcción de alcantarillas de módulos prefabricados - Distrito de Presidente Roca - Dpto. Castellanos - Santa Fe", "C Cuenca": "Comité de Cuenca de las Cañadas Las Calaveras - Las Penquitas", "Tipo": "Alcantarilla", "Region": "Region 3", "Cuenca": "8- Río Salado", "Código": null, "Localidad": "Rafaela", "Direccion": null, "Resp.": null, "Dpto": "Castellanos" }, "geometry": { "type": "Point", "coordinates": [ -61.58426735167626, -31.234281784200601 ] } },
{ "type": "Feature", "properties": { "Nombre": "Roca N° 1721 4", "Datos": null, "Estado": "Finalizado", "Obra": "Construcción de alcantarillas de módulos prefabricados - Distrito de Presidente Roca - Dpto. Castellanos - Santa Fe", "C Cuenca": "Comité de Cuenca de las Cañadas Las Calaveras - Las Penquitas", "Tipo": "Alcantarilla", "Region": "Region 3", "Cuenca": "8- Río Salado", "Código": null, "Localidad": "Rafaela", "Direccion": null, "Resp.": null, "Dpto": "Castellanos" }, "geometry": { "type": "Point", "coordinates": [ -61.566462930853845, -31.234396966704825 ] } },
{ "type": "Feature", "properties": { "Nombre": "Roca N° 1721 3", "Datos": null, "Estado": "Finalizado", "Obra": "Construcción de alcantarillas de módulos prefabricados - Distrito de Presidente Roca - Dpto. Castellanos - Santa Fe", "C Cuenca": "Comité de Cuenca de las Cañadas Las Calaveras - Las Penquitas", "Tipo": "Alcantarilla", "Region": "Region 3", "Cuenca": "8- Río Salado", "Código": null, "Localidad": "Rafaela", "Direccion": null, "Resp.": null, "Dpto": "Castellanos" }, "geometry": { "type": "Point", "coordinates": [ -61.562633255368887, -31.234279589335365 ] } },
{ "type": "Feature", "properties": { "Nombre": "Roca N° 1721 2", "Datos": null, "Estado": "Finalizado", "Obra": "Construcción de alcantarillas de módulos prefabricados - Distrito de Presidente Roca - Dpto. Castellanos - Santa Fe", "C Cuenca": "Comité de Cuenca de las Cañadas Las Calaveras - Las Penquitas", "Tipo": "Alcantarilla", "Region": "Region 3", "Cuenca": "8- Río Salado", "Código": null, "Localidad": "Rafaela", "Direccion": null, "Resp.": null, "Dpto": "Castellanos" }, "geometry": { "type": "Point", "coordinates": [ -61.551633554236481, -31.234697571671163 ] } },
{ "type": "Feature", "properties": { "Nombre": "Roca N° 1721 1", "Datos": null, "Estado": "Finalizado", "Obra": "Construcción de alcantarillas de módulos prefabricados - Distrito de Presidente Roca - Dpto. Castellanos - Santa Fe", "C Cuenca": "Comité de Cuenca de las Cañadas Las Calaveras - Las Penquitas", "Tipo": "Alcantarilla", "Region": "Region 3", "Cuenca": "8- Río Salado", "Código": null, "Localidad": "Rafaela", "Direccion": null, "Resp.": null, "Dpto": "Castellanos" }, "geometry": { "type": "Point", "coordinates": [ -61.542677625306048, -31.234922069478646 ] } },
{ "type": "Feature", "properties": { "Nombre": "P5+410", "Datos": "Alcantarilla CS3 - Módulos - Camino particular       M H° - 2filas - B=2.5m - H=1.5m - L=7m", "Estado": "Finalizado", "Obra": "Convenios de ADministracion Delegada", "C Cuenca": "Comite A° Totoras, Canales Salto Grande - Serodino", "Tipo": "Alcantarilla", "Region": "Region 4", "Cuenca": "13- Cañada Carrizales", "Código": null, "Localidad": "Totoras", "Direccion": null, "Resp.": null, "Dpto": "Iriondo" }, "geometry": { "type": "Point", "coordinates": [ -61.357255, -32.590443999995422 ] } },
{ "type": "Feature", "properties": { "Nombre": "P6+140", "Datos": "Alcantarilla CS4 - Módulos - Camino a Totoras M H° - 2filas - B=2m - H=1.5m - L=8m", "Estado": "En Ejecucion", "Obra": "Convenios de ADministracion Delegada", "C Cuenca": "Comite A° Totoras, Canales Salto Grande - Serodino", "Tipo": "Alcantarilla", "Region": "Region 4", "Cuenca": "13- Cañada Carrizales", "Código": null, "Localidad": "Totoras", "Direccion": null, "Resp.": null, "Dpto": "Iriondo" }, "geometry": { "type": "Point", "coordinates": [ -61.360588, -32.596155999995368 ] } },
{ "type": "Feature", "properties": { "Nombre": "P7+070", "Datos": "Alcantarilla CS5 - Módulos - Camino particular M H° - 2filas - B=2m - H=2m - L=7m", "Estado": "En Ejecucion", "Obra": "Convenios de ADministracion Delegada", "C Cuenca": "Comite A° Totoras, Canales Salto Grande - Serodino", "Tipo": "Alcantarilla", "Region": "Region 4", "Cuenca": "13- Cañada Carrizales", "Código": null, "Localidad": "Totoras", "Direccion": null, "Resp.": null, "Dpto": "Iriondo" }, "geometry": { "type": "Point", "coordinates": [ -61.368487, -32.601193999995409 ] } },
{ "type": "Feature", "properties": { "Nombre": "CS6 - PROG. 7+850", "Datos": "Alcantarilla CS6 - Módulos - Camino comunal M H° - 2filas - B=2.5m - H=2m - L=8m", "Estado": "En Ejecucion", "Obra": "Convenios de ADministracion Delegada", "C Cuenca": "Comite A° Totoras, Canales Salto Grande - Serodino", "Tipo": "Alcantarilla", "Region": "Region 4", "Cuenca": "13- Cañada Carrizales", "Código": null, "Localidad": "Totoras", "Direccion": null, "Resp.": null, "Dpto": "Iriondo" }, "geometry": { "type": "Point", "coordinates": [ -61.37394, -32.606151999995369 ] } },
{ "type": "Feature", "properties": { "Nombre": "P5+340", "Datos": "Alcantarilla CN3 - Módulos - Camino particular M H° - 1filas - B=2.5m - H=1.5m - L=7m", "Estado": "En Ejecucion", "Obra": "Convenios de ADministracion Delegada", "C Cuenca": "Comite A° Totoras, Canales Salto Grande - Serodino", "Tipo": "Alcantarilla", "Region": "Region 4", "Cuenca": "13- Cañada Carrizales", "Código": null, "Localidad": "Totoras", "Direccion": null, "Resp.": null, "Dpto": "Iriondo" }, "geometry": { "type": "Point", "coordinates": [ -61.381679, -32.568676999995454 ] } },
{ "type": "Feature", "properties": { "Nombre": "P5+950", "Datos": "Alcantarilla CN4 - Módulos - Camino comunal M H° - 1filas - B=2.5m - H=1.5m - L=8m", "Estado": "En Ejecucion", "Obra": "Convenios de ADministracion Delegada", "C Cuenca": "Comite A° Totoras, Canales Salto Grande - Serodino", "Tipo": "Alcantarilla", "Region": "Region 4", "Cuenca": "13- Cañada Carrizales", "Código": null, "Localidad": "Totoras", "Direccion": null, "Resp.": null, "Dpto": "Iriondo" }, "geometry": { "type": "Point", "coordinates": [ -61.386682015391145, -32.571590227629272 ] } },
{ "type": "Feature", "properties": { "Nombre": "P6+640", "Datos": "Alcantarilla CN5 - Módulos - Camino comunal M H° - 1filas - B=2.5m - H=1.5m - L=7m", "Estado": "En Ejecucion", "Obra": "Convenios de ADministracion Delegada", "C Cuenca": "Comite A° Totoras, Canales Salto Grande - Serodino", "Tipo": "Alcantarilla", "Region": "Region 4", "Cuenca": "13- Cañada Carrizales", "Código": null, "Localidad": "Totoras", "Direccion": null, "Resp.": null, "Dpto": "Iriondo" }, "geometry": { "type": "Point", "coordinates": [ -61.393422, -32.574068999995447 ] } },
{ "type": "Feature", "properties": { "Nombre": "Alcantarilla N°27", "Datos": "Ejecucion de alcantarilla n°27", "Estado": "Ejecutado", "Obra": "Defensa Cierre Sur - Loc Maria Susana", "C Cuenca": "Comité A° Las Turbias", "Tipo": "Alcantarilla", "Region": "Region 4", "Cuenca": "13- Cañada Carrizales", "Código": null, "Localidad": "Maria Susana", "Direccion": null, "Resp.": null, "Dpto": "San Martin" }, "geometry": { "type": "Point", "coordinates": [ -61.902372223484456, -32.277437594378505 ] } },
{ "type": "Feature", "properties": { "Nombre": "Alcantarilla N°31", "Datos": "Ejecucion alcantarilla N°31", "Estado": "Ejecutado", "Obra": "Defensa Cierre Sur - Loc Maria Susana", "C Cuenca": "Comité A° Las Turbias", "Tipo": "Alcantarilla", "Region": "Region 4", "Cuenca": "13- Cañada Carrizales", "Código": null, "Localidad": "Maria Susana", "Direccion": null, "Resp.": null, "Dpto": "San Martin" }, "geometry": { "type": "Point", "coordinates": [ -61.896199776596077, -32.278557563763925 ] } },
{ "type": "Feature", "properties": { "Nombre": "Alcantarilla N°30", "Datos": "Reemplazo de alcantarilla", "Estado": "Ejecutado", "Obra": "Defensa Cierre Sur - Loc Maria Susana", "C Cuenca": "Comité A° Las Turbias", "Tipo": "Alcantarilla", "Region": "Region 4", "Cuenca": "13- Cañada Carrizales", "Código": null, "Localidad": "Maria Susana", "Direccion": null, "Resp.": null, "Dpto": "San Martin" }, "geometry": { "type": "Point", "coordinates": [ -61.898471607432114, -32.274198592954235 ] } },
{ "type": "Feature", "properties": { "Nombre": "Alcantarilla N°29", "Datos": "Reemplazo de alcantarilla", "Estado": "Ejecutado", "Obra": "Defensa Cierre Sur - Loc Maria Susana", "C Cuenca": "Comité A° Las Turbias", "Tipo": "Alcantarilla", "Region": "Region 4", "Cuenca": "13- Cañada Carrizales", "Código": null, "Localidad": "Maria Susana", "Direccion": null, "Resp.": null, "Dpto": "San Martin" }, "geometry": { "type": "Point", "coordinates": [ -61.897810783860123, -32.274347811180142 ] } },
{ "type": "Feature", "properties": { "Nombre": "OVN - EBN", "Datos": null, "Estado": null, "Obra": "Obra para la Readec. Canal Opt Condiones de bombeo Acordada", "C Cuenca": "33- Comite Lag la Picasa y Canal Alt Norte", "Tipo": "OVN", "Region": null, "Cuenca": "26- La Picasa", "Código": null, "Localidad": "Diego de Alvear", "Direccion": null, "Resp.": null, "Dpto": "General Obligado" }, "geometry": { "type": "Point", "coordinates": [ -62.133459513817989, -34.261343262999262 ] } },
{ "type": "Feature", "properties": { "Nombre": "Alcantarilla N°23", "Datos": null, "Estado": "En Ejecucion", "Obra": "Obra para la Readec. Canal Opt Condiones de bombeo Acordada", "C Cuenca": "33- Comite Lag la Picasa y Canal Alt Norte", "Tipo": "Alcantarilla", "Region": null, "Cuenca": "26- La Picasa", "Código": null, "Localidad": "Diego de Alvear", "Direccion": null, "Resp.": null, "Dpto": "General Obligado" }, "geometry": { "type": "Point", "coordinates": [ -62.128144682557355, -34.233825721361278 ] } },
{ "type": "Feature", "properties": { "Nombre": "Alcantarilla 17a", "Datos": null, "Estado": "Finalizado", "Obra": "Obra para la Readec. Canal Opt Condiones de bombeo Acordada", "C Cuenca": "33- Comite Lag la Picasa y Canal Alt Norte", "Tipo": "Alcantarilla", "Region": null, "Cuenca": "27- Laguna El Chañar - Salado Brazo Sur", "Código": null, "Localidad": "Christophersen", "Direccion": null, "Resp.": null, "Dpto": "General Obligado" }, "geometry": { "type": "Point", "coordinates": [ -62.065023678080095, -34.196420186358118 ] } },
{ "type": "Feature", "properties": { "Nombre": "Alcantarilla s/ canal", "Datos": "Alcantarilla sobre canal LA Julia - Tacuarendi", "Estado": "Finalizado", "Obra": null, "C Cuenca": "Ejecutado por localidad", "Tipo": "Alcantarilla", "Region": null, "Cuenca": "5- Rio Parana", "Código": null, "Localidad": "Tacuarendi", "Direccion": null, "Resp.": null, "Dpto": "General Obligado" }, "geometry": { "type": "Point", "coordinates": [ -59.264540662018426, -28.420354480682921 ] } },
{ "type": "Feature", "properties": { "Nombre": "Alcantarilla s/canal", "Datos": "Alcantarilla sobre canal El Manolo", "Estado": "Finalizado", "Obra": null, "C Cuenca": "Ejecutado por localidad", "Tipo": "Alcantarilla", "Region": null, "Cuenca": "5- Rio Parana", "Código": null, "Localidad": "Villa Ocampo", "Direccion": null, "Resp.": null, "Dpto": "General Obligado" }, "geometry": { "type": "Point", "coordinates": [ -59.318830918518245, -28.478031934459093 ] } },
{ "type": "Feature", "properties": { "Nombre": "Alcantarilla 1", "Datos": "Alcantarilla transparentamiento camino La Vanesa", "Estado": "Finalizado", "Obra": null, "C Cuenca": "06 - Comite Hidrovial Tostado", "Tipo": "Alcantarilla", "Region": null, "Cuenca": "8- Rio Salado", "Código": null, "Localidad": "Tostado", "Direccion": null, "Resp.": null, "Dpto": "9 de Julio" }, "geometry": { "type": "Point", "coordinates": [ -61.756236235332857, -29.115657395756759 ] } },
{ "type": "Feature", "properties": { "Nombre": "Alcantarilla 2", "Datos": "Alcantarilla transparentamiento camino La Vanesa", "Estado": "Finalizado", "Obra": null, "C Cuenca": "06 - Comite Hidrovial Tostado", "Tipo": "Alcantarilla", "Region": null, "Cuenca": "8- Rio Salado", "Código": null, "Localidad": "Tostado", "Direccion": null, "Resp.": null, "Dpto": "9 de Julio" }, "geometry": { "type": "Point", "coordinates": [ -61.763742207041183, -29.114373544716244 ] } },
{ "type": "Feature", "properties": { "Nombre": "Alcantarilla 3", "Datos": "Alcantarilla transparentamiento camino La Vanesa", "Estado": "Finalizado", "Obra": null, "C Cuenca": "06 - Comite Hidrovial Tostado", "Tipo": "Alcantarilla", "Region": null, "Cuenca": "8- Rio Salado", "Código": null, "Localidad": "Tostado", "Direccion": null, "Resp.": null, "Dpto": "9 de Julio" }, "geometry": { "type": "Point", "coordinates": [ -61.777020555302848, -29.112411115000747 ] } },
{ "type": "Feature", "properties": { "Nombre": "C Medici Sur - AlcP3+160", "Datos": "Alcantarilla CS1 - Modulos año 2023", "Estado": "Finalizado", "Obra": null, "C Cuenca": "Comite A° Totoras, Canales Salto Grande - Serodino", "Tipo": "Alcantarilla", "Region": null, "Cuenca": "13- Cañada Carrizales", "Código": null, "Localidad": "Totoras", "Direccion": null, "Resp.": null, "Dpto": "Iriondo" }, "geometry": { "type": "Point", "coordinates": [ -61.341261, -32.577139000000273 ] } },
{ "type": "Feature", "properties": { "Nombre": "C Medici Sur - AlcP4+160", "Datos": "Alcantarilla CS2 - modulos 2023", "Estado": "Finalizado", "Obra": null, "C Cuenca": "Comite A° Totoras, Canales Salto Grande - Serodino", "Tipo": "Alcantarilla", "Region": null, "Cuenca": "13- Cañada Carrizales", "Código": null, "Localidad": "Totoras", "Direccion": null, "Resp.": null, "Dpto": "Iriondo" }, "geometry": { "type": "Point", "coordinates": [ -61.349544, -32.581881000000273 ] } },
{ "type": "Feature", "properties": { "Nombre": "C Medici Norte - AlcP1+370", "Datos": "Alcantarilla CN1 - Modulos 2023", "Estado": "Finalizado", "Obra": null, "C Cuenca": "Comite A° Totoras, Canales Salto Grande - Serodino", "Tipo": "Alcantarilla", "Region": null, "Cuenca": "13- Cañada Carrizales", "Código": null, "Localidad": "Totoras", "Direccion": null, "Resp.": null, "Dpto": "Iriondo" }, "geometry": { "type": "Point", "coordinates": [ -61.345946, -32.568311000000293 ] } },
{ "type": "Feature", "properties": { "Nombre": "C Medici Norte - AlcP3+320", "Datos": null, "Estado": "Finalizado", "Obra": null, "C Cuenca": "Comite A° Totoras, Canales Salto Grande - Serodino", "Tipo": "Alcantarilla", "Region": null, "Cuenca": "13- Cañada Carrizales", "Código": null, "Localidad": "Totoras", "Direccion": null, "Resp.": null, "Dpto": "Iriondo" }, "geometry": { "type": "Point", "coordinates": [ -61.362497, -32.563728000000303 ] } },
{ "type": "Feature", "properties": { "Nombre": "C Medici Norte - AlcP5+340", "Datos": "Alcantarilla CN3 - Modulos - 2025", "Estado": "Finalizado", "Obra": null, "C Cuenca": "Comite A° Totoras, Canales Salto Grande - Serodino", "Tipo": "Alcantarilla", "Region": null, "Cuenca": "13- Cañada Carrizales", "Código": null, "Localidad": "Totoras", "Direccion": null, "Resp.": null, "Dpto": "Iriondo" }, "geometry": { "type": "Point", "coordinates": [ -61.37582084335174, -32.566747961315215 ] } },
{ "type": "Feature", "properties": { "Nombre": "Protecciones ductos - P7+650", "Datos": null, "Estado": "Finalziado", "Obra": null, "C Cuenca": "Comite A° Totoras, Canales Salto Grande - Serodino", "Tipo": "Proteccion", "Region": null, "Cuenca": "13- Cañada Carrizales", "Código": null, "Localidad": "Armstrong", "Direccion": null, "Resp.": null, "Dpto": "Belgrano" }, "geometry": { "type": "Point", "coordinates": [ -61.550258, -32.749570000000283 ] } },
{ "type": "Feature", "properties": { "Nombre": "Canal Serodino - AlcP2+400", "Datos": "Alcantarilla 5 - Limpieza Año 2024", "Estado": "Finalizado", "Obra": null, "C Cuenca": "Comite A° Totoras, Canales Salto Grande - Serodino", "Tipo": "Alcantarilla", "Region": null, "Cuenca": "14- Rio Carcaraña", "Código": null, "Localidad": "Serodino", "Direccion": null, "Resp.": null, "Dpto": "Iriondo" }, "geometry": { "type": "Point", "coordinates": [ -60.856631, -32.608379000000269 ] } },
{ "type": "Feature", "properties": { "Nombre": "Canal Serodino - AlcP4+593", "Datos": "Alcantarilla 6 - Limpieza - año 2024", "Estado": "Finalizado", "Obra": null, "C Cuenca": "Comite A° Totoras, Canales Salto Grande - Serodino", "Tipo": "Alcantarilla", "Region": null, "Cuenca": "14- Rio Carcaraña", "Código": null, "Localidad": "Serodino", "Direccion": null, "Resp.": null, "Dpto": "Iriondo" }, "geometry": { "type": "Point", "coordinates": [ -60.874228, -32.620712000000275 ] } },
{ "type": "Feature", "properties": { "Nombre": "Canal Serodino - AlcP5+273", "Datos": "Alcantarilla 7 - Limpieza  Año 2024", "Estado": "Finalizado", "Obra": null, "C Cuenca": "Comite A° Totoras, Canales Salto Grande - Serodino", "Tipo": "Alcantarilla", "Region": null, "Cuenca": "14- Rio Carcaraña", "Código": null, "Localidad": "Serodino", "Direccion": null, "Resp.": null, "Dpto": "Iriondo" }, "geometry": { "type": "Point", "coordinates": [ -60.881055, -32.622592000000267 ] } },
{ "type": "Feature", "properties": { "Nombre": "Canal Serodino - AlcP6+167", "Datos": "Alcantarilla 8 - Limpieza  Año 2024", "Estado": "Finalizado", "Obra": null, "C Cuenca": "Comite A° Totoras, Canales Salto Grande - Serodino", "Tipo": "Alcantarilla", "Region": null, "Cuenca": "14- Rio Carcaraña", "Código": null, "Localidad": "Serodino", "Direccion": null, "Resp.": null, "Dpto": "Iriondo" }, "geometry": { "type": "Point", "coordinates": [ -60.890191, -32.624864000000279 ] } },
{ "type": "Feature", "properties": { "Nombre": "Canal Serodino - AlcP6+700", "Datos": "Alcantarilla 9 - Limpieza  Año 2024", "Estado": "Finalizado", "Obra": null, "C Cuenca": "Comite A° Totoras, Canales Salto Grande - Serodino", "Tipo": "Alcantarilla", "Region": null, "Cuenca": "14- Rio Carcaraña", "Código": null, "Localidad": "Serodino", "Direccion": null, "Resp.": null, "Dpto": "Iriondo" }, "geometry": { "type": "Point", "coordinates": [ -60.895385, -32.626733000000279 ] } },
{ "type": "Feature", "properties": { "Nombre": "Canal Serodino - AlcP7+495", "Datos": "Alcantarilla 10 - Limpieza  Año 2024", "Estado": "Finalizado", "Obra": null, "C Cuenca": "Comite A° Totoras, Canales Salto Grande - Serodino", "Tipo": "Alcantarilla", "Region": null, "Cuenca": "14- Rio Carcaraña", "Código": null, "Localidad": "Serodino", "Direccion": null, "Resp.": null, "Dpto": "Iriondo" }, "geometry": { "type": "Point", "coordinates": [ -60.90325, -32.62939100000029 ] } },
{ "type": "Feature", "properties": { "Nombre": "Canal Serodino - AlcP8+128", "Datos": null, "Estado": "Finalizado", "Obra": null, "C Cuenca": "Comite A° Totoras, Canales Salto Grande - Serodino", "Tipo": "Alcantarilla", "Region": null, "Cuenca": "14- Rio Carcaraña", "Código": null, "Localidad": "Serodino", "Direccion": null, "Resp.": null, "Dpto": "Iriondo" }, "geometry": { "type": "Point", "coordinates": [ -60.909478, -32.631601000000281 ] } },
{ "type": "Feature", "properties": { "Nombre": "Canal Serodino - AlcP8+749", "Datos": "Alcantarilla 12 - Limpieza  Año 2024", "Estado": "Finalizado", "Obra": null, "C Cuenca": "Comite A° Totoras, Canales Salto Grande - Serodino", "Tipo": "Alcantarilla", "Region": null, "Cuenca": "14- Rio Carcaraña", "Código": null, "Localidad": "Serodino", "Direccion": null, "Resp.": null, "Dpto": "Iriondo" }, "geometry": { "type": "Point", "coordinates": [ -60.915506, -32.633666000000282 ] } },
{ "type": "Feature", "properties": { "Nombre": "Canal Serodino - AlcP9+540", "Datos": "Alcantarilla 13 - Limpieza  Año 2024", "Estado": "Finalizado", "Obra": null, "C Cuenca": "Comite A° Totoras, Canales Salto Grande - Serodino", "Tipo": "Alcantarilla", "Region": null, "Cuenca": "14- Rio Carcaraña", "Código": null, "Localidad": "Serodino", "Direccion": null, "Resp.": null, "Dpto": "Iriondo" }, "geometry": { "type": "Point", "coordinates": [ -60.923589, -32.635519000000272 ] } },
{ "type": "Feature", "properties": { "Nombre": "Canal Serodino - AlcP10+212", "Datos": "Cruce RPN°10 - Alcantarilla 14 - Limpieza  Año 2024", "Estado": "Finalizado", "Obra": null, "C Cuenca": "Comite A° Totoras, Canales Salto Grande - Serodino", "Tipo": "Alcantarilla", "Region": null, "Cuenca": "14- Rio Carcaraña", "Código": null, "Localidad": "Serodino", "Direccion": null, "Resp.": null, "Dpto": "Iriondo" }, "geometry": { "type": "Point", "coordinates": [ -60.930528, -32.636952000000271 ] } },
{ "type": "Feature", "properties": { "Nombre": "Canal Serodino - AlcP11+002", "Datos": null, "Estado": "Finalizado", "Obra": null, "C Cuenca": "Comite A° Totoras, Canales Salto Grande - Serodino", "Tipo": "Alcantarilla", "Region": null, "Cuenca": "14- Rio Carcaraña", "Código": null, "Localidad": "Serodino", "Direccion": null, "Resp.": null, "Dpto": "Iriondo" }, "geometry": { "type": "Point", "coordinates": [ -60.937605, -32.634587000000295 ] } },
{ "type": "Feature", "properties": { "Nombre": "Canal Serodino - AlcP12+345", "Datos": "Alcantarilla 16 - Limpieza  Año 2024", "Estado": "Finalizado", "Obra": null, "C Cuenca": "Comite A° Totoras, Canales Salto Grande - Serodino", "Tipo": "Alcantarilla", "Region": null, "Cuenca": "14- Rio Carcaraña", "Código": null, "Localidad": "Serodino", "Direccion": null, "Resp.": null, "Dpto": "Iriondo" }, "geometry": { "type": "Point", "coordinates": [ -60.951364, -32.633564000000284 ] } },
{ "type": "Feature", "properties": { "Nombre": "Canal Serodino - AlcP13+673", "Datos": "Alcantarilla 17 - Limpieza  Año 2024", "Estado": "Finalizado", "Obra": null, "C Cuenca": "Comite A° Totoras, Canales Salto Grande - Serodino", "Tipo": "Alcantarilla", "Region": null, "Cuenca": "14- Rio Carcaraña", "Código": null, "Localidad": "Serodino", "Direccion": null, "Resp.": null, "Dpto": "Iriondo" }, "geometry": { "type": "Point", "coordinates": [ -60.96502, -32.635876000000287 ] } },
{ "type": "Feature", "properties": { "Nombre": "Canal Serodino - AlcP15+585", "Datos": "Alcantarilla 18 - Limpieza  Año 2024", "Estado": "Finalizado", "Obra": null, "C Cuenca": "Comite A° Totoras, Canales Salto Grande - Serodino", "Tipo": "Alcantarilla", "Region": null, "Cuenca": "14- Rio Carcaraña", "Código": null, "Localidad": "Serodino", "Direccion": null, "Resp.": null, "Dpto": "Iriondo" }, "geometry": { "type": "Point", "coordinates": [ -60.976656, -32.622237000000268 ] } },
{ "type": "Feature", "properties": { "Nombre": "Canal Serodino - AlcP16+448", "Datos": "Alcantarilla 19 - Limpieza  Año 2024", "Estado": "Finalizado", "Obra": null, "C Cuenca": "Comite A° Totoras, Canales Salto Grande - Serodino", "Tipo": "Alcantarilla", "Region": null, "Cuenca": "14- Rio Carcaraña", "Código": null, "Localidad": "Serodino", "Direccion": null, "Resp.": null, "Dpto": "Iriondo" }, "geometry": { "type": "Point", "coordinates": [ -60.98171, -32.615739000000261 ] } },
{ "type": "Feature", "properties": { "Nombre": "Canal Serodino - AlcP17+759", "Datos": "Alcantarilla 20 - Limpieza  Año 2024", "Estado": "Finalizado", "Obra": null, "C Cuenca": "Comite A° Totoras, Canales Salto Grande - Serodino", "Tipo": "Alcantarilla", "Region": null, "Cuenca": "14- Rio Carcaraña", "Código": null, "Localidad": "Serodino", "Direccion": null, "Resp.": null, "Dpto": "Iriondo" }, "geometry": { "type": "Point", "coordinates": [ -60.988984, -32.605739000000284 ] } },
{ "type": "Feature", "properties": { "Nombre": "Canal Serodino - AlcP18+715", "Datos": "Alcantarilla 7 - Tipo A2 - Camino particular", "Estado": "Finalizado", "Obra": null, "C Cuenca": "Comite A° Totoras, Canales Salto Grande - Serodino", "Tipo": "Alcantarilla", "Region": null, "Cuenca": "14- Rio Carcaraña", "Código": null, "Localidad": "Serodino", "Direccion": null, "Resp.": null, "Dpto": "Iriondo" }, "geometry": { "type": "Point", "coordinates": [ -60.994175, -32.59841400000029 ] } },
{ "type": "Feature", "properties": { "Nombre": "Canal Serodino - AlcP19+718", "Datos": "Alcantarilla 22 - Limpieza  Año 2024", "Estado": "Finalizado", "Obra": null, "C Cuenca": "Comite A° Totoras, Canales Salto Grande - Serodino", "Tipo": "Alcantarilla", "Region": null, "Cuenca": "14- Rio Carcaraña", "Código": null, "Localidad": "Serodino", "Direccion": null, "Resp.": null, "Dpto": "Iriondo" }, "geometry": { "type": "Point", "coordinates": [ -61.000032, -32.590866000000275 ] } },
{ "type": "Feature", "properties": { "Nombre": "Canal Serodino - AlcP20+366", "Datos": "Alcantarilla 23 - Limpieza  Año 2024", "Estado": "Finalizado", "Obra": null, "C Cuenca": "Comite A° Totoras, Canales Salto Grande - Serodino", "Tipo": "Alcantarilla", "Region": null, "Cuenca": "14- Rio Carcaraña", "Código": null, "Localidad": "Serodino", "Direccion": null, "Resp.": null, "Dpto": "Iriondo" }, "geometry": { "type": "Point", "coordinates": [ -61.00375, -32.586188000000277 ] } },
{ "type": "Feature", "properties": { "Nombre": "Canal Serodino - AlcP20+962", "Datos": "Alcantarilla 24 - Limpieza  Año 2024", "Estado": "Finalizado", "Obra": null, "C Cuenca": "Comite A° Totoras, Canales Salto Grande - Serodino", "Tipo": "Alcantarilla", "Region": null, "Cuenca": "14- Rio Carcaraña", "Código": null, "Localidad": "Serodino", "Direccion": null, "Resp.": null, "Dpto": "Iriondo" }, "geometry": { "type": "Point", "coordinates": [ -61.009002, -32.589162000000286 ] } },
{ "type": "Feature", "properties": { "Nombre": "Canal Serodino - AlcP21+371", "Datos": "Alcantarilla 25 - Limpieza  Año 2024", "Estado": "Finalizado", "Obra": null, "C Cuenca": "Comite A° Totoras, Canales Salto Grande - Serodino", "Tipo": "Alcantarilla", "Region": null, "Cuenca": "14- Rio Carcaraña", "Código": null, "Localidad": "Serodino", "Direccion": null, "Resp.": null, "Dpto": "Iriondo" }, "geometry": { "type": "Point", "coordinates": [ -61.012647, -32.591184000000283 ] } },
{ "type": "Feature", "properties": { "Nombre": "Canal Serodino - AlcP23+055", "Datos": "Alcantarilla 26 - Limpieza  Año 2024", "Estado": "Finalizado", "Obra": null, "C Cuenca": "Comite A° Totoras, Canales Salto Grande - Serodino", "Tipo": "Alcantarilla", "Region": null, "Cuenca": "14- Rio Carcaraña", "Código": null, "Localidad": "Serodino", "Direccion": null, "Resp.": null, "Dpto": "Iriondo" }, "geometry": { "type": "Point", "coordinates": [ -61.026768, -32.600123000000288 ] } },
{ "type": "Feature", "properties": { "Nombre": "Canal Serodino - AlcP23+681", "Datos": "Alcantarilla 27 - Limpieza  Año 2024", "Estado": "Finalizado", "Obra": null, "C Cuenca": "Comite A° Totoras, Canales Salto Grande - Serodino", "Tipo": "Alcantarilla", "Region": null, "Cuenca": "14- Rio Carcaraña", "Código": null, "Localidad": "Serodino", "Direccion": null, "Resp.": null, "Dpto": "Iriondo" }, "geometry": { "type": "Point", "coordinates": [ -61.031809, -32.603719000000282 ] } },
{ "type": "Feature", "properties": { "Nombre": "Ampliacion del Azud Nivelador", "Datos": "Ampliacion", "Estado": "En Ejecucion", "Obra": null, "C Cuenca": "06 - Comite Hidrovial Tostado", "Tipo": "Azud", "Region": null, "Cuenca": "8- Rio Salado", "Código": null, "Localidad": "Tostado", "Direccion": null, "Resp.": null, "Dpto": "9 de Julio" }, "geometry": { "type": "Point", "coordinates": [ -61.753847676156759, -29.276770236536198 ] } },
{ "type": "Feature", "properties": { "Nombre": "Reparacion Compuerta", "Datos": "Compuerta azud a reparar", "Estado": "En Ejecucion", "Obra": null, "C Cuenca": "06 - Comite Hidrovial Tostado", "Tipo": "Compuerta", "Region": null, "Cuenca": "8- Rio Salado", "Código": null, "Localidad": "Tostado", "Direccion": null, "Resp.": null, "Dpto": "9 de Julio" }, "geometry": { "type": "Point", "coordinates": [ -61.744867893491708, -29.273479282500645 ] } }
]
}
