{
"type": "FeatureCollection",
"name": "ObrasLineales_atn",
"crs": { "type": "name", "properties": { "name": "urn:ogc:def:crs:OGC:1.3:CRS84" } },
"features": [
{ "type": "Feature", "properties": { "Nombre": "Limpieza canal perimetral.", "Estado": "Sin Ejecutar", "Datos": null, "Localidad": "Christophersen", "Tipo": "Canal", "Region": "Región 6", "Cuenca": "27- Laguna El Chañar - Salado Brazo sur", "Obra": "ATN Christophersen", "Código": null, "C Cuenca": null, "Direccion": null, "Resp.": null, "Dpto": "General Lopez", "Long (Km)": 1.12 }, "geometry": { "type": "MultiLineString", "coordinates": [ [ [ -62.02812964895422, -34.182489079982695 ], [ -62.028650262933454, -34.187133170408607 ], [ -62.028594415090687, -34.187195874611938 ], [ -62.022188700466579, -34.187650881585085 ] ] ] } },
{ "type": "Feature", "properties": { "Nombre": "Canal Aliviador", "Estado": "Sin Ejecutar", "Datos": "Ejecución de canal", "Localidad": "Maria Teresa", "Tipo": "Canal", "Region": "Región 6", "Cuenca": "27- Laguna El Chañar - Salado Brazo sur", "Obra": "ATN Maria Teresa", "Código": null, "C Cuenca": null, "Direccion": null, "Resp.": null, "Dpto": "General Lopez", "Long (Km)": 0.54 }, "geometry": { "type": "MultiLineString", "coordinates": [ [ [ -61.920863480019982, -34.024303240742853 ], [ -61.916003289183635, -34.027013198748286 ] ] ] } },
{ "type": "Feature", "properties": { "Nombre": "Defensa Bajo Cardozo", "Estado": "Sin Ejecutar", "Datos": "Alteo de camino y Terraplen de defens", "Localidad": "Maria Teresa", "Tipo": "Defensa", "Region": "Región 6", "Cuenca": "27- Laguna El Chañar - Salado Brazo sur", "Obra": "ATN Maria Teresa", "Código": null, "C Cuenca": null, "Direccion": null, "Resp.": null, "Dpto": "General Lopez", "Long (Km)": 0.89 }, "geometry": { "type": "MultiLineString", "coordinates": [ [ [ -61.912731592865441, -34.022838855893973 ], [ -61.918163145252386, -34.029515873081067 ] ] ] } },
{ "type": "Feature", "properties": { "Nombre": "Defensa Bajo Cardozo", "Estado": "Sin Ejecutar", "Datos": "Alteo de camino y Terraplen de defens", "Localidad": "Maria Teresa", "Tipo": "Defensa", "Region": "Región 6", "Cuenca": "27- Laguna El Chañar - Salado Brazo sur", "Obra": "ATN Maria Teresa", "Código": null, "C Cuenca": null, "Direccion": null, "Resp.": null, "Dpto": "General Lopez", "Long (Km)": 0.52 }, "geometry": { "type": "MultiLineString", "coordinates": [ [ [ -61.912731674345061, -34.022885934167327 ], [ -61.908062393988637, -34.025524927530597 ] ] ] } },
{ "type": "Feature", "properties": { "Nombre": "Levantamiento Malabrigo", "Estado": "Sin Ejecutar", "Datos": null, "Localidad": "Malabrigo", "Tipo": null, "Region": "Región 1", "Cuenca": "6- Arroyo Malabrigo", "Obra": "ATN Malabrigo", "Código": null, "C Cuenca": null, "Direccion": null, "Resp.": null, "Dpto": "General Obligado", "Long (Km)": null }, "geometry": { "type": "MultiLineString", "coordinates": [ [ [ -59.995345152873064, -29.369543656445284 ], [ -59.992026290172099, -29.352507609742268 ], [ -59.980236313839761, -29.346456255842266 ], [ -59.979517031464049, -29.342781661096737 ], [ -59.97466969371466, -29.343563489766005 ], [ -59.972449300293974, -29.334212818881735 ], [ -59.96172065638018, -29.335837067942119 ], [ -59.961427470629182, -29.335678747636607 ], [ -59.961175330883343, -29.335598610197984 ], [ -59.961032647151221, -29.335637701631462 ], [ -59.960780507405389, -29.335950433099182 ] ] ] } },
{ "type": "Feature", "properties": { "Nombre": "Saneamiento", "Estado": "En Ejecucion", "Datos": "Confomracion de Cuneta y reemplazo de alcantarillas de acceso", "Localidad": "Malabrigo", "Tipo": "Canal", "Region": "Región 1", "Cuenca": "6- Arroyo Malabrigo", "Obra": "ATN Malabrigo", "Código": null, "C Cuenca": null, "Direccion": null, "Resp.": null, "Dpto": "General Obligado", "Long (Km)": null }, "geometry": { "type": "MultiLineString", "coordinates": [ [ [ -59.969142165023065, -29.359000696840411 ], [ -59.967203229923307, -29.358039047577222 ], [ -59.954418376609325, -29.352302379716583 ] ] ] } },
{ "type": "Feature", "properties": { "Nombre": "Readecuacion de canal", "Estado": "Sin Ejecutar", "Datos": "Readecuacion de Canal segun pendiente", "Localidad": "Vera", "Tipo": "Canal", "Region": "Región 1", "Cuenca": "10- Los Saladillos", "Obra": "ATN Vera", "Código": null, "C Cuenca": null, "Direccion": null, "Resp.": null, "Dpto": "Vera", "Long (Km)": null }, "geometry": { "type": "MultiLineString", "coordinates": [ [ [ -60.147288668312903, -29.482726061035944 ], [ -60.204686620066653, -29.474079035953903 ] ] ] } },
{ "type": "Feature", "properties": { "Nombre": "Readecuacion Canal", "Estado": "Sin Ejecutar", "Datos": null, "Localidad": "Vera", "Tipo": "Canal", "Region": "Región 1", "Cuenca": "10- Los Saladillos", "Obra": "ATN Vera", "Código": null, "C Cuenca": null, "Direccion": null, "Resp.": null, "Dpto": "Vera", "Long (Km)": null }, "geometry": { "type": "MultiLineString", "coordinates": [ [ [ -60.198285397837118, -29.467552721137277 ], [ -60.193088191758207, -29.462967295992037 ], [ -60.192191043360232, -29.46222455875623 ], [ -60.191909585039269, -29.462048647305654 ], [ -60.159362057537955, -29.448540602472516 ] ] ] } },
{ "type": "Feature", "properties": { "Nombre": "Limpieza de Canal", "Estado": "En Ejecucion", "Datos": "Trabajos de Limpieza", "Localidad": "Vera", "Tipo": "Canal", "Region": "Región 1", "Cuenca": "10- Los Saladillos", "Obra": "ATN Vera", "Código": null, "C Cuenca": null, "Direccion": null, "Resp.": null, "Dpto": "Vera", "Long (Km)": null }, "geometry": { "type": "MultiLineString", "coordinates": [ [ [ -60.192572184836472, -29.447274040028333 ], [ -60.184368847524269, -29.458024184230645 ] ] ] } },
{ "type": "Feature", "properties": { "Nombre": "Limpieza de Canal", "Estado": "En Ejecucion", "Datos": "Trabajos de Limpieza", "Localidad": "Vera", "Tipo": "Canal", "Region": "Región 1", "Cuenca": "10- Los Saladillos", "Obra": "ATN Vera", "Código": null, "C Cuenca": null, "Direccion": null, "Resp.": null, "Dpto": "Vera", "Long (Km)": null }, "geometry": { "type": "MultiLineString", "coordinates": [ [ [ -60.17431159898004, -29.454179541749543 ], [ -60.199487215094642, -29.451640797467615 ] ] ] } },
{ "type": "Feature", "properties": { "Nombre": "Limpieza de Canal", "Estado": "En Ejecucion", "Datos": "Trabajos de Limpieza", "Localidad": "Vera", "Tipo": "Canal", "Region": "Región 1", "Cuenca": "10- Los Saladillos", "Obra": "ATN Vera", "Código": null, "C Cuenca": null, "Direccion": null, "Resp.": null, "Dpto": "Vera", "Long (Km)": null }, "geometry": { "type": "MultiLineString", "coordinates": [ [ [ -60.20056393976509, -29.414501248141679 ], [ -60.20519236548715, -29.441544701811424 ] ] ] } },
{ "type": "Feature", "properties": { "Nombre": "Limpieza de canal", "Estado": "En Ejecucion", "Datos": "Trabajos de Limpieza", "Localidad": "Vera", "Tipo": "Canal", "Region": "Región 1", "Cuenca": "10- Los Saladillos", "Obra": "ATN Vera", "Código": null, "C Cuenca": null, "Direccion": null, "Resp.": null, "Dpto": "Vera", "Long (Km)": null }, "geometry": { "type": "MultiLineString", "coordinates": [ [ [ -60.21276828529232, -29.412828134789486 ], [ -60.218151175680148, -29.439668313005196 ] ] ] } },
{ "type": "Feature", "properties": { "Nombre": "Readecuacion de Canal", "Estado": "Sin Ejecutar", "Datos": "Readecuacion", "Localidad": "Vera", "Tipo": "Canal", "Region": "Región 1", "Cuenca": "10- Los Saladillos", "Obra": "ATN Vera", "Código": null, "C Cuenca": null, "Direccion": null, "Resp.": null, "Dpto": "Vera", "Long (Km)": null }, "geometry": { "type": "MultiLineString", "coordinates": [ [ [ -60.186152882819016, -29.460036904411144 ], [ -60.172529518257143, -29.454474193429345 ], [ -60.152006515689109, -29.456632040556503 ], [ -60.131663333714954, -29.465028880464374 ] ] ] } },
{ "type": "Feature", "properties": { "Nombre": "Readecuacion de Canal", "Estado": "En Ejecucion", "Datos": null, "Localidad": "Vera", "Tipo": "Canal", "Region": "Región 1", "Cuenca": "10- Los Saladillos", "Obra": "ATN Vera", "Código": null, "C Cuenca": null, "Direccion": null, "Resp.": null, "Dpto": "Vera", "Long (Km)": null }, "geometry": { "type": "MultiLineString", "coordinates": [ [ [ -60.192090871562122, -29.44705463935809 ], [ -60.176423025030111, -29.437797787914057 ] ] ] } }
]
}
