{
"type": "FeatureCollection",
"name": "Obras_PlanesdeObra_cc_2026",
"crs": { "type": "name", "properties": { "name": "urn:ogc:def:crs:OGC:1.3:CRS84" } },
"features": [
{ "type": "Feature", "properties": { "Nombre": "4) Alc. Aurora", "Estado": "Sin Ejecutar", "Datos": "Adecuar alcantarilla en camino comunal. Ingreso a planta La Aurora.\nPosibilidad de una nueva alcantarilla de ingreso a la planta", "C Cuenca": "Comite Castellanos", "Tipo": "Alcantarilla", "Region": null, "Cuenca": null, "Obra": null, "Código": null, "Localidad": null, "Direccion": null, "Resp.": null, "Dpto": "Castellanos" }, "geometry": { "type": "Point", "coordinates": [ -61.821844973899978, -31.202096398041768 ] } },
{ "type": "Feature", "properties": { "Nombre": "Alcantarilla en BN", "Estado": "Sin Ejecutar", "Datos": "Alcantarilla en bajo natural . Canal Varetto II", "C Cuenca": "Comite Castellanos", "Tipo": "Alcantarilla", "Region": null, "Cuenca": null, "Obra": null, "Código": null, "Localidad": null, "Direccion": null, "Resp.": null, "Dpto": "Castellanos" }, "geometry": { "type": "Point", "coordinates": [ -61.820236972325731, -31.137407785578187 ] } },
{ "type": "Feature", "properties": { "Nombre": "Alcantarilla rota en RP65", "Estado": "Sin Ejecutar", "Datos": "acomodar alcantarilla", "C Cuenca": "Comite Castellanos", "Tipo": "Alcantarilla", "Region": null, "Cuenca": null, "Obra": null, "Código": null, "Localidad": null, "Direccion": null, "Resp.": null, "Dpto": "Castellanos" }, "geometry": { "type": "Point", "coordinates": [ -61.821969055893831, -31.144651116927474 ] } },
{ "type": "Feature", "properties": { "Nombre": "15) Alc. CC", "Estado": "Sin Ejecutar", "Datos": "Alcantarillas en canal pansa para habilitar los caminos comunales", "C Cuenca": "Comite Castellanos", "Tipo": "Alcantarilla", "Region": null, "Cuenca": null, "Obra": null, "Código": null, "Localidad": null, "Direccion": null, "Resp.": null, "Dpto": "Castellanos" }, "geometry": { "type": "Point", "coordinates": [ -61.990588032164474, -31.200811588732215 ] } },
{ "type": "Feature", "properties": { "Nombre": "15) Alc. CC", "Estado": "Sin Ejecutar", "Datos": "Alcantarillas en canal pansa para habilitar los caminos comunales", "C Cuenca": "Comite Castellanos", "Tipo": "Alcantarilla", "Region": null, "Cuenca": null, "Obra": null, "Código": null, "Localidad": null, "Direccion": null, "Resp.": null, "Dpto": "Castellanos" }, "geometry": { "type": "Point", "coordinates": [ -61.987512794811629, -31.191839205908092 ] } },
{ "type": "Feature", "properties": { "Nombre": "15) Alc. CC", "Estado": "Sin Ejecutar", "Datos": "Alcantarillas en canal pansa para habilitar los caminos comunales", "C Cuenca": "Comite Castellanos", "Tipo": "Alcantarilla", "Region": null, "Cuenca": null, "Obra": null, "Código": null, "Localidad": null, "Direccion": null, "Resp.": null, "Dpto": "Castellanos" }, "geometry": { "type": "Point", "coordinates": [ -61.984560457154991, -31.182648185860231 ] } },
{ "type": "Feature", "properties": { "Nombre": "16) Alc. Ingreso EPE - RP70", "Estado": "Sin Ejecutar", "Datos": null, "C Cuenca": "Comite Castellanos", "Tipo": "Alcantarilla", "Region": null, "Cuenca": null, "Obra": null, "Código": null, "Localidad": null, "Direccion": null, "Resp.": null, "Dpto": "Castellanos" }, "geometry": { "type": "Point", "coordinates": [ -61.915008611598537, -31.185502904384609 ] } },
{ "type": "Feature", "properties": { "Nombre": "Proteccion alcantarilla", "Estado": "Sin Ejecutar", "Datos": "colocación de protección en alcantarilla de camino público.", "C Cuenca": "Comite Las Encadenadas", "Tipo": "Alcantarilla", "Region": null, "Cuenca": null, "Obra": null, "Código": null, "Localidad": null, "Direccion": null, "Resp.": null, "Dpto": "General Lopez" }, "geometry": { "type": "Point", "coordinates": [ -61.761482802314596, -33.854833906716998 ] } },
{ "type": "Feature", "properties": { "Nombre": "Puente caído", "Estado": "Sin Ejecutar", "Datos": "Alc. Progr. +0,300: construcción de alcantarilla en camino comunal", "C Cuenca": "Comite Las Encadenadas", "Tipo": null, "Region": null, "Cuenca": null, "Obra": null, "Código": null, "Localidad": null, "Direccion": null, "Resp.": null, "Dpto": "General Lopez" }, "geometry": { "type": "Point", "coordinates": [ -61.61374466658652, -34.039424822818347 ] } },
{ "type": "Feature", "properties": { "Nombre": "Alc. Paso Particular Perussia", "Estado": "Sin Ejecutar", "Datos": null, "C Cuenca": null, "Tipo": "Alcantarilla", "Region": null, "Cuenca": null, "Obra": null, "Código": null, "Localidad": null, "Direccion": null, "Resp.": null, "Dpto": "Castellanos" }, "geometry": { "type": "Point", "coordinates": [ -61.737644204028328, -31.587083155323111 ] } },
{ "type": "Feature", "properties": { "Nombre": "Alc-puentes Canal Ppal", "Estado": "Sin Ejecutar", "Datos": null, "C Cuenca": null, "Tipo": "Alcantarilla", "Region": null, "Cuenca": null, "Obra": null, "Código": null, "Localidad": null, "Direccion": null, "Resp.": null, "Dpto": "Castellanos" }, "geometry": { "type": "Point", "coordinates": [ -61.649329862487612, -31.45071424253986 ] } },
{ "type": "Feature", "properties": { "Nombre": "Alc-puentes Canal Ppal", "Estado": "Sin Ejecutar", "Datos": null, "C Cuenca": null, "Tipo": "Alcantarilla", "Region": null, "Cuenca": null, "Obra": null, "Código": null, "Localidad": null, "Direccion": null, "Resp.": null, "Dpto": "Castellanos" }, "geometry": { "type": "Point", "coordinates": [ -61.654273776470831, -31.437610148184795 ] } },
{ "type": "Feature", "properties": { "Nombre": "Alc-puentes Canal Ppal", "Estado": "Sin Ejecutar", "Datos": null, "C Cuenca": null, "Tipo": "Alcantarilla", "Region": null, "Cuenca": null, "Obra": null, "Código": null, "Localidad": null, "Direccion": null, "Resp.": null, "Dpto": "Castellanos" }, "geometry": { "type": "Point", "coordinates": [ -61.657140549969235, -31.424936212108367 ] } },
{ "type": "Feature", "properties": { "Nombre": "Alc-puentes Canal Ppal", "Estado": "Sin Ejecutar", "Datos": null, "C Cuenca": null, "Tipo": "Alcantarilla", "Region": null, "Cuenca": null, "Obra": null, "Código": null, "Localidad": null, "Direccion": null, "Resp.": null, "Dpto": "Castellanos" }, "geometry": { "type": "Point", "coordinates": [ -61.667310786722659, -31.397432517185344 ] } },
{ "type": "Feature", "properties": { "Nombre": "Colocacion alcantarilla en canal Alessi", "Estado": "Sin Ejecutar", "Datos": null, "C Cuenca": null, "Tipo": "Alcantarilla", "Region": null, "Cuenca": null, "Obra": null, "Código": null, "Localidad": null, "Direccion": null, "Resp.": null, "Dpto": "San Jerónimo" }, "geometry": { "type": "Point", "coordinates": [ -61.257179607039291, -31.883807809480597 ] } },
{ "type": "Feature", "properties": { "Nombre": "Colocacion alcantarilla en canal Las Cañas", "Estado": "Sin Ejecutar", "Datos": null, "C Cuenca": null, "Tipo": "Alcantarilla", "Region": null, "Cuenca": null, "Obra": null, "Código": null, "Localidad": null, "Direccion": null, "Resp.": null, "Dpto": "Las Colonias" }, "geometry": { "type": "Point", "coordinates": [ -61.490669318212525, -31.74117638185573 ] } },
{ "type": "Feature", "properties": { "Nombre": "Colocacion de alcantarilla en canal Las Cañas", "Estado": "Sin Ejecutar", "Datos": null, "C Cuenca": null, "Tipo": "Alcantarilla", "Region": null, "Cuenca": null, "Obra": null, "Código": null, "Localidad": null, "Direccion": null, "Resp.": null, "Dpto": "Las Colonias" }, "geometry": { "type": "Point", "coordinates": [ -61.517605523129106, -31.737029020488599 ] } },
{ "type": "Feature", "properties": { "Nombre": "Reacondicionamiento alcantarilla en Canal Cañada Quiñones", "Estado": "Sin Ejecutar", "Datos": null, "C Cuenca": null, "Tipo": "Alcantarilla", "Region": null, "Cuenca": null, "Obra": null, "Código": null, "Localidad": null, "Direccion": null, "Resp.": null, "Dpto": "Las Colonias" }, "geometry": { "type": "Point", "coordinates": [ -61.430576638301339, -31.683319543518216 ] } },
{ "type": "Feature", "properties": { "Nombre": "Reacondicionamiento alcantarilla en canal La Penca", "Estado": "Sin Ejecutar", "Datos": null, "C Cuenca": null, "Tipo": "Alcantarilla", "Region": null, "Cuenca": null, "Obra": null, "Código": null, "Localidad": null, "Direccion": null, "Resp.": null, "Dpto": "Las Colonias" }, "geometry": { "type": "Point", "coordinates": [ -61.43561009210346, -31.705205903171436 ] } },
{ "type": "Feature", "properties": { "Nombre": "Alc Canal Sec Penquitas", "Estado": "Sin Ejecutar", "Datos": null, "C Cuenca": null, "Tipo": "Alcantarilla", "Region": null, "Cuenca": null, "Obra": null, "Código": null, "Localidad": null, "Direccion": null, "Resp.": null, "Dpto": "Castellanos" }, "geometry": { "type": "Point", "coordinates": [ -61.520318237163032, -31.089211280050559 ] } },
{ "type": "Feature", "properties": { "Nombre": "Plan de Obra 2026 - Calavera", "Estado": "Sin Ejecutar", "Datos": null, "C Cuenca": "Comite Calaveras - Las Penquitas", "Tipo": null, "Region": null, "Cuenca": null, "Obra": null, "Código": null, "Localidad": null, "Direccion": null, "Resp.": null, "Dpto": "Castellanos" }, "geometry": { "type": "Point", "coordinates": [ -61.542149474334607, -31.234260881387701 ] } },
{ "type": "Feature", "properties": { "Nombre": "Plan de Obra 2026 - Calavera", "Estado": "Sin Ejecutar", "Datos": null, "C Cuenca": "Comite Calaveras - Las Penquitas", "Tipo": null, "Region": null, "Cuenca": null, "Obra": null, "Código": null, "Localidad": null, "Direccion": null, "Resp.": null, "Dpto": "Castellanos" }, "geometry": { "type": "Point", "coordinates": [ -61.53768246534797, -31.215943226721286 ] } },
{ "type": "Feature", "properties": { "Nombre": "11 - Plan de Obra 2026 - Calavera", "Estado": "Sin Ejecutar", "Datos": null, "C Cuenca": "Comite Calaveras - Las Penquitas", "Tipo": null, "Region": null, "Cuenca": null, "Obra": null, "Código": null, "Localidad": null, "Direccion": null, "Resp.": null, "Dpto": "Castellanos" }, "geometry": { "type": "Point", "coordinates": [ -61.32947554803102, -31.206562387104132 ] } },
{ "type": "Feature", "properties": { "Nombre": "12- Plan de Obra 2026 - Calavera", "Estado": "Sin Ejecutar", "Datos": null, "C Cuenca": "Comite Calaveras - Las Penquitas", "Tipo": null, "Region": null, "Cuenca": null, "Obra": null, "Código": null, "Localidad": null, "Direccion": null, "Resp.": null, "Dpto": "Castellanos" }, "geometry": { "type": "Point", "coordinates": [ -61.411959567864841, -31.198355545124091 ] } },
{ "type": "Feature", "properties": { "Nombre": "9- Plan de Obra 2026 - Calavera", "Estado": "Sin Ejecutar", "Datos": null, "C Cuenca": "Comite Calaveras - Las Penquitas", "Tipo": null, "Region": null, "Cuenca": null, "Obra": null, "Código": null, "Localidad": null, "Direccion": null, "Resp.": null, "Dpto": "Castellanos" }, "geometry": { "type": "Point", "coordinates": [ -61.318375245120301, -31.134066896404999 ] } },
{ "type": "Feature", "properties": { "Nombre": "8- Plan de Obra 2026 - Calavera", "Estado": "Sin Ejecutar", "Datos": null, "C Cuenca": "Comite Calaveras - Las Penquitas", "Tipo": null, "Region": null, "Cuenca": null, "Obra": null, "Código": null, "Localidad": null, "Direccion": null, "Resp.": null, "Dpto": "Castellanos" }, "geometry": { "type": "Point", "coordinates": [ -61.387503241684009, -31.117191485763307 ] } },
{ "type": "Feature", "properties": { "Nombre": "8- Plan de Obra 2026 - Calavera", "Estado": "Sin Ejecutar", "Datos": null, "C Cuenca": "Comite Calaveras - Las Penquitas", "Tipo": null, "Region": null, "Cuenca": null, "Obra": null, "Código": null, "Localidad": null, "Direccion": null, "Resp.": null, "Dpto": "Castellanos" }, "geometry": { "type": "Point", "coordinates": [ -61.401238989535727, -31.114706128605899 ] } },
{ "type": "Feature", "properties": { "Nombre": "14 - Plan de Obra 2026 - Calavera", "Estado": "Sin Ejecutar", "Datos": null, "C Cuenca": "Comite Calaveras - Las Penquitas", "Tipo": null, "Region": null, "Cuenca": null, "Obra": null, "Código": null, "Localidad": null, "Direccion": null, "Resp.": null, "Dpto": "Las Colonias" }, "geometry": { "type": "Point", "coordinates": [ -61.248617515420385, -31.233885526634079 ] } },
{ "type": "Feature", "properties": { "Nombre": "4 - Plan de Obra 2026 - Calavera", "Estado": "Sin Ejecutar", "Datos": null, "C Cuenca": "Comite Calaveras - Las Penquitas", "Tipo": null, "Region": null, "Cuenca": null, "Obra": null, "Código": null, "Localidad": null, "Direccion": null, "Resp.": null, "Dpto": "Castellanos" }, "geometry": { "type": "Point", "coordinates": [ -61.643573728479311, -31.235398578924912 ] } },
{ "type": "Feature", "properties": { "Nombre": "1- Plan de Obra 2026 - Calavera", "Estado": "Sin Ejecutar", "Datos": null, "C Cuenca": "Comite Calaveras - Las Penquitas", "Tipo": null, "Region": null, "Cuenca": null, "Obra": null, "Código": null, "Localidad": null, "Direccion": null, "Resp.": null, "Dpto": "Castellanos" }, "geometry": { "type": "Point", "coordinates": [ -61.541417696358927, -31.208534527325295 ] } },
{ "type": "Feature", "properties": { "Nombre": "2- Plan de Obra 2026 - Calavera", "Estado": "Sin Ejecutar", "Datos": null, "C Cuenca": "Comite Calaveras - Las Penquitas", "Tipo": null, "Region": null, "Cuenca": null, "Obra": null, "Código": null, "Localidad": null, "Direccion": null, "Resp.": null, "Dpto": "Las Colonias" }, "geometry": { "type": "Point", "coordinates": [ -61.11787348875238, -31.275260986095457 ] } },
{ "type": "Feature", "properties": { "Nombre": "3- Plan de Obra 2026 - Calavera", "Estado": "Sin Ejecutar", "Datos": null, "C Cuenca": "Comite Calaveras - Las Penquitas", "Tipo": null, "Region": null, "Cuenca": null, "Obra": null, "Código": null, "Localidad": null, "Direccion": null, "Resp.": null, "Dpto": "Las Colonias" }, "geometry": { "type": "Point", "coordinates": [ -61.0286206768846, -31.174220861252685 ] } },
{ "type": "Feature", "properties": { "Nombre": "5- Plan de Obra 2026 - Calavera", "Estado": "Sin Ejecutar", "Datos": null, "C Cuenca": "Comite Calaveras - Las Penquitas", "Tipo": null, "Region": null, "Cuenca": null, "Obra": null, "Código": null, "Localidad": null, "Direccion": null, "Resp.": null, "Dpto": "Las Colonias" }, "geometry": { "type": "Point", "coordinates": [ -61.231297748711171, -31.087369471094178 ] } },
{ "type": "Feature", "properties": { "Nombre": "6- Plan de Obra 2026 - Calavera", "Estado": "Sin Ejecutar", "Datos": null, "C Cuenca": "Comite Calaveras - Las Penquitas", "Tipo": null, "Region": null, "Cuenca": null, "Obra": null, "Código": null, "Localidad": null, "Direccion": null, "Resp.": null, "Dpto": "Las Colonias" }, "geometry": { "type": "Point", "coordinates": [ -61.275835236053616, -31.065979598309717 ] } },
{ "type": "Feature", "properties": { "Nombre": "7- Plan de Obra 2026 - Calavera", "Estado": "Sin Ejecutar", "Datos": null, "C Cuenca": "Comite Calaveras - Las Penquitas", "Tipo": null, "Region": null, "Cuenca": null, "Obra": null, "Código": null, "Localidad": null, "Direccion": null, "Resp.": null, "Dpto": "Las Colonias" }, "geometry": { "type": "Point", "coordinates": [ -61.176422172260999, -31.088520386144204 ] } },
{ "type": "Feature", "properties": { "Nombre": "10- Plan de Obra 2026 - Calavera", "Estado": "Sin Ejecutar", "Datos": null, "C Cuenca": null, "Tipo": null, "Region": null, "Cuenca": null, "Obra": null, "Código": null, "Localidad": null, "Direccion": null, "Resp.": null, "Dpto": "Castellanos" }, "geometry": { "type": "Point", "coordinates": [ -61.583185408382249, -31.054328801782166 ] } },
{ "type": "Feature", "properties": { "Nombre": "15- Plan de Obra 2026 - Calavera", "Estado": "Sin Ejecutar", "Datos": null, "C Cuenca": "Comite Calaveras - Las Penquitas", "Tipo": null, "Region": null, "Cuenca": null, "Obra": null, "Código": null, "Localidad": null, "Direccion": null, "Resp.": null, "Dpto": "Las Colonias" }, "geometry": { "type": "Point", "coordinates": [ -61.233477909944291, -31.24804356810326 ] } },
{ "type": "Feature", "properties": { "Nombre": "1-Ampliación alcantarilla en Canal Imhoff (La Mora)", "Estado": "Sin Ejecutar", "Datos": "SIN PROYECTO", "C Cuenca": "Comite Arroyo Pantanoso y Saladillo Amargo", "Tipo": "Alcantarilla", "Region": null, "Cuenca": null, "Obra": null, "Código": null, "Localidad": null, "Direccion": null, "Resp.": null, "Dpto": "San Justo" }, "geometry": { "type": "Point", "coordinates": [ -60.488134686723122, -30.286672132662215 ] } },
{ "type": "Feature", "properties": { "Nombre": "2-Construccion alcantarilla nueva en canal colector Ignacion Crespo de acceso nuevo loteo", "Estado": "Sin Ejecutar", "Datos": "SIN PROYECTO", "C Cuenca": "Comite Arroyo Pantanoso y Saladillo Amargo", "Tipo": "Alcantarilla", "Region": null, "Cuenca": null, "Obra": null, "Código": null, "Localidad": null, "Direccion": null, "Resp.": null, "Dpto": "San Justo" }, "geometry": { "type": "Point", "coordinates": [ -60.416945791080742, -30.361727692941994 ] } },
{ "type": "Feature", "properties": { "Nombre": "3-acomodar la misma alcantarilla existente en canal interdistrital crespo-silva", "Estado": "Finalizado", "Datos": null, "C Cuenca": "Comite Arroyo Pantanoso y Saladillo Amargo", "Tipo": "Alcantarilla", "Region": null, "Cuenca": null, "Obra": null, "Código": null, "Localidad": null, "Direccion": null, "Resp.": null, "Dpto": "San Justo" }, "geometry": { "type": "Point", "coordinates": [ -60.368149761581776, -30.399068889063212 ] } },
{ "type": "Feature", "properties": { "Nombre": "6-construccion cabezales Alcantarilla Bazzolo en canal De la Escuela", "Estado": "Sin Ejecutar", "Datos": "Considerado como reparacion", "C Cuenca": "Comite Arroyo Pantanoso y Saladillo Amargo", "Tipo": "Alcantarilla", "Region": null, "Cuenca": null, "Obra": null, "Código": null, "Localidad": null, "Direccion": null, "Resp.": null, "Dpto": "San Justo" }, "geometry": { "type": "Point", "coordinates": [ -60.496870526733332, -30.492065174174201 ] } },
{ "type": "Feature", "properties": { "Nombre": "7-reemplazo Alcantarilla existente en canal Colector N° 10", "Estado": "Sin Ejecutar", "Datos": "Con proyecto", "C Cuenca": "Comite Arroyo Pantanoso y Saladillo Amargo", "Tipo": "Alcantarilla", "Region": null, "Cuenca": null, "Obra": null, "Código": null, "Localidad": null, "Direccion": null, "Resp.": null, "Dpto": "San Justo" }, "geometry": { "type": "Point", "coordinates": [ -60.312983759882442, -30.230295679279376 ] } },
{ "type": "Feature", "properties": { "Nombre": "11-Construcción alcantarila aliviadora N° 1 nueva del A° La Blanca sobre RP56-S", "Estado": "Sin Ejecutar", "Datos": "SIN PROYECTO", "C Cuenca": "Comite Arroyo Pantanoso y Saladillo Amargo", "Tipo": "Alcantarilla", "Region": null, "Cuenca": null, "Obra": null, "Código": null, "Localidad": null, "Direccion": null, "Resp.": null, "Dpto": "San Justo" }, "geometry": { "type": "Point", "coordinates": [ -60.494062901155267, -30.092264489682581 ] } },
{ "type": "Feature", "properties": { "Nombre": "12-Construcción alcantarila aliviadora N° 2 nueva del A° La Blanca sobre RP56-S", "Estado": "Sin Ejecutar", "Datos": "SIN PROYECTO", "C Cuenca": "Comite Arroyo Pantanoso y Saladillo Amargo", "Tipo": "Alcantarilla", "Region": null, "Cuenca": null, "Obra": null, "Código": null, "Localidad": null, "Direccion": null, "Resp.": null, "Dpto": "San Justo" }, "geometry": { "type": "Point", "coordinates": [ -60.497564367278798, -30.090939107002914 ] } },
{ "type": "Feature", "properties": { "Nombre": "Alc. C. La Pecera-Girelli-Stampanoni", "Estado": "Sin Ejecutar", "Datos": null, "C Cuenca": "Comite Canal Princial Sastre", "Tipo": "Alcantarilla", "Region": null, "Cuenca": null, "Obra": null, "Código": null, "Localidad": null, "Direccion": null, "Resp.": null, "Dpto": "San Martin" }, "geometry": { "type": "Point", "coordinates": [ -61.930920145040851, -31.698416474890752 ] } },
{ "type": "Feature", "properties": { "Nombre": "Alc. C. La Pecera-Girelli-Stampanoni", "Estado": "Sin Ejecutar", "Datos": null, "C Cuenca": "Comite Canal Princial Sastre", "Tipo": "Alcantarilla", "Region": null, "Cuenca": null, "Obra": null, "Código": null, "Localidad": null, "Direccion": null, "Resp.": null, "Dpto": "San Martin" }, "geometry": { "type": "Point", "coordinates": [ -62.041024201287392, -31.798622710271385 ] } },
{ "type": "Feature", "properties": { "Nombre": "Alc. C. La Pecera-Girelli-Stampanoni", "Estado": "Sin Ejecutar", "Datos": null, "C Cuenca": "Comite Canal Princial Sastre", "Tipo": "Alcantarilla", "Region": null, "Cuenca": null, "Obra": null, "Código": null, "Localidad": null, "Direccion": null, "Resp.": null, "Dpto": "San Martin" }, "geometry": { "type": "Point", "coordinates": [ -61.938250938745107, -31.727475986134333 ] } },
{ "type": "Feature", "properties": { "Nombre": "Alc. C. La Pecera-Girelli-Stampanoni", "Estado": "Sin Ejecutar", "Datos": null, "C Cuenca": "Comite Canal Princial Sastre", "Tipo": "Alcantarilla", "Region": null, "Cuenca": null, "Obra": null, "Código": null, "Localidad": null, "Direccion": null, "Resp.": null, "Dpto": "San Martin" }, "geometry": { "type": "Point", "coordinates": [ -62.0027784817838, -31.799931449257151 ] } },
{ "type": "Feature", "properties": { "Nombre": "Alc. C. La Pecera-Girelli-Stampanoni", "Estado": "Sin Ejecutar", "Datos": null, "C Cuenca": "Comite Canal Princial Sastre", "Tipo": "Alcantarilla", "Region": null, "Cuenca": null, "Obra": null, "Código": null, "Localidad": null, "Direccion": null, "Resp.": null, "Dpto": "San Martin" }, "geometry": { "type": "Point", "coordinates": [ -62.081656261846248, -31.802538298891104 ] } },
{ "type": "Feature", "properties": { "Nombre": "Alc. C. La Pecera-Girelli-Stampanoni", "Estado": "Sin Ejecutar", "Datos": null, "C Cuenca": "Comite Canal Princial Sastre", "Tipo": "Alcantarilla", "Region": null, "Cuenca": null, "Obra": null, "Código": null, "Localidad": null, "Direccion": null, "Resp.": null, "Dpto": "Castellanos" }, "geometry": { "type": "Point", "coordinates": [ -62.017048566818751, -31.617618554798916 ] } },
{ "type": "Feature", "properties": { "Nombre": "Bocacalles de H°", "Estado": "Sin Ejecutar", "Datos": null, "C Cuenca": "Comite Canal Princial Sastre", "Tipo": null, "Region": null, "Cuenca": null, "Obra": null, "Código": null, "Localidad": null, "Direccion": null, "Resp.": null, "Dpto": "San Martin" }, "geometry": { "type": "Point", "coordinates": [ -61.909513129901903, -31.81103261134621 ] } },
{ "type": "Feature", "properties": { "Nombre": "Bocacalles de H°", "Estado": "Sin Ejecutar", "Datos": null, "C Cuenca": "Comite Canal Princial Sastre", "Tipo": null, "Region": null, "Cuenca": null, "Obra": null, "Código": null, "Localidad": null, "Direccion": null, "Resp.": null, "Dpto": "San Martin" }, "geometry": { "type": "Point", "coordinates": [ -61.911304562775328, -31.820015430557103 ] } },
{ "type": "Feature", "properties": { "Nombre": "Bocacalles de H°", "Estado": "Sin Ejecutar", "Datos": null, "C Cuenca": "Comite Canal Princial Sastre", "Tipo": null, "Region": null, "Cuenca": null, "Obra": null, "Código": null, "Localidad": null, "Direccion": null, "Resp.": null, "Dpto": "San Martin" }, "geometry": { "type": "Point", "coordinates": [ -61.896009731179404, -31.813530702307808 ] } },
{ "type": "Feature", "properties": { "Nombre": "Entrada 1 /Sec. Ruta 64", "Estado": "Sin Ejecutar", "Datos": null, "C Cuenca": "Comite Canal Princial Sastre", "Tipo": null, "Region": null, "Cuenca": null, "Obra": null, "Código": null, "Localidad": null, "Direccion": null, "Resp.": null, "Dpto": "San Martin" }, "geometry": { "type": "Point", "coordinates": [ -61.950335555671735, -31.750142548573955 ] } },
{ "type": "Feature", "properties": { "Nombre": "Entrada 2 /Sec. Ruta 64", "Estado": "Sin Ejecutar", "Datos": null, "C Cuenca": "Comite Canal Princial Sastre", "Tipo": null, "Region": null, "Cuenca": null, "Obra": null, "Código": null, "Localidad": null, "Direccion": null, "Resp.": null, "Dpto": "San Martin" }, "geometry": { "type": "Point", "coordinates": [ -61.953928836538253, -31.74973132313383 ] } },
{ "type": "Feature", "properties": { "Nombre": "Entrada 3 /Sec. Ruta 64", "Estado": "Sin Ejecutar", "Datos": null, "C Cuenca": "Comite Canal Princial Sastre", "Tipo": null, "Region": null, "Cuenca": null, "Obra": null, "Código": null, "Localidad": null, "Direccion": null, "Resp.": null, "Dpto": "San Martin" }, "geometry": { "type": "Point", "coordinates": [ -61.961486901378976, -31.748365587998528 ] } },
{ "type": "Feature", "properties": { "Nombre": "Camino 1 /Sec. Ruta 64", "Estado": "Sin Ejecutar", "Datos": null, "C Cuenca": "Comite Canal Princial Sastre", "Tipo": null, "Region": null, "Cuenca": null, "Obra": null, "Código": null, "Localidad": null, "Direccion": null, "Resp.": null, "Dpto": "San Martin" }, "geometry": { "type": "Point", "coordinates": [ -61.96871049067726, -31.747021206715385 ] } },
{ "type": "Feature", "properties": { "Nombre": "Entrada 4 /Sec. Ruta 64", "Estado": "Sin Ejecutar", "Datos": null, "C Cuenca": "Comite Canal Princial Sastre", "Tipo": null, "Region": null, "Cuenca": null, "Obra": null, "Código": null, "Localidad": null, "Direccion": null, "Resp.": null, "Dpto": "San Martin" }, "geometry": { "type": "Point", "coordinates": [ -61.983976054682138, -31.744267129510359 ] } },
{ "type": "Feature", "properties": { "Nombre": "Camino 2 /Sec. Ruta 64", "Estado": "Sin Ejecutar", "Datos": null, "C Cuenca": "Comite Canal Princial Sastre", "Tipo": null, "Region": null, "Cuenca": null, "Obra": null, "Código": null, "Localidad": null, "Direccion": null, "Resp.": null, "Dpto": "San Martin" }, "geometry": { "type": "Point", "coordinates": [ -61.989319186102627, -31.743363905073409 ] } },
{ "type": "Feature", "properties": { "Nombre": "Entrada 5 /Sec. Ruta 64", "Estado": "Sin Ejecutar", "Datos": null, "C Cuenca": "Comite Canal Princial Sastre", "Tipo": null, "Region": null, "Cuenca": null, "Obra": null, "Código": null, "Localidad": null, "Direccion": null, "Resp.": null, "Dpto": "San Martin" }, "geometry": { "type": "Point", "coordinates": [ -61.995572041449705, -31.742239097448056 ] } },
{ "type": "Feature", "properties": { "Nombre": "Camino 3 /Sec. Ruta 64", "Estado": "Sin Ejecutar", "Datos": null, "C Cuenca": "Comite Canal Princial Sastre", "Tipo": null, "Region": null, "Cuenca": null, "Obra": null, "Código": null, "Localidad": null, "Direccion": null, "Resp.": null, "Dpto": "San Martin" }, "geometry": { "type": "Point", "coordinates": [ -62.010060674964215, -31.739663174039954 ] } },
{ "type": "Feature", "properties": { "Nombre": "Entrada 6 /Sec. Ruta 64", "Estado": "Sin Ejecutar", "Datos": null, "C Cuenca": "Comite Canal Princial Sastre", "Tipo": null, "Region": null, "Cuenca": null, "Obra": null, "Código": null, "Localidad": null, "Direccion": null, "Resp.": null, "Dpto": "San Martin" }, "geometry": { "type": "Point", "coordinates": [ -62.013565671793167, -31.73905646847064 ] } },
{ "type": "Feature", "properties": { "Nombre": "Entrada 7 /Sec. Ruta 64", "Estado": "Sin Ejecutar", "Datos": null, "C Cuenca": "Comite Canal Princial Sastre", "Tipo": null, "Region": null, "Cuenca": null, "Obra": null, "Código": null, "Localidad": null, "Direccion": null, "Resp.": null, "Dpto": "San Martin" }, "geometry": { "type": "Point", "coordinates": [ -62.020272812062011, -31.737851686407502 ] } },
{ "type": "Feature", "properties": { "Nombre": "Entrada 8 /Sec. Ruta 64", "Estado": "Sin Ejecutar", "Datos": null, "C Cuenca": "Comite Canal Princial Sastre", "Tipo": null, "Region": null, "Cuenca": null, "Obra": null, "Código": null, "Localidad": null, "Direccion": null, "Resp.": null, "Dpto": "San Martin" }, "geometry": { "type": "Point", "coordinates": [ -62.025179358943319, -31.736990407285546 ] } },
{ "type": "Feature", "properties": { "Nombre": "Camino 4 /Sec. Ruta 64", "Estado": "Sin Ejecutar", "Datos": null, "C Cuenca": "Comite Canal Princial Sastre", "Tipo": null, "Region": null, "Cuenca": null, "Obra": null, "Código": null, "Localidad": null, "Direccion": null, "Resp.": null, "Dpto": "San Martin" }, "geometry": { "type": "Point", "coordinates": [ -62.030663691831258, -31.735995483863313 ] } },
{ "type": "Feature", "properties": { "Nombre": "Puentes C. PPL - 64+700", "Estado": "Sin Ejecutar", "Datos": null, "C Cuenca": "Comite Canal Princial Sastre", "Tipo": null, "Region": null, "Cuenca": null, "Obra": null, "Código": null, "Localidad": null, "Direccion": null, "Resp.": null, "Dpto": "Castellanos" }, "geometry": { "type": "Point", "coordinates": [ -62.028244883127591, -31.60906283154193 ] } },
{ "type": "Feature", "properties": { "Nombre": "Puentes C. PPL - 56+000", "Estado": "Sin Ejecutar", "Datos": null, "C Cuenca": "Comite Canal Princial Sastre", "Tipo": null, "Region": null, "Cuenca": null, "Obra": null, "Código": null, "Localidad": null, "Direccion": null, "Resp.": null, "Dpto": "Castellanos" }, "geometry": { "type": "Point", "coordinates": [ -61.993166931268341, -31.656843877556842 ] } },
{ "type": "Feature", "properties": { "Nombre": "Puentes C. PPL - 50+500", "Estado": "Sin Ejecutar", "Datos": null, "C Cuenca": "Comite Canal Princial Sastre", "Tipo": null, "Region": null, "Cuenca": null, "Obra": null, "Código": null, "Localidad": null, "Direccion": null, "Resp.": null, "Dpto": "San Martin" }, "geometry": { "type": "Point", "coordinates": [ -61.966405427666309, -31.685095433698415 ] } },
{ "type": "Feature", "properties": { "Nombre": "Puentes C. PPL - 8+500", "Estado": "Sin Ejecutar", "Datos": null, "C Cuenca": null, "Tipo": null, "Region": null, "Cuenca": null, "Obra": null, "Código": null, "Localidad": null, "Direccion": null, "Resp.": null, "Dpto": "San Martin" }, "geometry": { "type": "Point", "coordinates": [ -61.67134013893525, -31.807309942099675 ] } },
{ "type": "Feature", "properties": { "Nombre": "Puentes C. PPL - 69+050", "Estado": "Sin Ejecutar", "Datos": null, "C Cuenca": "Comite Canal Princial Sastre", "Tipo": null, "Region": null, "Cuenca": null, "Obra": null, "Código": null, "Localidad": null, "Direccion": null, "Resp.": null, "Dpto": "Castellanos" }, "geometry": { "type": "Point", "coordinates": [ -62.071132640701038, -31.610544571992435 ] } },
{ "type": "Feature", "properties": { "Nombre": "variante rudad 10km", "Estado": "Finalizado", "Datos": null, "C Cuenca": null, "Tipo": null, "Region": null, "Cuenca": null, "Obra": null, "Código": null, "Localidad": null, "Direccion": null, "Resp.": null, "Dpto": "9 de Julio" }, "geometry": { "type": "Point", "coordinates": [ -61.73883932526023, -29.042893415601174 ] } },
{ "type": "Feature", "properties": { "Nombre": "Canal RP 290 5.6km", "Estado": "Finalizado", "Datos": null, "C Cuenca": null, "Tipo": null, "Region": null, "Cuenca": null, "Obra": null, "Código": null, "Localidad": null, "Direccion": null, "Resp.": null, "Dpto": "9 de Julio" }, "geometry": { "type": "Point", "coordinates": [ -61.659767704374637, -28.933194273135417 ] } },
{ "type": "Feature", "properties": { "Nombre": "Secundario Canal RP 290 2km", "Estado": "Finalizado", "Datos": null, "C Cuenca": null, "Tipo": null, "Region": null, "Cuenca": null, "Obra": null, "Código": null, "Localidad": null, "Direccion": null, "Resp.": null, "Dpto": "9 de Julio" }, "geometry": { "type": "Point", "coordinates": [ -61.665553809281022, -28.922340613009066 ] } },
{ "type": "Feature", "properties": { "Nombre": "canal medve 21km", "Estado": "Finalizado", "Datos": null, "C Cuenca": null, "Tipo": null, "Region": null, "Cuenca": null, "Obra": null, "Código": null, "Localidad": null, "Direccion": null, "Resp.": null, "Dpto": "9 de Julio" }, "geometry": { "type": "Point", "coordinates": [ -61.787639845992686, -28.889544000133267 ] } },
{ "type": "Feature", "properties": { "Nombre": "Reacondicionamiento Alc Ruta 7\"vieja\" y Camino 8", "Estado": "Sin Ejecutar", "Datos": "Reemplazo de tubos de hormigón en mal estado. Ejecución de Cabezales y Alas. Se mantiene cota y sección.", "C Cuenca": "Comite Laguna la Picasa y CAN", "Tipo": "Alcantarilla", "Region": null, "Cuenca": null, "Obra": null, "Código": null, "Localidad": null, "Direccion": null, "Resp.": null, "Dpto": "General Lopez" }, "geometry": { "type": "Point", "coordinates": [ -62.67570930760715, -34.277768332504237 ] } },
{ "type": "Feature", "properties": { "Nombre": "Reacondicionamiento Ruta 7\"Vieja\" ing. Campo Bermudez", "Estado": "Sin Ejecutar", "Datos": "Estado actual intransitable. Se igualaría la sección a la existente aguas abajo o aguas arriba. Ejecución de Cabezales y Alas. Se mantiene cota y sección.", "C Cuenca": "Comite Laguna la Picasa y CAN", "Tipo": "Alcantarilla", "Region": null, "Cuenca": null, "Obra": null, "Código": null, "Localidad": null, "Direccion": null, "Resp.": null, "Dpto": "General Lopez" }, "geometry": { "type": "Point", "coordinates": [ -62.653818825803256, -34.281841787416418 ] } },
{ "type": "Feature", "properties": { "Nombre": "Alc. N°3 CAN - La Delia", "Estado": "Sin Ejecutar", "Datos": "\"A pedido de autoridades comunales, adición de hileras de tubos adicionales para ensanche de camino. Ejecución de cabezales y alas. \nExiste expediente de solucitud de convenio por 10 Alcantarillas del CAN. Se mantiene cota y sección.\n\"", "C Cuenca": "Comite Laguna la Picasa y CAN", "Tipo": "Alcantarilla", "Region": null, "Cuenca": null, "Obra": null, "Código": null, "Localidad": null, "Direccion": null, "Resp.": null, "Dpto": "General Lopez" }, "geometry": { "type": "Point", "coordinates": [ -61.611893295963512, -34.239858658494164 ] } },
{ "type": "Feature", "properties": { "Nombre": "Alc. N°8 CAN", "Estado": "Sin Ejecutar", "Datos": "\"Reemplazo de tubos en mal estado. Reacondicionamiento de Cabezales y Alas.\nExiste expediente de solicitud de convenio por 10 Alcantarillas del CAN. Se mantiene cota y sección.\n\"", "C Cuenca": "Comite Laguna la Picasa y CAN", "Tipo": "Alcantarilla", "Region": null, "Cuenca": null, "Obra": null, "Código": null, "Localidad": null, "Direccion": null, "Resp.": null, "Dpto": "General Lopez" }, "geometry": { "type": "Point", "coordinates": [ -61.836619949215041, -34.246952468472692 ] } },
{ "type": "Feature", "properties": { "Nombre": "Alc. N°6 CAN - El Cisne", "Estado": "Sin Ejecutar", "Datos": "\"Reacondicionamiento de Cabezales y Alas.\nExiste expediente de solicitud de convenio por 10 Alcantarillas del CAN. Se mantiene cota y sección.\n\"", "C Cuenca": "Comite Laguna la Picasa y CAN", "Tipo": "Alcantarilla", "Region": null, "Cuenca": null, "Obra": null, "Código": null, "Localidad": null, "Direccion": null, "Resp.": null, "Dpto": "General Lopez" }, "geometry": { "type": "Point", "coordinates": [ -61.773855055321029, -34.289348040416016 ] } },
{ "type": "Feature", "properties": { "Nombre": "Alc. N°7 CAN\"San Gabriel\"", "Estado": "Sin Ejecutar", "Datos": "Se interviene en socavación producida aguas abajo de la Alcantarilla existente.", "C Cuenca": "Comite Laguna la Picasa y CAN", "Tipo": "Alcantarilla", "Region": null, "Cuenca": null, "Obra": null, "Código": null, "Localidad": null, "Direccion": null, "Resp.": null, "Dpto": "General Lopez" }, "geometry": { "type": "Point", "coordinates": [ -61.798662463686426, -34.249047061612487 ] } },
{ "type": "Feature", "properties": { "Nombre": "Alc. N° 22 CAN - El Bonete", "Estado": "Sin Ejecutar", "Datos": null, "C Cuenca": "Comite Laguna la Picasa y CAN", "Tipo": "Alcantarilla", "Region": null, "Cuenca": null, "Obra": null, "Código": null, "Localidad": null, "Direccion": null, "Resp.": null, "Dpto": "General Lopez" }, "geometry": { "type": "Point", "coordinates": [ -62.131613837791711, -34.224487011945882 ] } },
{ "type": "Feature", "properties": { "Nombre": "Alc. N°2 CAN (Cardenas)", "Estado": "Sin Ejecutar", "Datos": "Actualmente en estado intransitable. Ejecución de alcantarilla manteniendo sección y cotas originales.", "C Cuenca": "Comite Laguna la Picasa y CAN", "Tipo": "Alcantarilla", "Region": null, "Cuenca": null, "Obra": null, "Código": null, "Localidad": null, "Direccion": null, "Resp.": null, "Dpto": "General Lopez" }, "geometry": { "type": "Point", "coordinates": [ -61.575066857832738, -34.216900202071521 ] } },
{ "type": "Feature", "properties": { "Nombre": "Reacondicionamiento Alc. Canal Paysandu\"Campo Sesnich\"", "Estado": "Sin Ejecutar", "Datos": "Se mantiene cota y sección.", "C Cuenca": "Comite Laguna la Picasa y CAN", "Tipo": "Alcantarilla", "Region": null, "Cuenca": null, "Obra": null, "Código": null, "Localidad": null, "Direccion": null, "Resp.": null, "Dpto": "General Lopez" }, "geometry": { "type": "Point", "coordinates": [ -61.72835641411816, -34.100345233268044 ] } },
{ "type": "Feature", "properties": { "Nombre": "Reacondicionamiento Alc. Canal Sur Maria Teresa", "Estado": "Sin Ejecutar", "Datos": "Reemplazo de tubos en mal estado y mejoramiento de cabezales. No se producen modificaciones en cota y sección de alcantarilla existente.", "C Cuenca": "Comite Laguna la Picasa y CAN", "Tipo": "Alcantarilla", "Region": null, "Cuenca": null, "Obra": null, "Código": null, "Localidad": null, "Direccion": null, "Resp.": null, "Dpto": "General Lopez" }, "geometry": { "type": "Point", "coordinates": [ -61.949665714907958, -34.0557076776701 ] } },
{ "type": "Feature", "properties": { "Nombre": "Alc. Canal 2 (Bonaudi)", "Estado": "Sin Ejecutar", "Datos": null, "C Cuenca": "Comite Canales Sec 1,2 y 3", "Tipo": "Alcantarilla", "Region": null, "Cuenca": null, "Obra": null, "Código": null, "Localidad": null, "Direccion": null, "Resp.": null, "Dpto": "San Cristobal" }, "geometry": { "type": "Point", "coordinates": [ -61.702144799709949, -30.695641874012306 ] } },
{ "type": "Feature", "properties": { "Nombre": "Progr Km 36+974", "Estado": "Sin Ejecutar", "Datos": null, "C Cuenca": "Comite Canales Sec 1,2 y 3", "Tipo": null, "Region": null, "Cuenca": null, "Obra": null, "Código": null, "Localidad": null, "Direccion": null, "Resp.": null, "Dpto": "San Cristobal" }, "geometry": { "type": "Point", "coordinates": [ -61.69240859507488, -30.653476379365397 ] } },
{ "type": "Feature", "properties": { "Nombre": "Progr Km 39+011", "Estado": "Sin Ejecutar", "Datos": null, "C Cuenca": "Comite Canales Sec 1,2 y 3", "Tipo": null, "Region": null, "Cuenca": null, "Obra": null, "Código": null, "Localidad": null, "Direccion": null, "Resp.": null, "Dpto": "San Cristobal" }, "geometry": { "type": "Point", "coordinates": [ -61.712766488524608, -30.656217486230361 ] } },
{ "type": "Feature", "properties": { "Nombre": "Prog Km 43+160", "Estado": "Sin Ejecutar", "Datos": null, "C Cuenca": "Comite Canales Sec 1,2 y 3", "Tipo": null, "Region": null, "Cuenca": null, "Obra": null, "Código": null, "Localidad": null, "Direccion": null, "Resp.": null, "Dpto": "San Cristobal" }, "geometry": { "type": "Point", "coordinates": [ -61.74780366122765, -30.67610903205771 ] } },
{ "type": "Feature", "properties": { "Nombre": "Progr Km 44+785", "Estado": "Sin Ejecutar", "Datos": null, "C Cuenca": "Comite Canales Sec 1,2 y 3", "Tipo": null, "Region": null, "Cuenca": null, "Obra": null, "Código": null, "Localidad": null, "Direccion": null, "Resp.": null, "Dpto": "San Cristobal" }, "geometry": { "type": "Point", "coordinates": [ -61.764246892648757, -30.680007869536173 ] } },
{ "type": "Feature", "properties": { "Nombre": "Progr Km 45+415", "Estado": "Sin Ejecutar", "Datos": null, "C Cuenca": "Comite Canales Sec 1,2 y 3", "Tipo": null, "Region": null, "Cuenca": null, "Obra": null, "Código": null, "Localidad": null, "Direccion": null, "Resp.": null, "Dpto": "San Cristobal" }, "geometry": { "type": "Point", "coordinates": [ -61.770326858547982, -30.680797130972852 ] } },
{ "type": "Feature", "properties": { "Nombre": "Progr Km 46+017", "Estado": "Sin Ejecutar", "Datos": null, "C Cuenca": "Comite Canales Sec 1,2 y 3", "Tipo": null, "Region": null, "Cuenca": null, "Obra": null, "Código": null, "Localidad": null, "Direccion": null, "Resp.": null, "Dpto": "San Cristobal" }, "geometry": { "type": "Point", "coordinates": [ -61.77624078270162, -30.682868213337109 ] } },
{ "type": "Feature", "properties": { "Nombre": "Progr Km 46+535", "Estado": "Sin Ejecutar", "Datos": null, "C Cuenca": "Comite Canales Sec 1,2 y 3", "Tipo": null, "Region": null, "Cuenca": null, "Obra": null, "Código": null, "Localidad": null, "Direccion": null, "Resp.": null, "Dpto": "San Cristobal" }, "geometry": { "type": "Point", "coordinates": [ -61.781629856547426, -30.683424975078768 ] } },
{ "type": "Feature", "properties": { "Nombre": "Progr Km 47+600", "Estado": "Sin Ejecutar", "Datos": null, "C Cuenca": "Comite Canales Sec 1,2 y 3", "Tipo": null, "Region": null, "Cuenca": null, "Obra": null, "Código": null, "Localidad": null, "Direccion": null, "Resp.": null, "Dpto": "San Cristobal" }, "geometry": { "type": "Point", "coordinates": [ -61.79246174149668, -30.684126325521323 ] } },
{ "type": "Feature", "properties": { "Nombre": "Alc. Km 6+437", "Estado": "Sin Ejecutar", "Datos": null, "C Cuenca": "Comite Canales Sec 1,2 y 3", "Tipo": null, "Region": null, "Cuenca": null, "Obra": null, "Código": null, "Localidad": null, "Direccion": null, "Resp.": null, "Dpto": "Castellanos" }, "geometry": { "type": "Point", "coordinates": [ -61.6402193000078, -30.79270219956145 ] } },
{ "type": "Feature", "properties": { "Nombre": "Alc. Km 5+239", "Estado": "Sin Ejecutar", "Datos": null, "C Cuenca": "Comite Canales Sec 1,2 y 3", "Tipo": null, "Region": null, "Cuenca": null, "Obra": null, "Código": null, "Localidad": null, "Direccion": null, "Resp.": null, "Dpto": "Castellanos" }, "geometry": { "type": "Point", "coordinates": [ -61.628262858686618, -30.789422933181338 ] } },
{ "type": "Feature", "properties": { "Nombre": "Alc. Km 4+875", "Estado": "Sin Ejecutar", "Datos": null, "C Cuenca": "Comite Canales Sec 1,2 y 3", "Tipo": null, "Region": null, "Cuenca": null, "Obra": null, "Código": null, "Localidad": null, "Direccion": null, "Resp.": null, "Dpto": "Castellanos" }, "geometry": { "type": "Point", "coordinates": [ -61.625026014267682, -30.788092126977379 ] } },
{ "type": "Feature", "properties": { "Nombre": "Alcantarilla Ingreso", "Estado": "Sin Ejecutar", "Datos": "Colocacion de alcantarilla de modulos ingreso campo Finetti", "C Cuenca": "Comite Cululu", "Tipo": "Alcantarilla", "Region": null, "Cuenca": null, "Obra": null, "Código": null, "Localidad": null, "Direccion": null, "Resp.": null, "Dpto": "Las Colonias" }, "geometry": { "type": "Point", "coordinates": [ -61.173540626180952, -30.708871007154986 ] } },
{ "type": "Feature", "properties": { "Nombre": "Construccion de Paso a Vado en A° Cululu", "Estado": "Sin Ejecutar", "Datos": null, "C Cuenca": "Comite Cululu", "Tipo": "Alcantarilla", "Region": null, "Cuenca": null, "Obra": null, "Código": null, "Localidad": null, "Direccion": null, "Resp.": null, "Dpto": "Las Colonias" }, "geometry": { "type": "Point", "coordinates": [ -61.041091826867572, -30.743268407544647 ] } },
{ "type": "Feature", "properties": { "Nombre": "Reacondicionamiento Alcantarillas", "Estado": "Sin Ejecutar", "Datos": "Reacondicionamiento de alcantarillas en el Distrito", "C Cuenca": "Comite Cululu", "Tipo": "Alcantarilla", "Region": null, "Cuenca": null, "Obra": null, "Código": null, "Localidad": null, "Direccion": null, "Resp.": null, "Dpto": "Las Colonias" }, "geometry": { "type": "Point", "coordinates": [ -61.17084483963766, -30.763685333535367 ] } },
{ "type": "Feature", "properties": { "Nombre": "Alcantarillas El Palomar", "Estado": "Sin Ejecutar", "Datos": "9 - Colocacion de alcantarillas sureste El Palomar", "C Cuenca": "Comite Cululu", "Tipo": "Alcantarilla", "Region": null, "Cuenca": null, "Obra": null, "Código": null, "Localidad": null, "Direccion": null, "Resp.": null, "Dpto": "Las Colonias" }, "geometry": { "type": "Point", "coordinates": [ -61.147878410094343, -30.803808668133268 ] } },
{ "type": "Feature", "properties": { "Nombre": "Alcantarillas en camino", "Estado": "Sin Ejecutar", "Datos": "5 - Colocacion de 4 alcantarillas de 0,80 m en caminos (red terciaria de escurrimiento)", "C Cuenca": "Comite Cululu", "Tipo": "Alcantarilla", "Region": null, "Cuenca": null, "Obra": null, "Código": null, "Localidad": null, "Direccion": null, "Resp.": null, "Dpto": "Las Colonias" }, "geometry": { "type": "Point", "coordinates": [ -61.158494375706695, -30.946800291563708 ] } },
{ "type": "Feature", "properties": { "Nombre": "Alcantarilla de modulos", "Estado": "Sin Ejecutar", "Datos": "3 - Colocacion de alcantarilla de modulos en bajo de Hollmannd", "C Cuenca": "Comite Cululu", "Tipo": "Alcantarilla", "Region": null, "Cuenca": null, "Obra": null, "Código": null, "Localidad": null, "Direccion": null, "Resp.": null, "Dpto": "Las Colonias" }, "geometry": { "type": "Point", "coordinates": [ -61.062417797157757, -30.949464731751856 ] } },
{ "type": "Feature", "properties": { "Nombre": "Alcantarillas red terciarias", "Estado": "Sin Ejecutar", "Datos": "5 - colocacion de 4 alcantarillas de 0,80 m en camino (red terciaria de escurrimiento) 3", "C Cuenca": "Comite Cululu", "Tipo": "Alcantarilla", "Region": null, "Cuenca": null, "Obra": null, "Código": null, "Localidad": null, "Direccion": null, "Resp.": null, "Dpto": "Las Colonias" }, "geometry": { "type": "Point", "coordinates": [ -61.253735051451585, -30.940269800906471 ] } },
{ "type": "Feature", "properties": { "Nombre": "Alcantarillas red terciarias", "Estado": "Sin Ejecutar", "Datos": "5 - colocacion de 4 alcantarillas de 0,80 m en caminos (red terciaria de escurrimiento) 4", "C Cuenca": "Comite Cululu", "Tipo": "Alcantarilla", "Region": null, "Cuenca": null, "Obra": null, "Código": null, "Localidad": null, "Direccion": null, "Resp.": null, "Dpto": "Las Colonias" }, "geometry": { "type": "Point", "coordinates": [ -61.255908398742292, -30.949590117172463 ] } },
{ "type": "Feature", "properties": { "Nombre": "Alcantarilla sobre las tablitas", "Estado": "Sin Ejecutar", "Datos": "19 - Reacondicionamiento alcantarilla sobre canal Las tablitas y camino Nº 25 (ex ruta Nº 62)", "C Cuenca": "Comite Cululu", "Tipo": "Alcantarilla", "Region": null, "Cuenca": null, "Obra": null, "Código": null, "Localidad": null, "Direccion": null, "Resp.": null, "Dpto": "Las Colonias" }, "geometry": { "type": "Point", "coordinates": [ -61.047141673412405, -30.972514751575542 ] } },
{ "type": "Feature", "properties": { "Nombre": "Alcantarillas red terciarias", "Estado": "Sin Ejecutar", "Datos": "5 - Colocacion de 4 alcantarillas de 0,80 m en can¡minos (red terciara de escurrimiento ) 2", "C Cuenca": "Comite Cululu", "Tipo": "Alcantarilla", "Region": null, "Cuenca": null, "Obra": null, "Código": null, "Localidad": null, "Direccion": null, "Resp.": null, "Dpto": "Las Colonias" }, "geometry": { "type": "Point", "coordinates": [ -61.155626184210071, -30.995230410277635 ] } },
{ "type": "Feature", "properties": { "Nombre": "Alcantarilla red terciaria", "Estado": "Sin Ejecutar", "Datos": null, "C Cuenca": "Comite Cululu", "Tipo": "Alcantarilla", "Region": null, "Cuenca": null, "Obra": null, "Código": null, "Localidad": null, "Direccion": null, "Resp.": null, "Dpto": "Las Colonias" }, "geometry": { "type": "Point", "coordinates": [ -60.923898253729675, -31.02136804608401 ] } },
{ "type": "Feature", "properties": { "Nombre": "Alcantarilla", "Estado": null, "Datos": null, "C Cuenca": null, "Tipo": "Alcantarilla", "Region": null, "Cuenca": null, "Obra": null, "Código": null, "Localidad": null, "Direccion": null, "Resp.": null, "Dpto": null }, "geometry": null }
]
}
