{
"type": "FeatureCollection",
"name": "Obras_OCland",
"crs": { "type": "name", "properties": { "name": "urn:ogc:def:crs:OGC:1.3:CRS84" } },
"features": [
{ "type": "Feature", "properties": { "Código": "01907-0015154-9", "Nombre": "OBRA sin registro", "Estado": null, "Datos": null, "Tipo": "Clandestino", "Region": null, "Cuenca": null, "Obra": null, "Localidad": "Avellaneda", "C Cuenca": null, "Direccion": null, "Resp.": null, "Dpto": "General Obligado" }, "geometry": { "type": "Point", "coordinates": [ -59.658625, -29.129047222222528 ] } },
{ "type": "Feature", "properties": { "Código": "01802-0018473-4", "Nombre": "01802-0018473-4", "Estado": null, "Datos": null, "Tipo": "Clandestino", "Region": null, "Cuenca": null, "Obra": null, "Localidad": "Rufino", "C Cuenca": null, "Direccion": null, "Resp.": null, "Dpto": "General Lopez" }, "geometry": { "type": "Point", "coordinates": [ -62.730652777777856, -34.215686111111388 ] } },
{ "type": "Feature", "properties": { "Código": "01802-0018473-4", "Nombre": "FRONTINI - SIMONIT", "Estado": null, "Datos": null, "Tipo": "Clandestino", "Region": null, "Cuenca": null, "Obra": null, "Localidad": "Rufino", "C Cuenca": null, "Direccion": null, "Resp.": null, "Dpto": "General Lopez" }, "geometry": { "type": "Point", "coordinates": [ -62.739947222222298, -34.209811111111406 ] } },
{ "type": "Feature", "properties": { "Código": "01802-0018473-4", "Nombre": "PONZI", "Estado": null, "Datos": null, "Tipo": "Clandestino", "Region": null, "Cuenca": null, "Obra": null, "Localidad": "Rufino", "C Cuenca": null, "Direccion": null, "Resp.": null, "Dpto": "General Lopez" }, "geometry": { "type": "Point", "coordinates": [ -62.736947222222305, -34.20312500000027 ] } },
{ "type": "Feature", "properties": { "Código": "01802-0018473-4", "Nombre": "ALBERTENGO", "Estado": null, "Datos": null, "Tipo": "Clandestino", "Region": null, "Cuenca": null, "Obra": null, "Localidad": "Rufino", "C Cuenca": null, "Direccion": null, "Resp.": null, "Dpto": "General Lopez" }, "geometry": { "type": "Point", "coordinates": [ -62.738869444444525, -34.197788888889157 ] } },
{ "type": "Feature", "properties": { "Código": "01802-0018473-4", "Nombre": "KAIZEN S.A - 1", "Estado": null, "Datos": null, "Tipo": "Clandestino", "Region": null, "Cuenca": null, "Obra": null, "Localidad": "Rufino", "C Cuenca": null, "Direccion": null, "Resp.": null, "Dpto": "General Lopez" }, "geometry": { "type": "Point", "coordinates": [ -62.736902777777857, -34.195063888889152 ] } },
{ "type": "Feature", "properties": { "Código": "01802-0018473-4", "Nombre": "KAIZEN S.A - 2", "Estado": null, "Datos": null, "Tipo": "Clandestino", "Region": null, "Cuenca": null, "Obra": null, "Localidad": "Rufino", "C Cuenca": null, "Direccion": null, "Resp.": null, "Dpto": "General Lopez" }, "geometry": { "type": "Point", "coordinates": [ -62.727569444444512, -34.190966666666924 ] } },
{ "type": "Feature", "properties": { "Código": "01802-0018473-4", "Nombre": "KAIZEN S.A - 3", "Estado": null, "Datos": null, "Tipo": "Clandestino", "Region": null, "Cuenca": null, "Obra": null, "Localidad": "Rufino", "C Cuenca": null, "Direccion": null, "Resp.": null, "Dpto": "General Lopez" }, "geometry": { "type": "Point", "coordinates": [ -62.724491666666758, -34.185802777778036 ] } },
{ "type": "Feature", "properties": { "Código": "01802-0018473-4", "Nombre": "AGROTRACCIÓN S.A - 1", "Estado": null, "Datos": null, "Tipo": "Clandestino", "Region": null, "Cuenca": null, "Obra": null, "Localidad": "Rufino", "C Cuenca": null, "Direccion": null, "Resp.": null, "Dpto": "General Lopez" }, "geometry": { "type": "Point", "coordinates": [ -62.757144444444521, -34.25079166666692 ] } },
{ "type": "Feature", "properties": { "Código": "01802-0018473-4", "Nombre": "AGROTRACCIÓN S.A - 2", "Estado": null, "Datos": null, "Tipo": "Clandestino", "Region": null, "Cuenca": null, "Obra": null, "Localidad": "Rufino", "C Cuenca": null, "Direccion": null, "Resp.": null, "Dpto": "General Lopez" }, "geometry": { "type": "Point", "coordinates": [ -62.759983333333423, -34.250269444444704 ] } },
{ "type": "Feature", "properties": { "Código": "01802-0018473-4", "Nombre": "BERASATEGUI", "Estado": null, "Datos": null, "Tipo": "Clandestino", "Region": null, "Cuenca": null, "Obra": null, "Localidad": "Rufino", "C Cuenca": null, "Direccion": null, "Resp.": null, "Dpto": "General Lopez" }, "geometry": { "type": "Point", "coordinates": [ -62.764272222222289, -34.2417111111114 ] } },
{ "type": "Feature", "properties": { "Código": "01802-0018473-4", "Nombre": "PANNUNZIO", "Estado": null, "Datos": null, "Tipo": "Clandestino", "Region": null, "Cuenca": null, "Obra": null, "Localidad": "Rufino", "C Cuenca": null, "Direccion": null, "Resp.": null, "Dpto": "General Lopez" }, "geometry": { "type": "Point", "coordinates": [ -62.763975, -34.249461111111358 ] } },
{ "type": "Feature", "properties": { "Código": "01803-0019905-4", "Nombre": "1", "Estado": null, "Datos": null, "Tipo": "Clandestino", "Region": null, "Cuenca": null, "Obra": null, "Localidad": "Totoras", "C Cuenca": null, "Direccion": null, "Resp.": null, "Dpto": "Iriondo" }, "geometry": { "type": "Point", "coordinates": [ -61.347383333333411, -32.599594444444733 ] } },
{ "type": "Feature", "properties": { "Código": "01803-0019905-4", "Nombre": "2", "Estado": null, "Datos": null, "Tipo": "Clandestino", "Region": null, "Cuenca": null, "Obra": null, "Localidad": "Totoras", "C Cuenca": null, "Direccion": null, "Resp.": null, "Dpto": "Iriondo" }, "geometry": { "type": "Point", "coordinates": [ -61.33726388888897, -32.600325000000289 ] } },
{ "type": "Feature", "properties": { "Código": "01907-0015236-4", "Nombre": "Obras no autorizadas", "Estado": null, "Datos": null, "Tipo": "Clandestino", "Region": null, "Cuenca": null, "Obra": null, "Localidad": "Ibarlucea", "C Cuenca": null, "Direccion": null, "Resp.": null, "Dpto": "Rosario" }, "geometry": { "type": "Point", "coordinates": [ -60.798888888888953, -32.858255555555829 ] } },
{ "type": "Feature", "properties": { "Código": "01907-0007620-4", "Nombre": "Alcantarilla", "Estado": null, "Datos": null, "Tipo": "Clandestino", "Region": null, "Cuenca": null, "Obra": null, "Localidad": "Montes de Oca", "C Cuenca": null, "Direccion": null, "Resp.": null, "Dpto": "Belgrano" }, "geometry": { "type": "Point", "coordinates": [ -61.806944444444511, -32.668055555555839 ] } },
{ "type": "Feature", "properties": { "Código": "01907-0007620-4", "Nombre": "2", "Estado": null, "Datos": null, "Tipo": "Clandestino", "Region": null, "Cuenca": null, "Obra": null, "Localidad": "Montes de Oca", "C Cuenca": null, "Direccion": null, "Resp.": null, "Dpto": "Belgrano" }, "geometry": { "type": "Point", "coordinates": [ -61.815, -32.668888888889171 ] } },
{ "type": "Feature", "properties": { "Código": "01907-0007620-4", "Nombre": "3 - Correcto", "Estado": null, "Datos": null, "Tipo": "Clandestino", "Region": null, "Cuenca": null, "Obra": null, "Localidad": "Montes de Oca", "C Cuenca": null, "Direccion": null, "Resp.": null, "Dpto": "Belgrano" }, "geometry": { "type": "Point", "coordinates": [ -61.840497188476796, -32.672201794737418 ] } },
{ "type": "Feature", "properties": { "Código": "01907-0014884-4", "Nombre": "01907-0014884-4", "Estado": null, "Datos": null, "Tipo": "Clandestino", "Region": null, "Cuenca": null, "Obra": null, "Localidad": "Los Cardos", "C Cuenca": null, "Direccion": null, "Resp.": null, "Dpto": "San Martin" }, "geometry": { "type": "Point", "coordinates": [ -61.591636912265287, -32.317519272301851 ] } },
{ "type": "Feature", "properties": { "Código": "01907-0010914-4", "Nombre": "Fin excavación", "Estado": null, "Datos": null, "Tipo": "Clandestino", "Region": null, "Cuenca": null, "Obra": null, "Localidad": "Chovet", "C Cuenca": null, "Direccion": null, "Resp.": null, "Dpto": "General Lopez" }, "geometry": { "type": "Point", "coordinates": [ -61.737858333333421, -33.464486111111384 ] } },
{ "type": "Feature", "properties": { "Código": "01907-0010527-4", "Nombre": "30° 4'0.64\"S -  60°19'18.37\"O", "Estado": null, "Datos": null, "Tipo": "Clandestino", "Region": null, "Cuenca": null, "Obra": null, "Localidad": "Pedro Gomez Cello", "C Cuenca": null, "Direccion": null, "Resp.": null, "Dpto": "San Justo" }, "geometry": { "type": "Point", "coordinates": [ -60.321769444444527, -30.066844444444733 ] } },
{ "type": "Feature", "properties": { "Código": "01907-0010527-4", "Nombre": "30° 4'25.32\"S -  30° 4'25.32\"S", "Estado": null, "Datos": null, "Tipo": "Clandestino", "Region": null, "Cuenca": null, "Obra": null, "Localidad": "Pedro Gomez Cello", "C Cuenca": null, "Direccion": null, "Resp.": null, "Dpto": "San Justo" }, "geometry": { "type": "Point", "coordinates": [ -60.323127777777856, -30.07370000000029 ] } },
{ "type": "Feature", "properties": { "Código": "01907-0010527-4", "Nombre": "30° 4'48.79\"S -  60°19'27.72\"O", "Estado": null, "Datos": null, "Tipo": "Clandestino", "Region": null, "Cuenca": null, "Obra": null, "Localidad": "Pedro Gomez Cello", "C Cuenca": null, "Direccion": null, "Resp.": null, "Dpto": "San Justo" }, "geometry": { "type": "Point", "coordinates": [ -60.324366666666741, -30.080219444444758 ] } },
{ "type": "Feature", "properties": { "Código": "01907-0018002-4", "Nombre": "Alcantarilla canal Borja obra no registrada", "Estado": null, "Datos": null, "Tipo": "Clandestino", "Region": null, "Cuenca": null, "Obra": null, "Localidad": "Helvecia", "C Cuenca": null, "Direccion": null, "Resp.": null, "Dpto": "Garay" }, "geometry": { "type": "Point", "coordinates": [ -60.1045, -31.112244444444748 ] } },
{ "type": "Feature", "properties": { "Código": "01907-0017365-5", "Nombre": "Alcantarilla  obra no registrada", "Estado": null, "Datos": null, "Tipo": "Clandestino", "Region": null, "Cuenca": null, "Obra": null, "Localidad": "Calchaqui", "C Cuenca": null, "Direccion": null, "Resp.": null, "Dpto": "Vera" }, "geometry": { "type": "Point", "coordinates": [ -60.141818975250821, -30.045012364636662 ] } },
{ "type": "Feature", "properties": { "Código": "01907-0017365-5", "Nombre": "Vertedero de Manposteria controlado obra no registrada", "Estado": null, "Datos": null, "Tipo": "Clandestino", "Region": null, "Cuenca": null, "Obra": null, "Localidad": "San Martin Norte", "C Cuenca": null, "Direccion": null, "Resp.": null, "Dpto": "San Justo" }, "geometry": { "type": "Point", "coordinates": [ -60.186075, -30.249152777778072 ] } },
{ "type": "Feature", "properties": { "Código": "01907-0017365-5", "Nombre": "Alcantarilla conector", "Estado": null, "Datos": null, "Tipo": "Clandestino", "Region": null, "Cuenca": null, "Obra": null, "Localidad": "San Martin Norte", "C Cuenca": null, "Direccion": null, "Resp.": null, "Dpto": "San Justo" }, "geometry": { "type": "Point", "coordinates": [ -60.186176835017228, -30.2619526311626 ] } },
{ "type": "Feature", "properties": { "Código": "01907-0017365-5", "Nombre": "Alcantarilla conector", "Estado": null, "Datos": null, "Tipo": "Clandestino", "Region": null, "Cuenca": null, "Obra": null, "Localidad": "San Martin Norte", "C Cuenca": null, "Direccion": null, "Resp.": null, "Dpto": "San Justo" }, "geometry": { "type": "Point", "coordinates": [ -60.187938975861321, -30.260584899087398 ] } },
{ "type": "Feature", "properties": { "Código": "01907-0017365-5", "Nombre": "Obstruccion", "Estado": null, "Datos": null, "Tipo": "Clandestino", "Region": null, "Cuenca": null, "Obra": null, "Localidad": "Calchaqui", "C Cuenca": null, "Direccion": null, "Resp.": null, "Dpto": "Vera" }, "geometry": { "type": "Point", "coordinates": [ -60.059344444444505, -29.898941666666964 ] } },
{ "type": "Feature", "properties": { "Código": "01907-0017365-5", "Nombre": "Obstruccion", "Estado": null, "Datos": null, "Tipo": "Clandestino", "Region": null, "Cuenca": null, "Obra": null, "Localidad": "Calchaqui", "C Cuenca": null, "Direccion": null, "Resp.": null, "Dpto": "Vera" }, "geometry": { "type": "Point", "coordinates": [ -60.0612722222223, -29.904500000000297 ] } },
{ "type": "Feature", "properties": { "Código": "01907-0017365-5", "Nombre": "Aporte de campos linderos", "Estado": null, "Datos": null, "Tipo": "Clandestino", "Region": null, "Cuenca": null, "Obra": null, "Localidad": "Calchaqui", "C Cuenca": null, "Direccion": null, "Resp.": null, "Dpto": "Vera" }, "geometry": { "type": "Point", "coordinates": [ -60.061054129260803, -29.904315149327505 ] } },
{ "type": "Feature", "properties": { "Código": "01907-0017365-5", "Nombre": "PA", "Estado": null, "Datos": null, "Tipo": "Clandestino", "Region": null, "Cuenca": null, "Obra": null, "Localidad": "Calchaqui", "C Cuenca": null, "Direccion": null, "Resp.": null, "Dpto": "Vera" }, "geometry": { "type": "Point", "coordinates": [ -60.122039781500078, -30.046390213700306 ] } },
{ "type": "Feature", "properties": { "Código": "01802-0022009-2 Agregado", "Nombre": "UNO DE LOS CANALES DETECTADOS", "Estado": null, "Datos": null, "Tipo": "Clandestino", "Region": null, "Cuenca": null, "Obra": null, "Localidad": "Coronel Bogado", "C Cuenca": null, "Direccion": null, "Resp.": null, "Dpto": "Rosario" }, "geometry": { "type": "Point", "coordinates": [ -60.561091666666726, -33.289461111111386 ] } },
{ "type": "Feature", "properties": { "Código": "01802-0022009-2 Agregado", "Nombre": "P1", "Estado": null, "Datos": null, "Tipo": "Clandestino", "Region": null, "Cuenca": null, "Obra": null, "Localidad": "Albarellos", "C Cuenca": null, "Direccion": null, "Resp.": null, "Dpto": "Rosario" }, "geometry": { "type": "Point", "coordinates": [ -60.5882, -33.242100000000264 ] } },
{ "type": "Feature", "properties": { "Código": "01802-0022009-2 Agregado", "Nombre": "P2", "Estado": null, "Datos": null, "Tipo": "Clandestino", "Region": null, "Cuenca": null, "Obra": null, "Localidad": "Albarellos", "C Cuenca": null, "Direccion": null, "Resp.": null, "Dpto": "Rosario" }, "geometry": { "type": "Point", "coordinates": [ -60.575, -33.235000000000277 ] } },
{ "type": "Feature", "properties": { "Código": "16108-0003376-5", "Nombre": "Excavación", "Estado": null, "Datos": null, "Tipo": "Clandestino", "Region": null, "Cuenca": null, "Obra": null, "Localidad": "Maria Susana", "C Cuenca": null, "Direccion": null, "Resp.": null, "Dpto": "San Martin" }, "geometry": { "type": "Point", "coordinates": [ -61.870015421980057, -32.267097413926379 ] } },
{ "type": "Feature", "properties": { "Código": "16108-0003376-5", "Nombre": "Cloacas", "Estado": null, "Datos": null, "Tipo": "Clandestino", "Region": null, "Cuenca": null, "Obra": null, "Localidad": "Maria Susana", "C Cuenca": null, "Direccion": null, "Resp.": null, "Dpto": "San Martin" }, "geometry": { "type": "Point", "coordinates": [ -61.879908724430905, -32.265306833656098 ] } },
{ "type": "Feature", "properties": { "Código": "01907-0019602-5", "Nombre": "Obra no declarada", "Estado": null, "Datos": null, "Tipo": "Clandestino", "Region": null, "Cuenca": null, "Obra": null, "Localidad": "Colonia Duran", "C Cuenca": null, "Direccion": null, "Resp.": null, "Dpto": "San Javier" }, "geometry": { "type": "Point", "coordinates": [ -59.829338888888934, -29.554555555555872 ] } },
{ "type": "Feature", "properties": { "Código": "01907-0011576-5", "Nombre": "Tapón", "Estado": null, "Datos": null, "Tipo": "Clandestino", "Region": null, "Cuenca": null, "Obra": null, "Localidad": "Colonia Teresa", "C Cuenca": null, "Direccion": null, "Resp.": null, "Dpto": "San Javier" }, "geometry": { "type": "Point", "coordinates": [ -59.941307343269521, -30.210693509037931 ] } },
{ "type": "Feature", "properties": { "Código": "01907-0011576-5", "Nombre": "Obra de toma", "Estado": null, "Datos": null, "Tipo": "Clandestino", "Region": null, "Cuenca": null, "Obra": null, "Localidad": "Colonia Teresa", "C Cuenca": null, "Direccion": null, "Resp.": null, "Dpto": "San Javier" }, "geometry": { "type": "Point", "coordinates": [ -59.942207291427849, -30.211220203472799 ] } },
{ "type": "Feature", "properties": { "Código": "01907-0011576-5", "Nombre": "Rectificación", "Estado": null, "Datos": null, "Tipo": "Clandestino", "Region": null, "Cuenca": null, "Obra": null, "Localidad": "Colonia Teresa", "C Cuenca": null, "Direccion": null, "Resp.": null, "Dpto": "San Javier" }, "geometry": { "type": "Point", "coordinates": [ -59.939229394682336, -30.211269281622268 ] } },
{ "type": "Feature", "properties": { "Código": "01907-0001678-5", "Nombre": "PARCELA PRESUNTAMENTE INFRACTORA", "Estado": null, "Datos": null, "Tipo": "Clandestino", "Region": null, "Cuenca": null, "Obra": null, "Localidad": "Sunchales", "C Cuenca": null, "Direccion": null, "Resp.": null, "Dpto": "Castellanos" }, "geometry": { "type": "Point", "coordinates": [ -61.548275, -31.022619444444736 ] } },
{ "type": "Feature", "properties": { "Código": "01907-0005416-5", "Nombre": "01907-0005416-5", "Estado": null, "Datos": null, "Tipo": "Clandestino", "Region": null, "Cuenca": null, "Obra": null, "Localidad": "Vera y Pintado", "C Cuenca": null, "Direccion": null, "Resp.": null, "Dpto": "San Justo" }, "geometry": { "type": "Point", "coordinates": [ -60.295776440224792, -30.174158997046977 ] } },
{ "type": "Feature", "properties": { "Código": "01803-0016851-5", "Nombre": "Traza de Conduccion", "Estado": null, "Datos": null, "Tipo": "Clandestino", "Region": null, "Cuenca": null, "Obra": null, "Localidad": "Hughes", "C Cuenca": null, "Direccion": null, "Resp.": null, "Dpto": "General Lopez" }, "geometry": { "type": "Point", "coordinates": [ -61.385005555555644, -33.770877777778054 ] } },
{ "type": "Feature", "properties": { "Código": "01907-0011071-5", "Nombre": "ALCANTARILLA", "Estado": null, "Datos": null, "Tipo": "Clandestino", "Region": null, "Cuenca": null, "Obra": null, "Localidad": "San Javier", "C Cuenca": null, "Direccion": null, "Resp.": null, "Dpto": "San Javier" }, "geometry": { "type": "Point", "coordinates": [ -59.972636111111186, -30.66089722222253 ] } },
{ "type": "Feature", "properties": { "Código": "01907-0011071-5", "Nombre": "Valetones arrocera", "Estado": null, "Datos": null, "Tipo": "Clandestino", "Region": null, "Cuenca": null, "Obra": null, "Localidad": "San Javier", "C Cuenca": null, "Direccion": null, "Resp.": null, "Dpto": "San Javier" }, "geometry": { "type": "Point", "coordinates": [ -60.006796154992216, -30.66816104525547 ] } },
{ "type": "Feature", "properties": { "Código": "01801-0052866-5", "Nombre": "P1", "Estado": null, "Datos": null, "Tipo": "Clandestino", "Region": null, "Cuenca": null, "Obra": null, "Localidad": "Las Rosas", "C Cuenca": null, "Direccion": null, "Resp.": null, "Dpto": "Belgrano" }, "geometry": { "type": "Point", "coordinates": [ -61.578536111111198, -32.371027777778053 ] } },
{ "type": "Feature", "properties": { "Código": "01801-0052866-5", "Nombre": "P2", "Estado": null, "Datos": null, "Tipo": "Clandestino", "Region": null, "Cuenca": null, "Obra": null, "Localidad": "Las Rosas", "C Cuenca": null, "Direccion": null, "Resp.": null, "Dpto": "Belgrano" }, "geometry": { "type": "Point", "coordinates": [ -61.58305, -32.375727777778074 ] } },
{ "type": "Feature", "properties": { "Código": "01801-0052866-5", "Nombre": "P3", "Estado": null, "Datos": null, "Tipo": "Clandestino", "Region": null, "Cuenca": null, "Obra": null, "Localidad": "Las Rosas", "C Cuenca": null, "Direccion": null, "Resp.": null, "Dpto": "Belgrano" }, "geometry": { "type": "Point", "coordinates": [ -61.585175, -32.38366111111138 ] } },
{ "type": "Feature", "properties": { "Código": "01801-0052866-5", "Nombre": "P4", "Estado": null, "Datos": null, "Tipo": "Clandestino", "Region": null, "Cuenca": null, "Obra": null, "Localidad": "Las Rosas", "C Cuenca": null, "Direccion": null, "Resp.": null, "Dpto": "Belgrano" }, "geometry": { "type": "Point", "coordinates": [ -61.590588888888959, -32.383113888889184 ] } },
{ "type": "Feature", "properties": { "Código": "01801-0052866-5", "Nombre": "P5", "Estado": null, "Datos": null, "Tipo": "Clandestino", "Region": null, "Cuenca": null, "Obra": null, "Localidad": "Las Rosas", "C Cuenca": null, "Direccion": null, "Resp.": null, "Dpto": "Belgrano" }, "geometry": { "type": "Point", "coordinates": [ -61.5947, -32.382475000000298 ] } },
{ "type": "Feature", "properties": { "Código": "01801-0052866-5", "Nombre": "P6", "Estado": null, "Datos": null, "Tipo": "Clandestino", "Region": null, "Cuenca": null, "Obra": null, "Localidad": "Las Rosas", "C Cuenca": null, "Direccion": null, "Resp.": null, "Dpto": "Belgrano" }, "geometry": { "type": "Point", "coordinates": [ -61.599772222222299, -32.384980555555828 ] } },
{ "type": "Feature", "properties": { "Código": "01801-0052866-5", "Nombre": "P7", "Estado": null, "Datos": null, "Tipo": "Clandestino", "Region": null, "Cuenca": null, "Obra": null, "Localidad": "Las Rosas", "C Cuenca": null, "Direccion": null, "Resp.": null, "Dpto": "Belgrano" }, "geometry": { "type": "Point", "coordinates": [ -61.600641666666725, -32.387211111111391 ] } },
{ "type": "Feature", "properties": { "Código": "01801-0052866-5", "Nombre": "P8", "Estado": null, "Datos": null, "Tipo": "Clandestino", "Region": null, "Cuenca": null, "Obra": null, "Localidad": "Las Rosas", "C Cuenca": null, "Direccion": null, "Resp.": null, "Dpto": "Belgrano" }, "geometry": { "type": "Point", "coordinates": [ -61.603502777777855, -32.386938888889169 ] } },
{ "type": "Feature", "properties": { "Código": "01801-0052866-5", "Nombre": "P9", "Estado": null, "Datos": null, "Tipo": "Clandestino", "Region": null, "Cuenca": null, "Obra": null, "Localidad": "Las Rosas", "C Cuenca": null, "Direccion": null, "Resp.": null, "Dpto": "Belgrano" }, "geometry": { "type": "Point", "coordinates": [ -61.60463333333341, -32.388244444444744 ] } },
{ "type": "Feature", "properties": { "Código": "01801-0052866-5", "Nombre": "P10", "Estado": null, "Datos": null, "Tipo": "Clandestino", "Region": null, "Cuenca": null, "Obra": null, "Localidad": "Las Rosas", "C Cuenca": null, "Direccion": null, "Resp.": null, "Dpto": "Belgrano" }, "geometry": { "type": "Point", "coordinates": [ -61.613227777777865, -32.388366666666947 ] } },
{ "type": "Feature", "properties": { "Código": "01907-0024062-5", "Nombre": "OBSTRUCCIÓN obra no registrada", "Estado": null, "Datos": null, "Tipo": "Clandestino", "Region": null, "Cuenca": null, "Obra": null, "Localidad": "Gessler", "C Cuenca": null, "Direccion": null, "Resp.": null, "Dpto": "San Jeronimo" }, "geometry": { "type": "Point", "coordinates": [ -61.151630555555634, -31.925583333333613 ] } },
{ "type": "Feature", "properties": { "Código": "01907-0010643-5", "Nombre": "01907-0010643-5", "Estado": null, "Datos": null, "Tipo": "Clandestino", "Region": null, "Cuenca": null, "Obra": null, "Localidad": "Lazzarino", "C Cuenca": null, "Direccion": null, "Resp.": null, "Dpto": "General Lopez" }, "geometry": { "type": "Point", "coordinates": [ -62.413288888888964, -34.217622222222502 ] } },
{ "type": "Feature", "properties": { "Código": "01907-0017757-0", "Nombre": "CANALIZACIÓN", "Estado": null, "Datos": null, "Tipo": "Clandestino", "Region": null, "Cuenca": null, "Obra": null, "Localidad": "Wheelwright", "C Cuenca": null, "Direccion": null, "Resp.": null, "Dpto": "General Lopez" }, "geometry": { "type": "Point", "coordinates": [ -61.28075, -33.960147222222517 ] } },
{ "type": "Feature", "properties": { "Código": "01907-0017757-0", "Nombre": "Alcantarilla no registrada", "Estado": null, "Datos": null, "Tipo": "Clandestino", "Region": null, "Cuenca": null, "Obra": null, "Localidad": "Wheelwright", "C Cuenca": null, "Direccion": null, "Resp.": null, "Dpto": "General Lopez" }, "geometry": { "type": "Point", "coordinates": [ -61.279225, -33.937172222222486 ] } },
{ "type": "Feature", "properties": { "Código": "01907-0017757-0", "Nombre": "Alcantarilla no registrada", "Estado": null, "Datos": null, "Tipo": "Clandestino", "Region": null, "Cuenca": null, "Obra": null, "Localidad": "Wheelwright", "C Cuenca": null, "Direccion": null, "Resp.": null, "Dpto": "General Lopez" }, "geometry": { "type": "Point", "coordinates": [ -61.275088888888966, -33.940627777778033 ] } },
{ "type": "Feature", "properties": { "Código": "01907-0017757-0", "Nombre": "Alcantarilla no registrada", "Estado": null, "Datos": null, "Tipo": "Clandestino", "Region": null, "Cuenca": null, "Obra": null, "Localidad": "Wheelwright", "C Cuenca": null, "Direccion": null, "Resp.": null, "Dpto": "General Lopez" }, "geometry": { "type": "Point", "coordinates": [ -61.271922222222287, -33.943277777778036 ] } },
{ "type": "Feature", "properties": { "Código": "01907-0017757-0", "Nombre": "Alcantarilla no registrada", "Estado": null, "Datos": null, "Tipo": "Clandestino", "Region": null, "Cuenca": null, "Obra": null, "Localidad": "Wheelwright", "C Cuenca": null, "Direccion": null, "Resp.": null, "Dpto": "General Lopez" }, "geometry": { "type": "Point", "coordinates": [ -61.264838888888967, -33.949102777778052 ] } },
{ "type": "Feature", "properties": { "Código": "01907-0010314-0", "Nombre": "AGUAS ABAJO", "Estado": null, "Datos": null, "Tipo": "Clandestino", "Region": null, "Cuenca": null, "Obra": null, "Localidad": "Ingeniero Chanourdie", "C Cuenca": null, "Direccion": null, "Resp.": null, "Dpto": "General Obligado" }, "geometry": { "type": "Point", "coordinates": [ -59.616458333333384, -28.683491666666985 ] } },
{ "type": "Feature", "properties": { "Código": "01907-0010314-0", "Nombre": "AGUAS ARRIBA", "Estado": null, "Datos": null, "Tipo": "Clandestino", "Region": null, "Cuenca": null, "Obra": null, "Localidad": "Ingeniero Chanourdie", "C Cuenca": null, "Direccion": null, "Resp.": null, "Dpto": "General Obligado" }, "geometry": { "type": "Point", "coordinates": [ -59.621430555555627, -28.682894444444766 ] } },
{ "type": "Feature", "properties": { "Código": "01907-0020010-0", "Nombre": "Obra Clandestina B de Irigoyen", "Estado": null, "Datos": null, "Tipo": "Clandestino", "Region": null, "Cuenca": null, "Obra": null, "Localidad": "Bernardo de Irigoyen", "C Cuenca": null, "Direccion": null, "Resp.": null, "Dpto": "San Jeronimo" }, "geometry": { "type": "Point", "coordinates": [ -61.343386723658035, -32.197431000000272 ] } },
{ "type": "Feature", "properties": { "Código": "01801-0052289-0", "Nombre": "1", "Estado": null, "Datos": null, "Tipo": "Clandestino", "Region": null, "Cuenca": null, "Obra": null, "Localidad": "Santa Isabel", "C Cuenca": null, "Direccion": null, "Resp.": null, "Dpto": "General Lopez" }, "geometry": { "type": "Point", "coordinates": [ -61.700391666666761, -33.892697222222488 ] } },
{ "type": "Feature", "properties": { "Código": "01801-0052289-0", "Nombre": "2", "Estado": null, "Datos": null, "Tipo": "Clandestino", "Region": null, "Cuenca": null, "Obra": null, "Localidad": "Santa Isabel", "C Cuenca": null, "Direccion": null, "Resp.": null, "Dpto": "General Lopez" }, "geometry": { "type": "Point", "coordinates": [ -61.734630555555633, -33.994294444444712 ] } },
{ "type": "Feature", "properties": { "Código": "01907-0003989-0", "Nombre": "Canal", "Estado": null, "Datos": null, "Tipo": "Clandestino", "Region": null, "Cuenca": null, "Obra": null, "Localidad": "Villa Trinidad", "C Cuenca": null, "Direccion": null, "Resp.": null, "Dpto": "San Cristobal" }, "geometry": { "type": "Point", "coordinates": [ -61.830888888888978, -30.243944444444743 ] } },
{ "type": "Feature", "properties": { "Código": "01907-0003989-0", "Nombre": "Intersección con RP N°39", "Estado": null, "Datos": null, "Tipo": "Clandestino", "Region": null, "Cuenca": null, "Obra": null, "Localidad": "Villa Trinidad", "C Cuenca": null, "Direccion": null, "Resp.": null, "Dpto": "San Cristobal" }, "geometry": { "type": "Point", "coordinates": [ -61.82424444444451, -30.214819444444757 ] } },
{ "type": "Feature", "properties": { "Código": "01801-0045924-0", "Nombre": "Regulación", "Estado": null, "Datos": null, "Tipo": "Clandestino", "Region": null, "Cuenca": null, "Obra": null, "Localidad": "Chabas", "C Cuenca": null, "Direccion": null, "Resp.": null, "Dpto": "Caseros" }, "geometry": { "type": "Point", "coordinates": [ -61.483738888888965, -33.238608333333595 ] } },
{ "type": "Feature", "properties": { "Código": "01801-0045924-0", "Nombre": "Canal no autorizado", "Estado": null, "Datos": null, "Tipo": "Clandestino", "Region": null, "Cuenca": null, "Obra": null, "Localidad": "Arequito", "C Cuenca": null, "Direccion": null, "Resp.": null, "Dpto": "Caseros" }, "geometry": { "type": "Point", "coordinates": [ -61.490728501098445, -33.23826737064968 ] } },
{ "type": "Feature", "properties": { "Código": "01803-0020662-0", "Nombre": "1", "Estado": null, "Datos": null, "Tipo": "Clandestino", "Region": null, "Cuenca": null, "Obra": null, "Localidad": "Vera y Pintado", "C Cuenca": null, "Direccion": null, "Resp.": null, "Dpto": "San Justo" }, "geometry": { "type": "Point", "coordinates": [ -60.319652777777854, -30.120409722222526 ] } },
{ "type": "Feature", "properties": { "Código": "01907-0009538-0", "Nombre": "1", "Estado": null, "Datos": null, "Tipo": "Clandestino", "Region": null, "Cuenca": null, "Obra": null, "Localidad": "San Gregorio", "C Cuenca": null, "Direccion": null, "Resp.": null, "Dpto": "General Lopez" }, "geometry": { "type": "Point", "coordinates": [ -61.996358333333411, -34.297030555555807 ] } },
{ "type": "Feature", "properties": { "Código": "01907-0009538-0", "Nombre": "Alcantarilla", "Estado": null, "Datos": null, "Tipo": "Clandestino", "Region": null, "Cuenca": null, "Obra": null, "Localidad": "San Gregorio", "C Cuenca": null, "Direccion": null, "Resp.": null, "Dpto": "General Lopez" }, "geometry": { "type": "Point", "coordinates": [ -62.000683333333406, -34.292316666666935 ] } },
{ "type": "Feature", "properties": { "Código": "01907-0002203-0", "Nombre": "Zona de Afectación habitada", "Estado": null, "Datos": null, "Tipo": "Clandestino", "Region": null, "Cuenca": null, "Obra": null, "Localidad": "Bernardo de Irigoyen", "C Cuenca": null, "Direccion": null, "Resp.": null, "Dpto": "San Jeronimo" }, "geometry": { "type": "Point", "coordinates": [ -61.184386111111188, -32.126016666666956 ] } },
{ "type": "Feature", "properties": { "Código": "01907-0010073-0", "Nombre": "1", "Estado": null, "Datos": null, "Tipo": "Clandestino", "Region": null, "Cuenca": null, "Obra": null, "Localidad": "Sa Pereyra", "C Cuenca": null, "Direccion": null, "Resp.": null, "Dpto": "Las Colonias" }, "geometry": { "type": "Point", "coordinates": [ -61.333627655555631, -31.602624050000298 ] } },
{ "type": "Feature", "properties": { "Código": "01907-0010073-0", "Nombre": "Alcantarilla", "Estado": null, "Datos": null, "Tipo": "Clandestino", "Region": null, "Cuenca": null, "Obra": null, "Localidad": "Sa Pereyra", "C Cuenca": null, "Direccion": null, "Resp.": null, "Dpto": "Las Colonias" }, "geometry": { "type": "Point", "coordinates": [ -61.328108797222292, -31.600514336111392 ] } },
{ "type": "Feature", "properties": { "Código": "01907-0010073-0", "Nombre": "Alcantarilla", "Estado": null, "Datos": null, "Tipo": "Clandestino", "Region": null, "Cuenca": null, "Obra": null, "Localidad": "Sa Pereyra", "C Cuenca": null, "Direccion": null, "Resp.": null, "Dpto": "Las Colonias" }, "geometry": { "type": "Point", "coordinates": [ -61.337835213888958, -31.59900770833362 ] } },
{ "type": "Feature", "properties": { "Código": "01907-0010066-0", "Nombre": "Campo Tantera", "Estado": null, "Datos": null, "Tipo": "Clandestino", "Region": null, "Cuenca": null, "Obra": null, "Localidad": "San Vicente", "C Cuenca": null, "Direccion": null, "Resp.": null, "Dpto": "Castellanos" }, "geometry": { "type": "Point", "coordinates": [ -61.555025, -31.643341666666966 ] } },
{ "type": "Feature", "properties": { "Código": "01907-0010066-0", "Nombre": "Campo Pairola", "Estado": null, "Datos": null, "Tipo": "Clandestino", "Region": null, "Cuenca": null, "Obra": null, "Localidad": "San Vicente", "C Cuenca": null, "Direccion": null, "Resp.": null, "Dpto": "Castellanos" }, "geometry": { "type": "Point", "coordinates": [ -61.554868036538082, -31.641186504599229 ] } },
{ "type": "Feature", "properties": { "Código": "01802-0018190-0", "Nombre": "Desenbocadura", "Estado": null, "Datos": null, "Tipo": "Clandestino", "Region": null, "Cuenca": null, "Obra": null, "Localidad": "Maria Teresa", "C Cuenca": null, "Direccion": null, "Resp.": null, "Dpto": "General Lopez" }, "geometry": { "type": "Point", "coordinates": [ -61.971388888888974, -33.929166666666923 ] } },
{ "type": "Feature", "properties": { "Código": "01802-0018161-2", "Nombre": "CANALIZACIÓN", "Estado": null, "Datos": null, "Tipo": "Clandestino", "Region": null, "Cuenca": null, "Obra": null, "Localidad": "Wheelwright", "C Cuenca": null, "Direccion": null, "Resp.": null, "Dpto": "General Lopez" }, "geometry": { "type": "Point", "coordinates": [ -61.143061390164753, -33.835891665118289 ] } },
{ "type": "Feature", "properties": { "Código": "01803-0018917-2", "Nombre": "Corte", "Estado": null, "Datos": null, "Tipo": "Clandestino", "Region": null, "Cuenca": null, "Obra": null, "Localidad": "Ceres", "C Cuenca": null, "Direccion": null, "Resp.": null, "Dpto": "San Cristobal" }, "geometry": { "type": "Point", "coordinates": [ -61.897693323686909, -29.903564022992203 ] } },
{ "type": "Feature", "properties": { "Código": "01803-0018917-2", "Nombre": "BERGESE - CORTE DE CAMINO SIN ALCANTARILLA", "Estado": null, "Datos": null, "Tipo": "Clandestino", "Region": null, "Cuenca": null, "Obra": null, "Localidad": "Ceres", "C Cuenca": null, "Direccion": null, "Resp.": null, "Dpto": "San Cristobal" }, "geometry": { "type": "Point", "coordinates": [ -61.877127287808285, -29.903771920104443 ] } },
{ "type": "Feature", "properties": { "Código": "01803-0018917-2", "Nombre": "Cremeria Sancor", "Estado": null, "Datos": null, "Tipo": "Clandestino", "Region": null, "Cuenca": null, "Obra": null, "Localidad": "Ceres", "C Cuenca": null, "Direccion": null, "Resp.": null, "Dpto": "San Cristobal" }, "geometry": { "type": "Point", "coordinates": [ -61.926512661019402, -29.904481505910223 ] } },
{ "type": "Feature", "properties": { "Código": "01803-0018917-2", "Nombre": "Corte", "Estado": null, "Datos": null, "Tipo": "Clandestino", "Region": null, "Cuenca": null, "Obra": null, "Localidad": "Ceres", "C Cuenca": null, "Direccion": null, "Resp.": null, "Dpto": "San Cristobal" }, "geometry": { "type": "Point", "coordinates": [ -61.903176129155639, -29.90365353896788 ] } },
{ "type": "Feature", "properties": { "Código": "16101-0157453-2", "Nombre": "Canal no autorizado", "Estado": null, "Datos": null, "Tipo": "Clandestino", "Region": null, "Cuenca": null, "Obra": null, "Localidad": "Chapuy", "C Cuenca": null, "Direccion": null, "Resp.": null, "Dpto": "General Lopez" }, "geometry": { "type": "Point", "coordinates": [ -61.84712777777785, -33.818691666666957 ] } },
{ "type": "Feature", "properties": { "Código": "01801-0053835-2", "Nombre": "01801-005835-2 - CORTE N-S SOBRE CAMINO O-E. PASA AGUA DE V.T HACIA C.ANA", "Estado": null, "Datos": null, "Tipo": "Clandestino", "Region": null, "Cuenca": null, "Obra": null, "Localidad": "Colonia Ana", "C Cuenca": null, "Direccion": null, "Resp.": null, "Dpto": "San Cristobal" }, "geometry": { "type": "Point", "coordinates": [ -61.961554374784171, -30.176408791544542 ] } },
{ "type": "Feature", "properties": { "Código": "01803-0018265-2", "Nombre": "1", "Estado": null, "Datos": null, "Tipo": "Clandestino", "Region": null, "Cuenca": null, "Obra": null, "Localidad": "Colonia Ana", "C Cuenca": null, "Direccion": null, "Resp.": null, "Dpto": "San Cristobal" }, "geometry": { "type": "Point", "coordinates": [ -61.989944444444518, -30.122694444444736 ] } },
{ "type": "Feature", "properties": { "Código": "01803-0018265-2", "Nombre": "2", "Estado": null, "Datos": null, "Tipo": "Clandestino", "Region": null, "Cuenca": null, "Obra": null, "Localidad": "Colonia Ana", "C Cuenca": null, "Direccion": null, "Resp.": null, "Dpto": "San Cristobal" }, "geometry": { "type": "Point", "coordinates": [ -61.97125, -30.121944444444729 ] } },
{ "type": "Feature", "properties": { "Código": "01803-0018265-2", "Nombre": "3", "Estado": null, "Datos": null, "Tipo": "Clandestino", "Region": null, "Cuenca": null, "Obra": null, "Localidad": "Colonia Ana", "C Cuenca": null, "Direccion": null, "Resp.": null, "Dpto": "San Cristobal" }, "geometry": { "type": "Point", "coordinates": [ -61.971222222222288, -30.121250000000295 ] } },
{ "type": "Feature", "properties": { "Código": "01803-0018265-2", "Nombre": "4", "Estado": null, "Datos": null, "Tipo": "Clandestino", "Region": null, "Cuenca": null, "Obra": null, "Localidad": "Colonia Ana", "C Cuenca": null, "Direccion": null, "Resp.": null, "Dpto": "San Cristobal" }, "geometry": { "type": "Point", "coordinates": [ -61.968083333333404, -30.121194444444743 ] } },
{ "type": "Feature", "properties": { "Código": "01907-0006447-2", "Nombre": "FICETTO SUSANA", "Estado": null, "Datos": null, "Tipo": "Clandestino", "Region": null, "Cuenca": null, "Obra": null, "Localidad": "Galisteo", "C Cuenca": null, "Direccion": null, "Resp.": null, "Dpto": "Castellanos" }, "geometry": { "type": "Point", "coordinates": [ -61.271005555555625, -30.967713888889207 ] } },
{ "type": "Feature", "properties": { "Código": "01907-0006447-2", "Nombre": "FICETTO DARIO", "Estado": null, "Datos": null, "Tipo": "Clandestino", "Region": null, "Cuenca": null, "Obra": null, "Localidad": "Galisteo", "C Cuenca": null, "Direccion": null, "Resp.": null, "Dpto": "Castellanos" }, "geometry": { "type": "Point", "coordinates": [ -61.27528888888898, -30.965961111111397 ] } },
{ "type": "Feature", "properties": { "Código": "01802-0014772-2", "Nombre": "1", "Estado": null, "Datos": null, "Tipo": "Clandestino", "Region": null, "Cuenca": null, "Obra": null, "Localidad": "Arteaga", "C Cuenca": null, "Direccion": null, "Resp.": null, "Dpto": "Caseros" }, "geometry": { "type": "Point", "coordinates": [ -61.849397222222301, -33.18620555555583 ] } },
{ "type": "Feature", "properties": { "Código": "01802-0014772-2", "Nombre": "2", "Estado": null, "Datos": null, "Tipo": "Clandestino", "Region": null, "Cuenca": null, "Obra": null, "Localidad": "Arteaga", "C Cuenca": null, "Direccion": null, "Resp.": null, "Dpto": "Caseros" }, "geometry": { "type": "Point", "coordinates": [ -61.841263888888953, -33.174811111111396 ] } },
{ "type": "Feature", "properties": { "Código": "01907-0000913-2", "Nombre": "UBICACIÓN", "Estado": null, "Datos": null, "Tipo": "Clandestino", "Region": null, "Cuenca": null, "Obra": null, "Localidad": "Cayasta", "C Cuenca": null, "Direccion": null, "Resp.": null, "Dpto": "Garay" }, "geometry": { "type": "Point", "coordinates": [ -60.255394444444526, -31.292583333333635 ] } },
{ "type": "Feature", "properties": { "Código": "01801-0051978-2", "Nombre": "Alcantarilla 1", "Estado": null, "Datos": null, "Tipo": "Clandestino", "Region": null, "Cuenca": null, "Obra": null, "Localidad": "Salto Grande", "C Cuenca": null, "Direccion": null, "Resp.": null, "Dpto": "Iriondo" }, "geometry": { "type": "Point", "coordinates": [ -61.125240881307334, -32.63507980665284 ] } },
{ "type": "Feature", "properties": { "Código": "01801-0051978-2", "Nombre": "Alcantarilla 2", "Estado": null, "Datos": null, "Tipo": "Clandestino", "Region": null, "Cuenca": null, "Obra": null, "Localidad": "Totoras", "C Cuenca": null, "Direccion": null, "Resp.": null, "Dpto": "Iriondo" }, "geometry": { "type": "Point", "coordinates": [ -61.127814009050262, -32.638732059876531 ] } },
{ "type": "Feature", "properties": { "Código": "01801-0051978-2", "Nombre": "Alcantarilla 3", "Estado": null, "Datos": null, "Tipo": "Clandestino", "Region": null, "Cuenca": null, "Obra": null, "Localidad": "Totoras", "C Cuenca": null, "Direccion": null, "Resp.": null, "Dpto": "Iriondo" }, "geometry": { "type": "Point", "coordinates": [ -61.131738807475749, -32.630612221869178 ] } },
{ "type": "Feature", "properties": { "Código": "01801-0051978-2", "Nombre": "Alcantarilla 4", "Estado": null, "Datos": null, "Tipo": "Clandestino", "Region": null, "Cuenca": null, "Obra": null, "Localidad": "Salto Grande", "C Cuenca": null, "Direccion": null, "Resp.": null, "Dpto": "Iriondo" }, "geometry": { "type": "Point", "coordinates": [ -61.099410215589842, -32.656036148433778 ] } },
{ "type": "Feature", "properties": { "Código": "01801-0051978-2", "Nombre": "Alcantarilla 5", "Estado": null, "Datos": null, "Tipo": "Clandestino", "Region": null, "Cuenca": null, "Obra": null, "Localidad": "Salto Grande", "C Cuenca": null, "Direccion": null, "Resp.": null, "Dpto": "Iriondo" }, "geometry": { "type": "Point", "coordinates": [ -61.108709757409798, -32.663863815908769 ] } },
{ "type": "Feature", "properties": { "Código": "01801-0051978-2", "Nombre": "Alcantarilla 6", "Estado": null, "Datos": null, "Tipo": "Clandestino", "Region": null, "Cuenca": null, "Obra": null, "Localidad": "Salto Grande", "C Cuenca": null, "Direccion": null, "Resp.": null, "Dpto": "Iriondo" }, "geometry": { "type": "Point", "coordinates": [ -61.093630915829287, -32.668855111672251 ] } },
{ "type": "Feature", "properties": { "Código": "01801-0051978-2", "Nombre": "Alcantarilla 7", "Estado": null, "Datos": null, "Tipo": "Clandestino", "Region": null, "Cuenca": null, "Obra": null, "Localidad": "Salto Grande", "C Cuenca": null, "Direccion": null, "Resp.": null, "Dpto": "Iriondo" }, "geometry": { "type": "Point", "coordinates": [ -61.093880442560916, -32.667887523588917 ] } },
{ "type": "Feature", "properties": { "Código": "01801-0051978-2", "Nombre": "Alcantarilla 8 (?", "Estado": null, "Datos": null, "Tipo": "Clandestino", "Region": null, "Cuenca": null, "Obra": null, "Localidad": "Salto Grande", "C Cuenca": null, "Direccion": null, "Resp.": null, "Dpto": "Iriondo" }, "geometry": { "type": "Point", "coordinates": [ -61.085750936575394, -32.686322021772206 ] } },
{ "type": "Feature", "properties": { "Código": "01801-0051978-2", "Nombre": "Alcantarilla 9", "Estado": null, "Datos": null, "Tipo": "Clandestino", "Region": null, "Cuenca": null, "Obra": null, "Localidad": "Salto Grande", "C Cuenca": null, "Direccion": null, "Resp.": null, "Dpto": "Iriondo" }, "geometry": { "type": "Point", "coordinates": [ -61.082351589306541, -32.690687327963957 ] } },
{ "type": "Feature", "properties": { "Código": "01801-0051978-2", "Nombre": "Alcantarilla 10", "Estado": null, "Datos": null, "Tipo": "Clandestino", "Region": null, "Cuenca": null, "Obra": null, "Localidad": "Salto Grande", "C Cuenca": null, "Direccion": null, "Resp.": null, "Dpto": "Iriondo" }, "geometry": { "type": "Point", "coordinates": [ -61.046478791458675, -32.697240895645294 ] } },
{ "type": "Feature", "properties": { "Código": "01801-0051978-2", "Nombre": "Alcantarilla 11", "Estado": null, "Datos": null, "Tipo": "Clandestino", "Region": null, "Cuenca": null, "Obra": null, "Localidad": "Salto Grande", "C Cuenca": null, "Direccion": null, "Resp.": null, "Dpto": "Iriondo" }, "geometry": { "type": "Point", "coordinates": [ -61.073376734405528, -32.677071127517614 ] } },
{ "type": "Feature", "properties": { "Código": "01907-0020269-2", "Nombre": "PARCELA", "Estado": null, "Datos": null, "Tipo": "Clandestino", "Region": null, "Cuenca": null, "Obra": null, "Localidad": "Peyrano", "C Cuenca": null, "Direccion": null, "Resp.": null, "Dpto": "Constitucion" }, "geometry": { "type": "Point", "coordinates": [ -60.830669444444531, -33.481205555555817 ] } },
{ "type": "Feature", "properties": { "Código": "01907-0020269-2", "Nombre": "Obra no registrada", "Estado": null, "Datos": null, "Tipo": "Clandestino", "Region": null, "Cuenca": null, "Obra": null, "Localidad": "Peyrano", "C Cuenca": null, "Direccion": null, "Resp.": null, "Dpto": "Constitucion" }, "geometry": { "type": "Point", "coordinates": [ -60.829603888757902, -33.481485560956784 ] } },
{ "type": "Feature", "properties": { "Código": "01907-0020269-2", "Nombre": "Obra bi registrada", "Estado": null, "Datos": null, "Tipo": "Clandestino", "Region": null, "Cuenca": null, "Obra": null, "Localidad": "Peyrano", "C Cuenca": null, "Direccion": null, "Resp.": null, "Dpto": "Constitucion" }, "geometry": { "type": "Point", "coordinates": [ -60.829353079409614, -33.48215632340186 ] } },
{ "type": "Feature", "properties": { "Código": "01907-0023352-2", "Nombre": "Canal 1 no registrado", "Estado": null, "Datos": null, "Tipo": "Clandestino", "Region": null, "Cuenca": null, "Obra": null, "Localidad": "Franck", "C Cuenca": "Franck", "Direccion": null, "Resp.": null, "Dpto": "Las Colonias" }, "geometry": { "type": "Point", "coordinates": [ -60.917547222222275, -31.548052777778086 ] } },
{ "type": "Feature", "properties": { "Código": "01907-0023352-2", "Nombre": "Canal  2 no registrado", "Estado": null, "Datos": null, "Tipo": "Clandestino", "Region": null, "Cuenca": null, "Obra": null, "Localidad": "Franck", "C Cuenca": "Franck", "Direccion": null, "Resp.": null, "Dpto": "Las Colonias" }, "geometry": { "type": "Point", "coordinates": [ -60.907413390710282, -31.560465033451187 ] } },
{ "type": "Feature", "properties": { "Código": "01907-0013485-2", "Nombre": "ALCANTARILLA CANAL SUR - ANILLO DE PROTECCIÓN", "Estado": null, "Datos": null, "Tipo": "Clandestino", "Region": null, "Cuenca": null, "Obra": null, "Localidad": "Bella Italia", "C Cuenca": null, "Direccion": null, "Resp.": null, "Dpto": "Castellanos" }, "geometry": { "type": "Point", "coordinates": [ -61.413564634452342, -31.289584276807041 ] } },
{ "type": "Feature", "properties": { "Código": "01802-0021819-0", "Nombre": "Obra clandestina", "Estado": null, "Datos": null, "Tipo": "Clandestino", "Region": null, "Cuenca": null, "Obra": null, "Localidad": "Zavalla", "C Cuenca": null, "Direccion": null, "Resp.": null, "Dpto": "San Lorenzo" }, "geometry": { "type": "Point", "coordinates": [ -60.943989928592323, -32.959033928328907 ] } },
{ "type": "Feature", "properties": { "Código": "01801-0050589-3", "Nombre": "OBRA CLANDESTINA", "Estado": null, "Datos": null, "Tipo": "Clandestino", "Region": null, "Cuenca": null, "Obra": null, "Localidad": "Rufino", "C Cuenca": null, "Direccion": null, "Resp.": null, "Dpto": "General Lopez" }, "geometry": { "type": "Point", "coordinates": [ -62.687083333333398, -34.21213888888915 ] } },
{ "type": "Feature", "properties": { "Código": "01909-0000059-3", "Nombre": "Aliviador", "Estado": null, "Datos": null, "Tipo": "Clandestino", "Region": null, "Cuenca": null, "Obra": null, "Localidad": "Bustinza", "C Cuenca": null, "Direccion": null, "Resp.": null, "Dpto": "Iriondo" }, "geometry": { "type": "Point", "coordinates": [ -61.280744444444522, -32.699772222222499 ] } },
{ "type": "Feature", "properties": { "Código": "01909-0000059-3", "Nombre": "Aliviador", "Estado": null, "Datos": null, "Tipo": "Clandestino", "Region": null, "Cuenca": null, "Obra": null, "Localidad": "Bustinza", "C Cuenca": null, "Direccion": null, "Resp.": null, "Dpto": "Iriondo" }, "geometry": { "type": "Point", "coordinates": [ -61.280341666666729, -32.698913888889152 ] } },
{ "type": "Feature", "properties": { "Código": "01907-0003874-3", "Nombre": "INICIO", "Estado": null, "Datos": null, "Tipo": "Clandestino", "Region": null, "Cuenca": null, "Obra": null, "Localidad": "San Gregorio", "C Cuenca": null, "Direccion": null, "Resp.": null, "Dpto": "General Lopez" }, "geometry": { "type": "Point", "coordinates": [ -62.012233333333398, -34.294166666666925 ] } },
{ "type": "Feature", "properties": { "Código": "01907-0003874-3", "Nombre": "FIN", "Estado": null, "Datos": null, "Tipo": "Clandestino", "Region": null, "Cuenca": null, "Obra": null, "Localidad": "San Gregorio", "C Cuenca": null, "Direccion": null, "Resp.": null, "Dpto": "General Lopez" }, "geometry": { "type": "Point", "coordinates": [ -61.984997222222312, -34.297066666666936 ] } },
{ "type": "Feature", "properties": { "Código": "01907-0019198-3", "Nombre": "Obra no declarada", "Estado": null, "Datos": null, "Tipo": "Clandestino", "Region": null, "Cuenca": null, "Obra": null, "Localidad": "San Javier", "C Cuenca": null, "Direccion": null, "Resp.": null, "Dpto": "San Javier" }, "geometry": { "type": "Point", "coordinates": [ -59.948055555555605, -30.614822222222511 ] } },
{ "type": "Feature", "properties": { "Código": "01907-0019198-3", "Nombre": "Obra no declarada", "Estado": null, "Datos": null, "Tipo": "Clandestino", "Region": null, "Cuenca": null, "Obra": null, "Localidad": "San Javier", "C Cuenca": null, "Direccion": null, "Resp.": null, "Dpto": "San Javier" }, "geometry": { "type": "Point", "coordinates": [ -59.944741666666722, -30.61435555555585 ] } },
{ "type": "Feature", "properties": { "Código": "02001-0054104-1", "Nombre": "Tapon artificial", "Estado": null, "Datos": null, "Tipo": "Clandestino", "Region": null, "Cuenca": null, "Obra": null, "Localidad": "San Javier", "C Cuenca": null, "Direccion": null, "Resp.": null, "Dpto": "San Javier" }, "geometry": { "type": "Point", "coordinates": [ -59.717478022513419, -30.429664784231331 ] } },
{ "type": "Feature", "properties": { "Código": "02001-0054104-1", "Nombre": "Maquina", "Estado": null, "Datos": null, "Tipo": "Clandestino", "Region": null, "Cuenca": null, "Obra": null, "Localidad": "San Javier", "C Cuenca": null, "Direccion": null, "Resp.": null, "Dpto": "San Javier" }, "geometry": { "type": "Point", "coordinates": [ -59.7166871028545, -30.431933556109961 ] } },
{ "type": "Feature", "properties": { "Código": "02001-0054104-1", "Nombre": "Excavacion", "Estado": null, "Datos": null, "Tipo": "Clandestino", "Region": null, "Cuenca": null, "Obra": null, "Localidad": "San Javier", "C Cuenca": null, "Direccion": null, "Resp.": null, "Dpto": "San Javier" }, "geometry": { "type": "Point", "coordinates": [ -59.716882545975807, -30.432036466536726 ] } },
{ "type": "Feature", "properties": { "Código": "01907-0020309-3", "Nombre": "EXCAVACION MECANICA", "Estado": null, "Datos": null, "Tipo": "Clandestino", "Region": null, "Cuenca": null, "Obra": null, "Localidad": "Aaron Castellanos", "C Cuenca": null, "Direccion": null, "Resp.": null, "Dpto": "General Lopez" }, "geometry": { "type": "Point", "coordinates": [ -62.348316666666761, -34.2796583333336 ] } },
{ "type": "Feature", "properties": { "Código": "01907-0000767-3", "Nombre": "Obre sin registro", "Estado": null, "Datos": null, "Tipo": "Clandestino", "Region": null, "Cuenca": null, "Obra": null, "Localidad": "Desvio Arijon", "C Cuenca": null, "Direccion": null, "Resp.": null, "Dpto": "San Jeronimo" }, "geometry": { "type": "Point", "coordinates": [ -60.878395385725213, -31.873116450444456 ] } },
{ "type": "Feature", "properties": { "Código": "01907-0018429-3", "Nombre": "Extremo superior", "Estado": null, "Datos": null, "Tipo": "Clandestino", "Region": null, "Cuenca": null, "Obra": null, "Localidad": "San Jeronimo del Sauce", "C Cuenca": null, "Direccion": null, "Resp.": null, "Dpto": "Las Colonias" }, "geometry": { "type": "Point", "coordinates": [ -61.176219444444527, -31.656977777778071 ] } },
{ "type": "Feature", "properties": { "Código": "01907-0018429-3", "Nombre": "Extremo inferior", "Estado": null, "Datos": null, "Tipo": "Clandestino", "Region": null, "Cuenca": null, "Obra": null, "Localidad": "San Jeronimo del Sauce", "C Cuenca": null, "Direccion": null, "Resp.": null, "Dpto": "Las Colonias" }, "geometry": { "type": "Point", "coordinates": [ -61.178427777777863, -31.666205555555834 ] } },
{ "type": "Feature", "properties": { "Código": "01907-0012654-3", "Nombre": "Obra sin registro", "Estado": null, "Datos": null, "Tipo": "Clandestino", "Region": null, "Cuenca": null, "Obra": null, "Localidad": "San Javier", "C Cuenca": null, "Direccion": null, "Resp.": null, "Dpto": "San Javier" }, "geometry": { "type": "Point", "coordinates": [ -59.982111111111202, -30.565277777778064 ] } },
{ "type": "Feature", "properties": { "Código": "01907-0012654-3", "Nombre": "Obra sin registro", "Estado": null, "Datos": null, "Tipo": "Clandestino", "Region": null, "Cuenca": null, "Obra": null, "Localidad": "San Javier", "C Cuenca": null, "Direccion": null, "Resp.": null, "Dpto": "San Javier" }, "geometry": { "type": "Point", "coordinates": [ -59.98475, -30.564472222222523 ] } },
{ "type": "Feature", "properties": { "Código": "01801-0054334-3", "Nombre": "Obra sin registro", "Estado": null, "Datos": null, "Tipo": "Clandestino", "Region": null, "Cuenca": null, "Obra": null, "Localidad": "Casas", "C Cuenca": null, "Direccion": null, "Resp.": null, "Dpto": "San Martin" }, "geometry": { "type": "Point", "coordinates": [ -61.652381666666734, -32.119002777778057 ] } },
{ "type": "Feature", "properties": { "Código": "01801-0054334-3", "Nombre": "Tambo", "Estado": null, "Datos": null, "Tipo": "Clandestino", "Region": null, "Cuenca": null, "Obra": null, "Localidad": "Casas", "C Cuenca": null, "Direccion": null, "Resp.": null, "Dpto": "San Martin" }, "geometry": { "type": "Point", "coordinates": [ -61.652346030870611, -32.128290861596561 ] } },
{ "type": "Feature", "properties": { "Código": "01907-0000671-1", "Nombre": "01907-0000671-1", "Estado": null, "Datos": null, "Tipo": "Clandestino", "Region": null, "Cuenca": null, "Obra": null, "Localidad": "Armstrong", "C Cuenca": null, "Direccion": null, "Resp.": null, "Dpto": "Belgrano" }, "geometry": { "type": "Point", "coordinates": [ -61.660278, -32.924167000000288 ] } },
{ "type": "Feature", "properties": { "Código": "01907-0011659-1", "Nombre": "Ubicación", "Estado": null, "Datos": null, "Tipo": "Clandestino", "Region": null, "Cuenca": null, "Obra": null, "Localidad": "Chistophersen", "C Cuenca": null, "Direccion": null, "Resp.": null, "Dpto": "General Lopez" }, "geometry": { "type": "Point", "coordinates": [ -62.004260637176685, -34.147116537879853 ] } },
{ "type": "Feature", "properties": { "Código": "01907-0011659-1", "Nombre": "01907-0011659-1", "Estado": null, "Datos": null, "Tipo": "Clandestino", "Region": null, "Cuenca": null, "Obra": null, "Localidad": "Chistophersen", "C Cuenca": null, "Direccion": null, "Resp.": null, "Dpto": "General Lopez" }, "geometry": { "type": "Point", "coordinates": [ -62.004260637176685, -34.147116537879853 ] } },
{ "type": "Feature", "properties": { "Código": "01907-0011659-1", "Nombre": "Alcantarilla de cruce", "Estado": null, "Datos": null, "Tipo": "Clandestino", "Region": null, "Cuenca": null, "Obra": null, "Localidad": "Chistophersen", "C Cuenca": null, "Direccion": null, "Resp.": null, "Dpto": "General Lopez" }, "geometry": { "type": "Point", "coordinates": [ -62.014720458020783, -34.152914664000697 ] } },
{ "type": "Feature", "properties": { "Código": "01907-0011659-1", "Nombre": "Alcantarilla de Cruce", "Estado": null, "Datos": null, "Tipo": "Clandestino", "Region": null, "Cuenca": null, "Obra": null, "Localidad": "Chistophersen", "C Cuenca": null, "Direccion": null, "Resp.": null, "Dpto": "General Lopez" }, "geometry": { "type": "Point", "coordinates": [ -62.014586055352709, -34.152345228266626 ] } },
{ "type": "Feature", "properties": { "Código": "01907-0011659-1", "Nombre": "Alcantarilla de Cruce", "Estado": null, "Datos": null, "Tipo": "Clandestino", "Region": null, "Cuenca": null, "Obra": null, "Localidad": "Chistophersen", "C Cuenca": null, "Direccion": null, "Resp.": null, "Dpto": "General Lopez" }, "geometry": { "type": "Point", "coordinates": [ -62.013425765809124, -34.148326744529733 ] } },
{ "type": "Feature", "properties": { "Código": "01907-0011659-1", "Nombre": "Alcantarilla de Cruce", "Estado": null, "Datos": null, "Tipo": "Clandestino", "Region": null, "Cuenca": null, "Obra": null, "Localidad": "Chistophersen", "C Cuenca": null, "Direccion": null, "Resp.": null, "Dpto": "General Lopez" }, "geometry": { "type": "Point", "coordinates": [ -62.013212287274172, -34.14707674124849 ] } },
{ "type": "Feature", "properties": { "Código": "01802-0021074-1", "Nombre": "Parcela 1", "Estado": null, "Datos": null, "Tipo": "Clandestino", "Region": null, "Cuenca": null, "Obra": null, "Localidad": "Berabevu", "C Cuenca": null, "Direccion": null, "Resp.": null, "Dpto": "Caseros" }, "geometry": { "type": "Point", "coordinates": [ -61.986188888888968, -33.318763888889194 ] } },
{ "type": "Feature", "properties": { "Código": "01802-0021074-1", "Nombre": "Parcela 2", "Estado": null, "Datos": null, "Tipo": "Clandestino", "Region": null, "Cuenca": null, "Obra": null, "Localidad": "Berabevu", "C Cuenca": null, "Direccion": null, "Resp.": null, "Dpto": "Caseros" }, "geometry": { "type": "Point", "coordinates": [ -61.98982777777784, -33.320691666666946 ] } },
{ "type": "Feature", "properties": { "Código": "01801-0050587-1", "Nombre": "01801-0050587-1", "Estado": null, "Datos": null, "Tipo": "Clandestino", "Region": null, "Cuenca": null, "Obra": null, "Localidad": "Rufino", "C Cuenca": null, "Direccion": null, "Resp.": null, "Dpto": "General Lopez" }, "geometry": { "type": "Point", "coordinates": [ -62.847369444444524, -34.34822777777805 ] } },
{ "type": "Feature", "properties": { "Código": "01907-0024006-1", "Nombre": "Extraccion de Suelo", "Estado": null, "Datos": null, "Tipo": "Clandestino", "Region": null, "Cuenca": null, "Obra": null, "Localidad": "Chovet", "C Cuenca": null, "Direccion": null, "Resp.": null, "Dpto": "General Lopez" }, "geometry": { "type": "Point", "coordinates": [ -61.63045, -33.576166666666936 ] } },
{ "type": "Feature", "properties": { "Código": "01907-0024006-1", "Nombre": "Extraccion de Suelo", "Estado": null, "Datos": null, "Tipo": "Clandestino", "Region": null, "Cuenca": null, "Obra": null, "Localidad": "Chovet", "C Cuenca": null, "Direccion": null, "Resp.": null, "Dpto": "General Lopez" }, "geometry": { "type": "Point", "coordinates": [ -61.636208333333428, -33.581347222222476 ] } },
{ "type": "Feature", "properties": { "Código": "01907-0024006-1", "Nombre": "Deposito del Suelo", "Estado": null, "Datos": null, "Tipo": "Clandestino", "Region": null, "Cuenca": null, "Obra": null, "Localidad": "Chovet", "C Cuenca": null, "Direccion": null, "Resp.": null, "Dpto": "General Lopez" }, "geometry": { "type": "Point", "coordinates": [ -61.622216666666745, -33.607700000000278 ] } },
{ "type": "Feature", "properties": { "Código": "01907-0020011-1", "Nombre": "Tapon P1", "Estado": null, "Datos": null, "Tipo": "Clandestino", "Region": null, "Cuenca": null, "Obra": null, "Localidad": "Los Tabanos", "C Cuenca": null, "Direccion": null, "Resp.": null, "Dpto": "Vera" }, "geometry": { "type": "Point", "coordinates": [ -59.985355555555614, -28.454327777778094 ] } },
{ "type": "Feature", "properties": { "Código": "01907-0020011-1", "Nombre": "Tapon P2", "Estado": null, "Datos": null, "Tipo": "Clandestino", "Region": null, "Cuenca": null, "Obra": null, "Localidad": "Los Tabanos", "C Cuenca": null, "Direccion": null, "Resp.": null, "Dpto": "Vera" }, "geometry": { "type": "Point", "coordinates": [ -59.984416666666746, -28.42714166666698 ] } },
{ "type": "Feature", "properties": { "Código": "01907-0020011-1", "Nombre": "Tapon P3", "Estado": null, "Datos": null, "Tipo": "Clandestino", "Region": null, "Cuenca": null, "Obra": null, "Localidad": "Los Tabanos", "C Cuenca": null, "Direccion": null, "Resp.": null, "Dpto": "Vera" }, "geometry": { "type": "Point", "coordinates": [ -59.984286111111189, -28.433569444444753 ] } },
{ "type": "Feature", "properties": { "Código": "01907-0020011-1", "Nombre": "Tapon P4", "Estado": null, "Datos": null, "Tipo": "Clandestino", "Region": null, "Cuenca": null, "Obra": null, "Localidad": "Los Tabanos", "C Cuenca": null, "Direccion": null, "Resp.": null, "Dpto": "Vera" }, "geometry": { "type": "Point", "coordinates": [ -59.984816666666731, -28.450455555555873 ] } },
{ "type": "Feature", "properties": { "Código": "01907-0020011-1", "Nombre": "Tapon P5", "Estado": null, "Datos": null, "Tipo": "Clandestino", "Region": null, "Cuenca": null, "Obra": null, "Localidad": "Los Tabanos", "C Cuenca": null, "Direccion": null, "Resp.": null, "Dpto": "Vera" }, "geometry": { "type": "Point", "coordinates": [ -59.984933333333416, -28.453600000000325 ] } },
{ "type": "Feature", "properties": { "Código": "01907-0019204-1", "Nombre": "Movimiento de suelo", "Estado": null, "Datos": null, "Tipo": "Clandestino", "Region": null, "Cuenca": null, "Obra": null, "Localidad": "Soldini", "C Cuenca": null, "Direccion": null, "Resp.": null, "Dpto": "Rosario" }, "geometry": { "type": "Point", "coordinates": [ -60.760569444444528, -33.023811111111364 ] } },
{ "type": "Feature", "properties": { "Código": "01907-0003531-1", "Nombre": "01907-0003531-1 - Presentada", "Estado": null, "Datos": null, "Tipo": "Clandestino", "Region": null, "Cuenca": null, "Obra": null, "Localidad": "Santa Fe", "C Cuenca": null, "Direccion": null, "Resp.": null, "Dpto": "La Capital" }, "geometry": { "type": "Point", "coordinates": [ -60.677590046109216, -31.642359886757067 ] } },
{ "type": "Feature", "properties": { "Código": "01801-0052622-1", "Nombre": "CANAL PÚBLICO", "Estado": null, "Datos": null, "Tipo": "Clandestino", "Region": null, "Cuenca": null, "Obra": null, "Localidad": "Aaron Castellanos", "C Cuenca": null, "Direccion": null, "Resp.": null, "Dpto": "General Lopez" }, "geometry": { "type": "Point", "coordinates": [ -62.409870837108642, -34.320150996871362 ] } },
{ "type": "Feature", "properties": { "Código": "01801-0052622-1", "Nombre": "Canal Interno tapado en su extremo inferior", "Estado": null, "Datos": null, "Tipo": "Clandestino", "Region": null, "Cuenca": null, "Obra": null, "Localidad": "Lazzarino", "C Cuenca": null, "Direccion": null, "Resp.": null, "Dpto": "General Lopez" }, "geometry": { "type": "Point", "coordinates": [ -62.37761446035671, -34.30687994680401 ] } },
{ "type": "Feature", "properties": { "Código": "01801-0052622-1", "Nombre": "Alteo extremo noreste", "Estado": null, "Datos": null, "Tipo": "Clandestino", "Region": null, "Cuenca": null, "Obra": null, "Localidad": "Lazzarino", "C Cuenca": null, "Direccion": null, "Resp.": null, "Dpto": "General Lopez" }, "geometry": { "type": "Point", "coordinates": [ -62.4095, -34.285683333333608 ] } },
{ "type": "Feature", "properties": { "Código": "01801-0052622-1", "Nombre": "Alteo Extremo subeste", "Estado": null, "Datos": null, "Tipo": "Clandestino", "Region": null, "Cuenca": null, "Obra": null, "Localidad": "Lazzarino", "C Cuenca": null, "Direccion": null, "Resp.": null, "Dpto": "General Lopez" }, "geometry": { "type": "Point", "coordinates": [ -62.4378, -34.2845833333336 ] } },
{ "type": "Feature", "properties": { "Código": "01801-0052622-1", "Nombre": "Cierre con el canal extremo inferior", "Estado": null, "Datos": null, "Tipo": "Clandestino", "Region": null, "Cuenca": null, "Obra": null, "Localidad": "Aaron Castellanos", "C Cuenca": null, "Direccion": null, "Resp.": null, "Dpto": "General Lopez" }, "geometry": { "type": "Point", "coordinates": [ -62.36395, -34.324950000000278 ] } },
{ "type": "Feature", "properties": { "Código": "01801-0052622-1", "Nombre": "Camino troncal Cedido", "Estado": null, "Datos": null, "Tipo": "Clandestino", "Region": null, "Cuenca": null, "Obra": null, "Localidad": "Lazzarino", "C Cuenca": null, "Direccion": null, "Resp.": null, "Dpto": "General Lopez" }, "geometry": { "type": "Point", "coordinates": [ -62.37368333333341, -34.310266666666919 ] } },
{ "type": "Feature", "properties": { "Código": "01801-0052622-1", "Nombre": "Alteo porción Media", "Estado": null, "Datos": null, "Tipo": "Clandestino", "Region": null, "Cuenca": null, "Obra": null, "Localidad": "Lazzarino", "C Cuenca": null, "Direccion": null, "Resp.": null, "Dpto": "General Lopez" }, "geometry": { "type": "Point", "coordinates": [ -62.428283333333404, -34.286400000000263 ] } },
{ "type": "Feature", "properties": { "Código": "01801-0053904-1", "Nombre": "PARCELA N°1", "Estado": null, "Datos": null, "Tipo": "Clandestino", "Region": null, "Cuenca": null, "Obra": null, "Localidad": "Alejandra", "C Cuenca": null, "Direccion": null, "Resp.": null, "Dpto": "San Javier" }, "geometry": { "type": "Point", "coordinates": [ -59.773561111111171, -29.623883333333644 ] } },
{ "type": "Feature", "properties": { "Código": "01801-0050594-1", "Nombre": "Tapon", "Estado": null, "Datos": null, "Tipo": "Clandestino", "Region": null, "Cuenca": null, "Obra": null, "Localidad": "Rufino", "C Cuenca": null, "Direccion": null, "Resp.": null, "Dpto": "General Lopez" }, "geometry": { "type": "Point", "coordinates": [ -62.567777039933695, -34.297925346630826 ] } },
{ "type": "Feature", "properties": { "Código": "01801-0050594-1", "Nombre": "Tubos tapados", "Estado": null, "Datos": null, "Tipo": "Clandestino", "Region": null, "Cuenca": null, "Obra": null, "Localidad": "Rufino", "C Cuenca": null, "Direccion": null, "Resp.": null, "Dpto": "General Lopez" }, "geometry": { "type": "Point", "coordinates": [ -62.557106511717301, -34.256578167797414 ] } },
{ "type": "Feature", "properties": { "Código": "01907-0002716-1", "Nombre": "CAMPO FACCIANO", "Estado": null, "Datos": null, "Tipo": "Clandestino", "Region": null, "Cuenca": null, "Obra": null, "Localidad": "Los Cardos", "C Cuenca": null, "Direccion": null, "Resp.": null, "Dpto": "San Martin" }, "geometry": { "type": "Point", "coordinates": [ -61.56756666666675, -32.359616666666952 ] } },
{ "type": "Feature", "properties": { "Código": "01907-0002716-1", "Nombre": "VESCOVO", "Estado": null, "Datos": null, "Tipo": "Clandestino", "Region": null, "Cuenca": null, "Obra": null, "Localidad": "Los Cardos", "C Cuenca": null, "Direccion": null, "Resp.": null, "Dpto": "San Martin" }, "geometry": { "type": "Point", "coordinates": [ -61.565413811469483, -32.365642761413646 ] } },
{ "type": "Feature", "properties": { "Código": "01907-0008839-1", "Nombre": "Obra Clandestina - Tapon", "Estado": null, "Datos": null, "Tipo": "Clandestino", "Region": null, "Cuenca": null, "Obra": null, "Localidad": "La Penca y Caraguata", "C Cuenca": null, "Direccion": null, "Resp.": null, "Dpto": "San Justo" }, "geometry": { "type": "Point", "coordinates": [ -60.617666666666729, -30.304861111111393 ] } },
{ "type": "Feature", "properties": { "Código": "01907-0018542-1 - Finalizado", "Nombre": "LOTEO \"LOMAS DEL PARANÁ\"", "Estado": null, "Datos": null, "Tipo": "Clandestino", "Region": null, "Cuenca": null, "Obra": null, "Localidad": "Villa Constitucion", "C Cuenca": null, "Direccion": null, "Resp.": null, "Dpto": "Constitucion" }, "geometry": { "type": "Point", "coordinates": [ -60.351231772111113, -33.213864939168012 ] } },
{ "type": "Feature", "properties": { "Código": "01907-0019242-1 - Terminado", "Nombre": "Loteo Estacion Roldan", "Estado": null, "Datos": null, "Tipo": "Clandestino", "Region": null, "Cuenca": null, "Obra": null, "Localidad": "Roldan", "C Cuenca": null, "Direccion": null, "Resp.": null, "Dpto": "San Lorenzo" }, "geometry": { "type": "Point", "coordinates": [ -60.875777777777849, -32.898480555555842 ] } },
{ "type": "Feature", "properties": { "Código": "01803-0020276-1 - Terminado", "Nombre": "Tapon", "Estado": null, "Datos": null, "Tipo": "Clandestino", "Region": null, "Cuenca": null, "Obra": null, "Localidad": "Villa Saralegui", "C Cuenca": null, "Direccion": null, "Resp.": null, "Dpto": "San Cristobal" }, "geometry": { "type": "Point", "coordinates": [ -60.673857923311566, -30.635614366846273 ] } },
{ "type": "Feature", "properties": { "Código": "01803-0020276-1 - Terminado", "Nombre": "Tapon", "Estado": null, "Datos": null, "Tipo": "Clandestino", "Region": null, "Cuenca": null, "Obra": null, "Localidad": "Villa Saralegui", "C Cuenca": null, "Direccion": null, "Resp.": null, "Dpto": "San Cristobal" }, "geometry": { "type": "Point", "coordinates": [ -60.66501886589834, -30.650290939916836 ] } },
{ "type": "Feature", "properties": { "Código": "01908-0000411-2 - Terminado", "Nombre": "Intervenida", "Estado": null, "Datos": null, "Tipo": "Clandestino", "Region": null, "Cuenca": null, "Obra": null, "Localidad": "Esmeralda", "C Cuenca": null, "Direccion": null, "Resp.": null, "Dpto": "Castellanos" }, "geometry": { "type": "Point", "coordinates": [ -62.071584295426355, -31.610631519077998 ] } },
{ "type": "Feature", "properties": { "Código": "01803-0019422-2", "Nombre": "1", "Estado": null, "Datos": null, "Tipo": "Clandestino", "Region": null, "Cuenca": null, "Obra": null, "Localidad": "Los Cardos", "C Cuenca": null, "Direccion": null, "Resp.": null, "Dpto": "San Martin" }, "geometry": { "type": "Point", "coordinates": [ -61.518397222222305, -32.319750000000305 ] } },
{ "type": "Feature", "properties": { "Código": "01907-0017491-9", "Nombre": "Loteo Lagos de Piñeiro", "Estado": null, "Datos": null, "Tipo": "Clandestino", "Region": null, "Cuenca": null, "Obra": null, "Localidad": "Piñero", "C Cuenca": null, "Direccion": null, "Resp.": null, "Dpto": "Rosario" }, "geometry": { "type": "Point", "coordinates": [ -60.733175, -33.093158333333605 ] } },
{ "type": "Feature", "properties": { "Código": "01907-0018537-3 - Finalizado", "Nombre": "Loteo Cannes Funes", "Estado": null, "Datos": null, "Tipo": "Clandestino", "Region": null, "Cuenca": null, "Obra": null, "Localidad": "Funes", "C Cuenca": null, "Direccion": null, "Resp.": null, "Dpto": "Rosario" }, "geometry": { "type": "Point", "coordinates": [ -60.799626417419603, -32.903890743365665 ] } },
{ "type": "Feature", "properties": { "Código": "01907-00006027-0 - Firnalizado", "Nombre": "Campo", "Estado": null, "Datos": null, "Tipo": "Clandestino", "Region": null, "Cuenca": null, "Obra": null, "Localidad": "Diego de Alvear", "C Cuenca": null, "Direccion": null, "Resp.": null, "Dpto": "General Lopez" }, "geometry": { "type": "Point", "coordinates": [ -62.100056, -34.35855600000027 ] } },
{ "type": "Feature", "properties": { "Código": "01907-0018508-5", "Nombre": "LOTEO BENZAQUEN", "Estado": null, "Datos": null, "Tipo": "Clandestino", "Region": null, "Cuenca": null, "Obra": null, "Localidad": "Teodelina", "C Cuenca": null, "Direccion": null, "Resp.": null, "Dpto": "General Lopez" }, "geometry": { "type": "Point", "coordinates": [ -61.536126947926732, -34.192588089174272 ] } },
{ "type": "Feature", "properties": { "Código": "01907-0018530-6", "Nombre": "LOTEO \"LAS FINCAS 2\"", "Estado": null, "Datos": null, "Tipo": "Clandestino", "Region": null, "Cuenca": null, "Obra": null, "Localidad": "Funes", "C Cuenca": null, "Direccion": null, "Resp.": null, "Dpto": "Rosario" }, "geometry": { "type": "Point", "coordinates": [ -60.818160959925265, -32.909559282543441 ] } },
{ "type": "Feature", "properties": { "Código": "01802-0018535-3 - Finalizado", "Nombre": "CANALIZACIÓN", "Estado": null, "Datos": null, "Tipo": "Clandestino", "Region": null, "Cuenca": null, "Obra": null, "Localidad": "Chabas", "C Cuenca": null, "Direccion": null, "Resp.": null, "Dpto": "Caseros" }, "geometry": { "type": "Point", "coordinates": [ -61.509416666666738, -33.260897222222496 ] } },
{ "type": "Feature", "properties": { "Código": "01907-0019241-0 - Finalizado", "Nombre": "Loteo SOSA", "Estado": null, "Datos": null, "Tipo": "Clandestino", "Region": null, "Cuenca": null, "Obra": null, "Localidad": "San Martin de las Escobas", "C Cuenca": null, "Direccion": null, "Resp.": null, "Dpto": "San Martin" }, "geometry": { "type": "Point", "coordinates": [ -61.569531637462646, -31.8635455886775 ] } },
{ "type": "Feature", "properties": { "Código": "01907-0017125-5 - Finalizado", "Nombre": "Tapon", "Estado": null, "Datos": null, "Tipo": "Clandestino", "Region": null, "Cuenca": null, "Obra": null, "Localidad": "Intiyaco", "C Cuenca": null, "Direccion": null, "Resp.": null, "Dpto": "Vera" }, "geometry": { "type": "Point", "coordinates": [ -60.119283333333406, -28.764850000000315 ] } },
{ "type": "Feature", "properties": { "Código": "01907-0018505-2 - Finalizado", "Nombre": "Loteo Rogelio Siliano", "Estado": null, "Datos": null, "Tipo": "Clandestino", "Region": null, "Cuenca": null, "Obra": null, "Localidad": "Acebal", "C Cuenca": null, "Direccion": null, "Resp.": null, "Dpto": "Rosario" }, "geometry": { "type": "Point", "coordinates": [ -60.840312835546335, -33.248103897312902 ] } },
{ "type": "Feature", "properties": { "Código": "01907-0018506-3 - Finalizado", "Nombre": "LOTEO FLORENCIA", "Estado": null, "Datos": null, "Tipo": "Clandestino", "Region": null, "Cuenca": null, "Obra": null, "Localidad": "Florencia", "C Cuenca": null, "Direccion": null, "Resp.": null, "Dpto": "General Obligado" }, "geometry": { "type": "Point", "coordinates": [ -59.219476773750252, -28.032597616373288 ] } },
{ "type": "Feature", "properties": { "Código": "01907-0003007-3 - Tramite", "Nombre": "Profundización cuneta", "Estado": null, "Datos": null, "Tipo": "Clandestino", "Region": null, "Cuenca": null, "Obra": null, "Localidad": "Los Cardos", "C Cuenca": null, "Direccion": null, "Resp.": null, "Dpto": "San Martin" }, "geometry": { "type": "Point", "coordinates": [ -61.688419444444513, -32.323983333333622 ] } },
{ "type": "Feature", "properties": { "Código": "01907-0003007-3 - Tramite", "Nombre": "Punto A", "Estado": null, "Datos": null, "Tipo": "Clandestino", "Region": null, "Cuenca": null, "Obra": null, "Localidad": "Los Cardos", "C Cuenca": null, "Direccion": null, "Resp.": null, "Dpto": "San Martin" }, "geometry": { "type": "Point", "coordinates": [ -61.561758333333394, -32.311161111111382 ] } },
{ "type": "Feature", "properties": { "Código": "01907-0003007-3 - Tramite", "Nombre": "Punto B", "Estado": null, "Datos": null, "Tipo": "Clandestino", "Region": null, "Cuenca": null, "Obra": null, "Localidad": "Los Cardos", "C Cuenca": null, "Direccion": null, "Resp.": null, "Dpto": "San Martin" }, "geometry": { "type": "Point", "coordinates": [ -61.564544444444515, -32.322572222222526 ] } },
{ "type": "Feature", "properties": { "Código": "01801-0051739-3", "Nombre": "Canal no registrado", "Estado": null, "Datos": null, "Tipo": "Clandestino", "Region": null, "Cuenca": null, "Obra": null, "Localidad": "Marcelino Escalada", "C Cuenca": null, "Direccion": null, "Resp.": null, "Dpto": "San Justo" }, "geometry": { "type": "Point", "coordinates": [ -60.466214179591859, -30.55933521806265 ] } },
{ "type": "Feature", "properties": { "Código": "01801-0050279-3 - Presentada", "Nombre": "1", "Estado": null, "Datos": null, "Tipo": "Clandestino", "Region": null, "Cuenca": null, "Obra": null, "Localidad": "Chovet", "C Cuenca": null, "Direccion": null, "Resp.": null, "Dpto": "General Lopez" }, "geometry": { "type": "Point", "coordinates": [ -61.589793986111189, -33.615581127778064 ] } },
{ "type": "Feature", "properties": { "Código": "01801-0050279-3 - Presentada", "Nombre": "2", "Estado": null, "Datos": null, "Tipo": "Clandestino", "Region": null, "Cuenca": null, "Obra": null, "Localidad": "Chovet", "C Cuenca": null, "Direccion": null, "Resp.": null, "Dpto": "General Lopez" }, "geometry": { "type": "Point", "coordinates": [ -61.589793986111175, -33.620390305555816 ] } },
{ "type": "Feature", "properties": { "Código": "01801-0050279-3 - Presentada", "Nombre": "3", "Estado": null, "Datos": null, "Tipo": "Clandestino", "Region": null, "Cuenca": null, "Obra": null, "Localidad": "Chovet", "C Cuenca": null, "Direccion": null, "Resp.": null, "Dpto": "General Lopez" }, "geometry": { "type": "Point", "coordinates": [ -61.605611875000065, -33.603860755555829 ] } },
{ "type": "Feature", "properties": { "Código": "01907-0018504-1 - Terminada", "Nombre": "Predio Fisa Metal", "Estado": null, "Datos": null, "Tipo": "Clandestino", "Region": null, "Cuenca": null, "Obra": null, "Localidad": "Recreo", "C Cuenca": null, "Direccion": null, "Resp.": null, "Dpto": "La Capital" }, "geometry": { "type": "Point", "coordinates": [ -60.722161760246216, -31.540505638577045 ] } },
{ "type": "Feature", "properties": { "Código": "01907-0020673-5 - Presentada", "Nombre": "Alcantarilla", "Estado": null, "Datos": null, "Tipo": "Clandestino", "Region": null, "Cuenca": null, "Obra": null, "Localidad": "Colonia Teresa", "C Cuenca": null, "Direccion": null, "Resp.": null, "Dpto": "San Javier" }, "geometry": { "type": "Point", "coordinates": [ -59.9763, -30.274341666666945 ] } },
{ "type": "Feature", "properties": { "Código": null, "Nombre": "01803-0020119-7 - Terminado", "Estado": null, "Datos": null, "Tipo": "Clandestino", "Region": null, "Cuenca": null, "Obra": null, "Localidad": "Crispi", "C Cuenca": null, "Direccion": null, "Resp.": null, "Dpto": "San Martin" }, "geometry": { "type": "Point", "coordinates": [ -62.013138888888967, -31.695625000000284 ] } },
{ "type": "Feature", "properties": { "Código": null, "Nombre": "01907-0017402-3 - Terminado", "Estado": null, "Datos": null, "Tipo": "Clandestino", "Region": null, "Cuenca": null, "Obra": null, "Localidad": "Josefina", "C Cuenca": null, "Direccion": null, "Resp.": null, "Dpto": "Castellanos" }, "geometry": { "type": "Point", "coordinates": [ -62.042333333333424, -31.358972222222487 ] } },
{ "type": "Feature", "properties": { "Código": "01907-0020139-4 En tramite", "Nombre": "Cabañas Sustentables", "Estado": null, "Datos": null, "Tipo": "Clandestino", "Region": null, "Cuenca": null, "Obra": null, "Localidad": "Santo Tome", "C Cuenca": null, "Direccion": null, "Resp.": null, "Dpto": "La Capital" }, "geometry": { "type": "Point", "coordinates": [ -60.740297101029611, -31.621908191409652 ] } },
{ "type": "Feature", "properties": { "Código": "01907-0024534-3 - Intimada", "Nombre": "Obra", "Estado": null, "Datos": null, "Tipo": "Clandestino", "Region": null, "Cuenca": null, "Obra": null, "Localidad": "Florencia", "C Cuenca": null, "Direccion": null, "Resp.": null, "Dpto": "General Obligado" }, "geometry": { "type": "Point", "coordinates": [ -59.237981, -28.064533000000331 ] } },
{ "type": "Feature", "properties": { "Código": "Funes", "Nombre": null, "Estado": null, "Datos": null, "Tipo": "Clandestino", "Region": null, "Cuenca": null, "Obra": null, "Localidad": "Funes", "C Cuenca": null, "Direccion": null, "Resp.": null, "Dpto": null }, "geometry": null }
]
}
