{
"type": "FeatureCollection",
"name": "Reservorios y protecciones",
"crs": { "type": "name", "properties": { "name": "urn:ogc:def:crs:OGC:1.3:CRS84" } },
"features": [
{ "type": "Feature", "properties": { "Nombre": "Proteccion Margen derecha", "Estado": "En Ejecucion", "Obra": "Estabilizacion de la cascada arroyo saladillo etapa I", "Datos": "Ejecutado 1280 m2", "Tipo": "Protección", "Código": "6090", "Cuenca": "17- Arroyo Saladillo", "Region": "Región 5", "C Cuenca": null, "Direccion": "Direccion General de Obras por Terceros - MOP", "Resp.": null, "Localidad": "Rosario", "Dpto": "Rosario" }, "geometry": { "type": "MultiPolygon", "coordinates": [ [ [ [ -60.635636, -33.013876000000273 ], [ -60.635562, -33.013814000000295 ], [ -60.635156, -33.013463000000279 ], [ -60.635048, -33.013573000000271 ], [ -60.635533, -33.014034000000287 ], [ -60.635636, -33.013876000000273 ] ] ] ] } },
{ "type": "Feature", "properties": { "Nombre": "Proteccion Margen Izquierda", "Estado": "En Ejecucion", "Obra": "Estabilizacion de la cascada arroyo saladillo etapa I", "Datos": null, "Tipo": "Protección", "Código": "6090", "Cuenca": "17- Arroyo Saladillo", "Region": "Región 5", "C Cuenca": null, "Direccion": "Direccion General de Obras por Terceros - MOP", "Resp.": null, "Localidad": "Rosario", "Dpto": "Rosario" }, "geometry": { "type": "MultiPolygon", "coordinates": [ [ [ [ -60.634823, -33.014226000000271 ], [ -60.635495, -33.014790000000268 ], [ -60.635608, -33.014694000000276 ], [ -60.634939, -33.014089000000276 ], [ -60.634823, -33.014226000000271 ] ] ] ] } },
{ "type": "Feature", "properties": { "Nombre": "Cubos Modificados", "Estado": "Finalizado", "Obra": "Estabilizacion de la cascada arroyo saladillo etapa I", "Datos": null, "Tipo": "Cubos de Hormigon", "Código": "6090", "Cuenca": "17- Arroyo Saladillo", "Region": "Región 5", "C Cuenca": null, "Direccion": "Direccion General de Obras por Terceros - MOP", "Resp.": null, "Localidad": "Rosario", "Dpto": "Rosario" }, "geometry": { "type": "MultiPolygon", "coordinates": [ [ [ [ -60.634092300000063, -33.012226300000293 ], [ -60.634147300000073, -33.012377000000264 ], [ -60.634143300000062, -33.012456900000288 ], [ -60.634116400000075, -33.012504100000278 ], [ -60.63402660000007, -33.012533300000271 ], [ -60.633924700000073, -33.01253220000028 ], [ -60.63382, -33.012453500000269 ], [ -60.633781200000065, -33.012392800000285 ], [ -60.63375970000007, -33.012347800000271 ], [ -60.633740900000078, -33.012334300000283 ], [ -60.633606800000059, -33.012391600000271 ], [ -60.633829400000074, -33.01276390000028 ], [ -60.634223700000071, -33.012686300000283 ], [ -60.634313600000063, -33.012406300000279 ], [ -60.634241200000076, -33.012192600000283 ], [ -60.634092300000063, -33.012226300000293 ] ] ] ] } },
{ "type": "Feature", "properties": { "Nombre": "Reparacion de Losa de Fondo", "Estado": "Finalizado", "Obra": "Estabilizacion de la cascada arroyo saladillo etapa I", "Datos": null, "Tipo": "Losa de Fondo", "Código": "6090", "Cuenca": "17- Arroyo Saladillo", "Region": null, "C Cuenca": null, "Direccion": "Direccion General de Obras por Terceros - MOP", "Resp.": null, "Localidad": "Rosario", "Dpto": "Rosario" }, "geometry": { "type": "MultiPolygon", "coordinates": [ [ [ [ -60.635538300000064, -33.014167100000279 ], [ -60.635152100000056, -33.013832000000271 ], [ -60.635077, -33.0141671000003 ], [ -60.635412200000076, -33.014450500000287 ], [ -60.635538300000064, -33.014167100000279 ] ] ] ] } },
{ "type": "Feature", "properties": { "Nombre": "Dragado", "Estado": "Finalizado", "Obra": "Proteccion contra la ersion fluvial de la def terraplen garello", "Datos": "- Dragado y refulado libre a 1,5 km de distancia mínima, ejecutados y certificados (a Oct´24): 35976", "Tipo": "Dragado", "Código": "6072", "Cuenca": "5- Río Parana", "Region": "Región 1, Región 3", "C Cuenca": null, "Direccion": "Direccion General de Obras por Terceros - MOP", "Resp.": null, "Localidad": "Santa Fe, Colastiné, Rincón, Arroyo Leyes", "Dpto": "La Capital" }, "geometry": { "type": "MultiPolygon", "coordinates": [ [ [ [ -60.588642616420458, -31.628637465217974 ], [ -60.589279616369225, -31.627331465291331 ], [ -60.588366616482062, -31.626541465321679 ], [ -60.587827916552051, -31.625843165351355 ], [ -60.587444616608224, -31.624915465394448 ], [ -60.586979616670973, -31.624155465428061 ], [ -60.586496616734166, -31.623501465456119 ], [ -60.585859616808733, -31.623229465463051 ], [ -60.58484561692174, -31.623181465454554 ], [ -60.583674617055195, -31.622926465454803 ], [ -60.582944617135155, -31.62298946544372 ], [ -60.58222461721396, -31.623052465432721 ], [ -60.580050617451462, -31.623274465397881 ], [ -60.582107617219521, -31.623553465405944 ], [ -60.582668617155022, -31.623712465403976 ], [ -60.583110617104211, -31.623837465402367 ], [ -60.584008616999597, -31.624185465394348 ], [ -60.584516616939609, -31.62443546538714 ], [ -60.584939616889493, -31.624659465380319 ], [ -60.585489616823409, -31.625008465368531 ], [ -60.58623061673309, -31.625564465348255 ], [ -60.58697361664057, -31.626255465321123 ], [ -60.587557616565668, -31.626946465292317 ], [ -60.58815361648648, -31.627836465253431 ], [ -60.588642616420458, -31.628637465217974 ] ] ] ] } },
{ "type": "Feature", "properties": { "Nombre": "Mantas Bloque H° Adherido a Geotextil", "Estado": "Finalizado", "Obra": "Proteccion contra la ersion fluvial de la def terraplen garello", "Datos": null, "Tipo": "Mantas con Bloques de Hormigon", "Código": "6072", "Cuenca": "5- Río Parana", "Region": "Región 1, Región 3", "C Cuenca": null, "Direccion": "Direccion General de Obras por Terceros - MOP", "Resp.": null, "Localidad": "Santa Fe, Colastiné, Rincón, Arroyo Leyes", "Dpto": "La Capital" }, "geometry": { "type": "MultiPolygon", "coordinates": [ [ [ [ -60.588090316559246, -31.623392465478918 ], [ -60.587347616656501, -31.622378465522495 ], [ -60.587294616663328, -31.622313465525249 ], [ -60.587242616669982, -31.622252465527804 ], [ -60.587107616687128, -31.622106365533764 ], [ -60.587085916689809, -31.62208606553455 ], [ -60.58706751669213, -31.622067465535338 ], [ -60.587011616699144, -31.62201246553748 ], [ -60.586838216720658, -31.621856565543521 ], [ -60.586735516731004, -31.621925465538936 ], [ -60.587985616569995, -31.623449765474913 ], [ -60.588090316559246, -31.623392465478918 ] ] ] ] } },
{ "type": "Feature", "properties": { "Nombre": "Viga anclaje de mantas", "Estado": "Finalizado", "Obra": "Proteccion contra la ersion fluvial de la def terraplen garello", "Datos": null, "Tipo": "Vigas de Anclaje", "Código": "6072", "Cuenca": "5- Río Parana", "Region": "Región 1, Región 3", "C Cuenca": null, "Direccion": "Direccion General de Obras por Terceros - MOP", "Resp.": null, "Localidad": "Santa Fe, Colastiné, Rincón, Arroyo Leyes", "Dpto": "La Capital" }, "geometry": { "type": "MultiPolygon", "coordinates": [ [ [ [ -60.586851616719301, -31.62184746554415 ], [ -60.586849616719483, -31.621849465544017 ], [ -60.586904616712623, -31.62190146554201 ], [ -60.587115616686326, -31.622099465534198 ], [ -60.587242616669982, -31.622252465527804 ], [ -60.587294616663328, -31.622313465525249 ], [ -60.587347616656501, -31.622378465522495 ], [ -60.587391616650784, -31.622435465520063 ], [ -60.587450616643196, -31.622507465517039 ], [ -60.587583616625921, -31.622680465509681 ], [ -60.587713616608667, -31.622871465501373 ], [ -60.587815616595108, -31.623025465494653 ], [ -60.587881616586237, -31.623129465490052 ], [ -60.587948616577329, -31.623230465485651 ], [ -60.588063616561961, -31.62340846547783 ], [ -60.588066616561662, -31.623406465477981 ], [ -60.587951616577023, -31.623228465485749 ], [ -60.587884616585917, -31.623128465490133 ], [ -60.587818616594802, -31.623024465494751 ], [ -60.587716616608368, -31.622869465501481 ], [ -60.587586616625607, -31.622679465509773 ], [ -60.587452616642985, -31.622506465517105 ], [ -60.587394616650471, -31.622433465520231 ], [ -60.587350616656209, -31.622376465522635 ], [ -60.587297616663022, -31.622312465525319 ], [ -60.587245616669684, -31.622250465527912 ], [ -60.587117616686136, -31.622097465534342 ], [ -60.586906616712426, -31.621899465542114 ], [ -60.586851616719301, -31.62184746554415 ] ] ] ] } },
{ "type": "Feature", "properties": { "Nombre": "Viga anclaje lateral en ejecución", "Estado": "Finalizado", "Obra": "Proteccion contra la ersion fluvial de la def terraplen garello", "Datos": null, "Tipo": "Vigas de Anclaje", "Código": "6072", "Cuenca": "5- Río Parana", "Region": "Región 1, Región 3", "C Cuenca": null, "Direccion": "Direccion General de Obras por Terceros - MOP", "Resp.": null, "Localidad": "Santa Fe, Colastiné, Rincón, Arroyo Leyes", "Dpto": "La Capital" }, "geometry": { "type": "MultiPolygon", "coordinates": [ [ [ [ -60.586849616719483, -31.621849465544017 ], [ -60.586751616729337, -31.621917465539514 ], [ -60.586753616729098, -31.621919465539435 ], [ -60.586851616719244, -31.621851465543962 ], [ -60.586849616719483, -31.621849465544017 ] ] ] ] } },
{ "type": "Feature", "properties": { "Nombre": "Mantas de H°", "Estado": "Finalizado", "Obra": "Proteccion contra la ersion fluvial de la def terraplen garello", "Datos": null, "Tipo": "Mantas con Bloques de Hormgion", "Código": "6072", "Cuenca": "5- Río Parana", "Region": "Región 1, Región 3", "C Cuenca": null, "Direccion": "Direccion General de Obras por Terceros - MOP", "Resp.": null, "Localidad": "Santa Fe, Colastiné, Rincón, Arroyo Leyes", "Dpto": "La Capital" }, "geometry": { "type": "MultiPolygon", "coordinates": [ [ [ [ -60.586442616760323, -31.622136465525006 ], [ -60.586726416724623, -31.622424965513385 ], [ -60.587580216612814, -31.623589765463368 ], [ -60.587969216572219, -31.623421865476118 ], [ -60.586735516731004, -31.621925465538936 ], [ -60.586442616760323, -31.622136465525006 ] ] ] ] } },
{ "type": "Feature", "properties": { "Nombre": "Mantas bloques H°", "Estado": "En Ejecucion", "Obra": "Proteccion contra la ersion fluvial de la def terraplen garello", "Datos": null, "Tipo": null, "Código": "6072", "Cuenca": "5- Río Parana", "Region": "Región 1, Región 3", "C Cuenca": null, "Direccion": "Direccion General de Obras por Terceros - MOP", "Resp.": null, "Localidad": "Santa Fe, Colastiné, Rincón, Arroyo Leyes", "Dpto": "La Capital" }, "geometry": { "type": "MultiPolygon", "coordinates": [ [ [ [ -60.587985616569995, -31.623449765474913 ], [ -60.587969216572219, -31.623421865476118 ], [ -60.587580216612814, -31.623589765463368 ], [ -60.587599516610304, -31.623616565462218 ], [ -60.587985616569995, -31.623449765474913 ] ] ] ] } },
{ "type": "Feature", "properties": { "Nombre": "Mantas Bloques H°", "Estado": "Sin Ejecutar", "Obra": "Proteccion contra la ersion fluvial de la def terraplen garello", "Datos": null, "Tipo": "Mantas con Bloques de Hormigon", "Código": "6072", "Cuenca": "5- Río Parana", "Region": "Región 1, Región 3", "C Cuenca": null, "Direccion": "Direccion General de Obras por Terceros - MOP", "Resp.": null, "Localidad": "Santa Fe, Colastiné, Rincón, Arroyo Leyes", "Dpto": "La Capital" }, "geometry": { "type": "MultiPolygon", "coordinates": [ [ [ [ -60.587985616569995, -31.623449765474913 ], [ -60.587599516610304, -31.623616565462218 ], [ -60.58793431656742, -31.624008465445897 ], [ -60.588264316533369, -31.623838365458177 ], [ -60.587985616569995, -31.623449765474913 ] ] ] ] } },
{ "type": "Feature", "properties": { "Nombre": "Relleno Suelo", "Estado": "Finalizado", "Obra": "Proteccion contra la ersion fluvial de la def terraplen garello", "Datos": "Suelo Cohesivo: 1023,49 m3\nSuelo vegetal: 2944,94 m2", "Tipo": "Relleno con suelo", "Código": "6072", "Cuenca": "5- Río Parana", "Region": "Región 1, Región 3", "C Cuenca": null, "Direccion": "Direccion General de Obras por Terceros - MOP", "Resp.": null, "Localidad": "Santa Fe, Colastiné, Rincón, Arroyo Leyes", "Dpto": "La Capital" }, "geometry": { "type": "MultiPolygon", "coordinates": [ [ [ [ -60.587108816687852, -31.622047265536768 ], [ -60.588052916565836, -31.623225765487035 ], [ -60.588321116537315, -31.623145865493989 ], [ -60.587411916656443, -31.621901065547512 ], [ -60.587108816687852, -31.622047265536768 ] ] ] ] } },
{ "type": "Feature", "properties": { "Nombre": "Reservorio Parque de los Dinosaurios", "Estado": "Finalizado", "Obra": "Tareas de mantenimiento y reparacion Gran Santa Fe", "Datos": null, "Tipo": "Reservorio", "Código": "6108", "Cuenca": "5- Río Parana", "Region": "Región 1, Región 3", "C Cuenca": null, "Direccion": "Direccion General de Obras por Terceros - MOP", "Resp.": null, "Localidad": "Santa Fe, Colastiné, Rincón, Arroyo Leyes", "Dpto": "La Capital" }, "geometry": { "type": "MultiPolygon", "coordinates": [ [ [ [ -60.606178614360417, -31.636579465004086 ], [ -60.606245614355515, -31.636409465013433 ], [ -60.606176614363719, -31.636371465014644 ], [ -60.606118614368107, -31.636509465006963 ], [ -60.605585614423831, -31.636731464989889 ], [ -60.605562614425523, -31.636789464986691 ], [ -60.60575561440443, -31.636770464989734 ], [ -60.605763614403536, -31.636770464989834 ], [ -60.606178614360417, -31.636579465004086 ] ] ] ] } },
{ "type": "Feature", "properties": { "Nombre": "Reservorio Parque de los Dinosaurios", "Estado": "Finalizado", "Obra": "Tareas de mantenimiento y reparacion Gran Santa Fe", "Datos": null, "Tipo": "Reservorio", "Código": "6108", "Cuenca": "5- Río Parana", "Region": "Región 1, Región 3", "C Cuenca": null, "Direccion": "Direccion General de Obras por Terceros - MOP", "Resp.": null, "Localidad": "Santa Fe, Colastiné, Rincón, Arroyo Leyes", "Dpto": "La Capital" }, "geometry": { "type": "MultiPolygon", "coordinates": [ [ [ [ -60.605930614355977, -31.638732464891859 ], [ -60.605625614415899, -31.636968464978271 ], [ -60.605517614427633, -31.636983464976325 ], [ -60.605804614370108, -31.638720464891104 ], [ -60.605649614383964, -31.638943464878082 ], [ -60.605114614440154, -31.639150464861711 ], [ -60.605179614430739, -31.639300464854816 ], [ -60.605577614389055, -31.639137464867432 ], [ -60.605695614377147, -31.639059464872648 ], [ -60.605891614359003, -31.63881946488701 ], [ -60.605930614355977, -31.638732464891859 ] ] ] ] } },
{ "type": "Feature", "properties": { "Nombre": "Reservorio Los Espinillos", "Estado": "Finalizado", "Obra": "Tareas de mantenimiento y reparacion Gran Santa Fe", "Datos": null, "Tipo": "Reservorio", "Código": "6108", "Cuenca": "5- Río Parana", "Region": "Región 1, Región 3", "C Cuenca": null, "Direccion": "Direccion General de Obras por Terceros - MOP", "Resp.": null, "Localidad": "Santa Fe, Colastiné, Rincón, Arroyo Leyes", "Dpto": "La Capital" }, "geometry": { "type": "MultiPolygon", "coordinates": [ [ [ [ -60.568403618922794, -31.611001465896695 ], [ -60.56876661889509, -31.61015346594381 ], [ -60.568721618900703, -31.610111465945476 ], [ -60.56829461893399, -31.611061465892472 ], [ -60.56808261895884, -31.61096846589491 ], [ -60.567995618969157, -31.610921465896386 ], [ -60.567587619017232, -31.610724465902017 ], [ -60.567583619017768, -31.610719465902214 ], [ -60.567360619044884, -31.610556465908104 ], [ -60.567083619076293, -31.610505465907703 ], [ -60.567044619079958, -31.610550465904989 ], [ -60.567204619061556, -31.610595465904435 ], [ -60.567315619048763, -31.610630465903867 ], [ -60.567443619033064, -31.61073346589998 ], [ -60.567532619022472, -31.610782465898424 ], [ -60.567971618970653, -31.611000465892097 ], [ -60.567980618969656, -31.6110004658922 ], [ -60.568085618956651, -31.611093465888604 ], [ -60.568177618946194, -31.61111146588869 ], [ -60.568253618937376, -31.611139465888076 ], [ -60.568274618933913, -31.611216465884379 ], [ -60.56822861893702, -31.611350465877063 ], [ -60.568161618943108, -31.611441465871707 ], [ -60.568060618951819, -31.611608465862105 ], [ -60.567975618959416, -31.611729465855035 ], [ -60.567938618962366, -31.611807465850653 ], [ -60.567889618965907, -31.611936465843542 ], [ -60.567864618967924, -31.611988465840632 ], [ -60.567845618967937, -31.612128465833337 ], [ -60.567816618967584, -31.612370465820668 ], [ -60.567785618967932, -31.612580465809614 ], [ -60.567734618970093, -31.612816465797057 ], [ -60.567689618971976, -31.613026465785872 ], [ -60.567759618964175, -31.613029465786507 ], [ -60.567832618961269, -31.61267846580515 ], [ -60.567881618960776, -31.612344465822694 ], [ -60.567899618961526, -31.612159465832306 ], [ -60.567909618962467, -31.612019465839566 ], [ -60.568112618945065, -31.611675465859239 ], [ -60.568248618934355, -31.611380465875751 ], [ -60.568403618922794, -31.611001465896695 ] ] ] ] } },
{ "type": "Feature", "properties": { "Nombre": "Reservorio Los Espinillos", "Estado": "Finalizado", "Obra": "Tareas de mantenimiento y reparacion Gran Santa Fe", "Datos": null, "Tipo": "Reservorio", "Código": "6108", "Cuenca": "5- Río Parana", "Region": "Región 1, Región 3", "C Cuenca": null, "Direccion": "Direccion General de Obras por Terceros - MOP", "Resp.": null, "Localidad": "Santa Fe, Colastiné, Rincón, Arroyo Leyes", "Dpto": "La Capital" }, "geometry": { "type": "MultiPolygon", "coordinates": [ [ [ [ -60.568768618891717, -31.610368465932911 ], [ -60.568439618916749, -31.611139465890123 ], [ -60.568380618920969, -31.611297465881385 ], [ -60.568261618930109, -31.611570465866205 ], [ -60.567986618953022, -31.61208246583713 ], [ -60.567994618948973, -31.612296465826347 ], [ -60.567913618954591, -31.612523465813911 ], [ -60.567864618954488, -31.612897465794315 ], [ -60.567886618949586, -31.613065465786043 ], [ -60.567959618941217, -31.613084465785825 ], [ -60.567932618947012, -31.612894465795232 ], [ -60.56797461894547, -31.612682465806486 ], [ -60.568038618942317, -31.612418465820653 ], [ -60.568071618944224, -31.612039465840247 ], [ -60.568409618914927, -31.611489465871941 ], [ -60.568532618906943, -31.611107465892726 ], [ -60.56880461888673, -31.610435465929882 ], [ -60.568768618891717, -31.610368465932911 ] ] ] ] } },
{ "type": "Feature", "properties": { "Nombre": "Reservorio Villa Añati", "Estado": "Finalizado", "Obra": "Tareas de mantenimiento y reparacion Gran Santa Fe", "Datos": null, "Tipo": "Reservorio", "Código": "6108", "Cuenca": "5- Río Parana", "Region": "Región 1, Región 3", "C Cuenca": null, "Direccion": "Direccion General de Obras por Terceros - MOP", "Resp.": null, "Localidad": "Santa Fe, Colastiné, Rincón, Arroyo Leyes", "Dpto": "La Capital" }, "geometry": { "type": "MultiPolygon", "coordinates": [ [ [ [ -60.577548618086411, -31.599057466603984 ], [ -60.57759961807912, -31.599167466598939 ], [ -60.577579618081188, -31.599176466598234 ], [ -60.581615617646413, -31.598355466683714 ], [ -60.581501617660756, -31.598238466688436 ], [ -60.577548618086411, -31.599057466603984 ] ] ] ] } },
{ "type": "Feature", "properties": { "Nombre": "Reservorio Villa California", "Estado": "Finalizado", "Obra": "Tareas de mantenimiento y reparacion Gran Santa Fe", "Datos": null, "Tipo": "Reservorio", "Código": "6108", "Cuenca": "5- Río Parana", "Region": "Región 1, Región 3", "C Cuenca": null, "Direccion": "Direccion General de Obras por Terceros - MOP", "Resp.": null, "Localidad": "Santa Fe, Colastiné, Rincón, Arroyo Leyes", "Dpto": "La Capital" }, "geometry": { "type": "MultiPolygon", "coordinates": [ [ [ [ -60.604740614996096, -31.60441946662532 ], [ -60.604603615011179, -31.604424466623573 ], [ -60.604551615015325, -31.604534466617423 ], [ -60.604496615020757, -31.604580466614451 ], [ -60.604484615020247, -31.604703466608072 ], [ -60.604426615025353, -31.604791466602968 ], [ -60.604261615041608, -31.604928466594217 ], [ -60.604092615058683, -31.60503946658671 ], [ -60.603985615069256, -31.605124466581234 ], [ -60.603848615083201, -31.605208466575483 ], [ -60.603841615083951, -31.605208466575402 ], [ -60.603777615088404, -31.605386466565655 ], [ -60.603747615090256, -31.605485466560282 ], [ -60.603849615079021, -31.605482466561529 ], [ -60.60385661507835, -31.605475466561966 ], [ -60.603959615068732, -31.605354466569235 ], [ -60.604049615060589, -31.605230466576558 ], [ -60.604061615059337, -31.605226466576852 ], [ -60.604073615058013, -31.605226466577012 ], [ -60.604223615042727, -31.605135466583256 ], [ -60.604348615030219, -31.605046466589169 ], [ -60.604455615020122, -31.604928466596302 ], [ -60.604570615009521, -31.604783466604943 ], [ -60.60467861499847, -31.604723466609194 ], [ -60.604785614986277, -31.604747466609105 ], [ -60.604853614977955, -31.604799466607179 ], [ -60.605016614958565, -31.604890466604335 ], [ -60.605146614943415, -31.604940466603221 ], [ -60.605232614933399, -31.604974466602396 ], [ -60.605329614920848, -31.605095466597263 ], [ -60.605388614913025, -31.605183466593445 ], [ -60.605456614904107, -31.605277466589403 ], [ -60.605609614885971, -31.605358466586917 ], [ -60.60576061486784, -31.605452466583756 ], [ -60.605945614846526, -31.605509466582888 ], [ -60.60613461482469, -31.60557046658182 ], [ -60.606196614818529, -31.605523466584859 ], [ -60.605963614845379, -31.60545246658597 ], [ -60.605756614869748, -31.605355466588673 ], [ -60.605612614887804, -31.605212466594384 ], [ -60.605449614908103, -31.605058466600443 ], [ -60.605373614918477, -31.604928466606289 ], [ -60.605328614924645, -31.604847466609883 ], [ -60.605308614926933, -31.604843466609911 ], [ -60.605293614928705, -31.604835466610147 ], [ -60.605178614942254, -31.604779466611721 ], [ -60.605004614962255, -31.604731466612304 ], [ -60.604941614970059, -31.604675466614449 ], [ -60.604836614982965, -31.604588466617777 ], [ -60.604746614993907, -31.604522466620129 ], [ -60.604740614996096, -31.60441946662532 ] ] ] ] } },
{ "type": "Feature", "properties": { "Nombre": "Reservorio 1 Alto Verde", "Estado": "Finalizado", "Obra": "Tareas de mantenimiento y reparacion Gran Santa Fe", "Datos": null, "Tipo": "Reservorio", "Código": "6108", "Cuenca": "5- Río Parana", "Region": "Región 1, Región 3", "C Cuenca": null, "Direccion": "Direccion General de Obras por Terceros - MOP", "Resp.": null, "Localidad": "Santa Fe, Colastiné, Rincón, Arroyo Leyes", "Dpto": "La Capital" }, "geometry": { "type": "MultiPolygon", "coordinates": [ [ [ [ -60.696873603965521, -31.660045464799328 ], [ -60.696689603990464, -31.659739464812844 ], [ -60.696654603998319, -31.659472464826063 ], [ -60.69654760401292, -31.65928946483421 ], [ -60.696395604032979, -31.659071464843574 ], [ -60.696271604049343, -31.658896464851125 ], [ -60.696188604059067, -31.658862464851953 ], [ -60.69603160407609, -31.658885464849075 ], [ -60.695827604097687, -31.658952464843392 ], [ -60.695578604123881, -31.659045464835966 ], [ -60.695364604146469, -31.659120464829844 ], [ -60.695200604163951, -31.659166464825713 ], [ -60.695116604172725, -31.659200464823062 ], [ -60.695151604168323, -31.659235464821691 ], [ -60.69523860415822, -31.659267464820942 ], [ -60.695319604149638, -31.659242464823137 ], [ -60.695482604132735, -31.659164464828887 ], [ -60.695608604120039, -31.659080464834545 ], [ -60.695711604109313, -31.65903446483799 ], [ -60.695881604091312, -31.658980464842593 ], [ -60.696064604071822, -31.658927464847299 ], [ -60.696126604065142, -31.658913464848673 ], [ -60.696218604054543, -31.658941464848244 ], [ -60.696314604042101, -31.659063464843097 ], [ -60.696313604042103, -31.659069464842808 ], [ -60.696479604020169, -31.659306464832557 ], [ -60.696597604003813, -31.659527464822624 ], [ -60.696618603999724, -31.659646464816834 ], [ -60.696635603996469, -31.659737464812373 ], [ -60.696673603990646, -31.659846464807252 ], [ -60.696812603972099, -31.660056464798124 ], [ -60.696817603971432, -31.660062464797864 ], [ -60.696873603965521, -31.660045464799328 ] ] ] ] } },
{ "type": "Feature", "properties": { "Nombre": "Reservorio Plaza Evita", "Estado": "Finalizado", "Obra": "Tareas de mantenimiento y reparacion Gran Santa Fe", "Datos": null, "Tipo": "Reservorio", "Código": "6108", "Cuenca": "5- Río Parana", "Region": "Región 1, Región 3", "C Cuenca": null, "Direccion": "Direccion General de Obras por Terceros - MOP", "Resp.": null, "Localidad": "Santa Fe, Colastiné, Rincón, Arroyo Leyes", "Dpto": "La Capital" }, "geometry": { "type": "MultiPolygon", "coordinates": [ [ [ [ -60.696297603838936, -31.672774464146528 ], [ -60.696268603841588, -31.672810464144401 ], [ -60.696255603842928, -31.672818464143813 ], [ -60.696268603841347, -31.672826464143572 ], [ -60.696624603798448, -31.673060464135574 ], [ -60.696622603798588, -31.673063464135396 ], [ -60.696688603791969, -31.67301746413845 ], [ -60.696297603838936, -31.672774464146528 ] ] ] ] } },
{ "type": "Feature", "properties": { "Nombre": "Reservorio Plaza Evita", "Estado": "Finalizado", "Obra": "Tareas de mantenimiento y reparacion Gran Santa Fe", "Datos": null, "Tipo": "Reservorio", "Código": "6108", "Cuenca": "5- Río Parana", "Region": "Región 1, Región 3", "C Cuenca": null, "Direccion": "Direccion General de Obras por Terceros - MOP", "Resp.": null, "Localidad": "Santa Fe, Colastiné, Rincón, Arroyo Leyes", "Dpto": "La Capital" }, "geometry": { "type": "MultiPolygon", "coordinates": [ [ [ [ -60.695955603878637, -31.672652464148996 ], [ -60.696041603869091, -31.67265346414986 ], [ -60.696050603868223, -31.672645464150357 ], [ -60.696063603866953, -31.672634464151077 ], [ -60.696204603855037, -31.672384464165329 ], [ -60.69607360387139, -31.67226346417003 ], [ -60.696034603877166, -31.672165464174608 ], [ -60.696035603877135, -31.672160464174855 ], [ -60.696036603877133, -31.672151464175311 ], [ -60.696037603877215, -31.672139464175924 ], [ -60.696050603877126, -31.672049464180628 ], [ -60.696030603881169, -31.671927464186606 ], [ -60.695961603890503, -31.671814464191623 ], [ -60.695890603899372, -31.671748464194188 ], [ -60.695753603915342, -31.671694464195411 ], [ -60.695644603927164, -31.671711464193379 ], [ -60.695472603945397, -31.671765464188752 ], [ -60.695445603946922, -31.671863464183438 ], [ -60.695442603947228, -31.671865464183316 ], [ -60.695389603951334, -31.671983464176765 ], [ -60.69536260395293, -31.672077464171654 ], [ -60.695386603948648, -31.672185464166457 ], [ -60.695462603938275, -31.672316464160666 ], [ -60.695491603933426, -31.672425464155427 ], [ -60.695505603931117, -31.672476464152965 ], [ -60.695547603925611, -31.672534464150498 ], [ -60.695720603905691, -31.672582464149976 ], [ -60.695887603886433, -31.67263546414911 ], [ -60.695955603878637, -31.672652464148996 ] ] ] ] } },
{ "type": "Feature", "properties": { "Nombre": "Reservorio Barrio El Pozo", "Estado": "Finalizado", "Obra": "Tareas de mantenimiento y reparacion Gran Santa Fe", "Datos": null, "Tipo": "Reservorio", "Código": "6108", "Cuenca": "5- Río Parana", "Region": "Región 1, Región 3", "C Cuenca": null, "Direccion": "Direccion General de Obras por Terceros - MOP", "Resp.": null, "Localidad": "Santa Fe, Colastiné, Rincón, Arroyo Leyes", "Dpto": "La Capital" }, "geometry": { "type": "MultiPolygon", "coordinates": [ [ [ [ -60.661607608182379, -31.63919746547381 ], [ -60.66141860820354, -31.63918246547253 ], [ -60.661424608201479, -31.639275465467868 ], [ -60.662010608135404, -31.639354465470216 ], [ -60.662475608083781, -31.63936246547491 ], [ -60.662493608081789, -31.639362465475106 ], [ -60.662789608048676, -31.639385465477154 ], [ -60.662902608036234, -31.639381465478589 ], [ -60.663019608023212, -31.639385465479638 ], [ -60.663025608022664, -31.639377465480127 ], [ -60.663060608019734, -31.639314465483693 ], [ -60.663066608021161, -31.639173465490973 ], [ -60.663061608034255, -31.638332465533679 ], [ -60.663070608034317, -31.638260465537453 ], [ -60.663145608027058, -31.638190465541811 ], [ -60.66314760802706, -31.638174465542672 ], [ -60.663162608028486, -31.637967465553309 ], [ -60.663147608031849, -31.637852465559007 ], [ -60.663142608032707, -31.637834465559838 ], [ -60.663142608033141, -31.637804465561409 ], [ -60.66313960803398, -31.637771465563056 ], [ -60.663145608036459, -31.637558465573942 ], [ -60.66314860803643, -31.637539465574942 ], [ -60.663138608040192, -31.637359465583994 ], [ -60.663192608046948, -31.636505465627991 ], [ -60.663091608059986, -31.636381465633207 ], [ -60.663085608060825, -31.636368465633783 ], [ -60.663032608068043, -31.636278465637812 ], [ -60.663026608069003, -31.636258465638743 ], [ -60.663017608070355, -31.636234465639856 ], [ -60.662957608079289, -31.636080465647034 ], [ -60.662942608083377, -31.635918465655127 ], [ -60.662822608099248, -31.63574446566269 ], [ -60.662713608114686, -31.635520465672855 ], [ -60.662658608124261, -31.635285465684237 ], [ -60.662659608124329, -31.635273465684858 ], [ -60.662665608126758, -31.635064465695528 ], [ -60.662614608135115, -31.634883465704181 ], [ -60.662475608153663, -31.634670465713516 ], [ -60.662350608169838, -31.63451546572006 ], [ -60.662219608186149, -31.634393465724802 ], [ -60.662219608186312, -31.634383465725328 ], [ -60.662217608186957, -31.634354465726773 ], [ -60.662118608198838, -31.634291465728875 ], [ -60.661968608216164, -31.634244465729644 ], [ -60.661586608258951, -31.634212465727089 ], [ -60.661586608257394, -31.634316465721824 ], [ -60.661946608217065, -31.634347465724154 ], [ -60.662078608201085, -31.634439465720945 ], [ -60.66221160818462, -31.634556465716432 ], [ -60.662349608166743, -31.634729465709114 ], [ -60.662468608150618, -31.634927465700361 ], [ -60.662488608146489, -31.635057465693965 ], [ -60.662532608138903, -31.635237465685289 ], [ -60.662563608130462, -31.635574465668466 ], [ -60.66267860811444, -31.635796465658441 ], [ -60.662769608101726, -31.6359724656505 ], [ -60.662802608094168, -31.636234465637521 ], [ -60.662878608083915, -31.636358465632078 ], [ -60.662934608075318, -31.636519465624453 ], [ -60.662993608067282, -31.636619465620036 ], [ -60.662951608060297, -31.637400465579852 ], [ -60.662956608056291, -31.637633465568037 ], [ -60.66294360805464, -31.637840465557399 ], [ -60.662963608050148, -31.637991465549916 ], [ -60.662911608053484, -31.638156465540984 ], [ -60.662829608059965, -31.638329465531324 ], [ -60.662850608053894, -31.638582465518649 ], [ -60.662853608049872, -31.638829465506142 ], [ -60.662848608047852, -31.639003465497236 ], [ -60.662843608045442, -31.63920046548715 ], [ -60.662825608046148, -31.639287465482539 ], [ -60.662118608124885, -31.639258465476292 ], [ -60.661847608155163, -31.639241465474207 ], [ -60.661607608182379, -31.63919746547381 ] ] ] ] } },
{ "type": "Feature", "properties": { "Nombre": "Limpieza de Taludes", "Estado": "Finalizado", "Obra": "Tareas de mantenimiento y reparacion Gran Santa Fe", "Datos": null, "Tipo": "Limpieza", "Código": "6108", "Cuenca": "5- Río Parana", "Region": "Región 1, Región 3", "C Cuenca": null, "Direccion": "Direccion General de Obras por Terceros - MOP", "Resp.": null, "Localidad": "Santa Fe, Colastiné, Rincón, Arroyo Leyes", "Dpto": "La Capital" }, "geometry": { "type": "MultiPolygon", "coordinates": [ [ [ [ -60.560393620088966, -31.592078466774137 ], [ -60.560885620041347, -31.591615466803056 ], [ -60.560760620056477, -31.591526466806236 ], [ -60.560465620085154, -31.591797466789256 ], [ -60.560208620111098, -31.591968466777736 ], [ -60.560154620112286, -31.592293466760594 ], [ -60.560411620079407, -31.592593466748085 ], [ -60.560618620052928, -31.592834466738051 ], [ -60.561036620003826, -31.593026466732756 ], [ -60.561444619955225, -31.593255466725537 ], [ -60.561726619920705, -31.593480466717125 ], [ -60.561956619891149, -31.593758466705388 ], [ -60.562118619869068, -31.59403846669289 ], [ -60.562317619843746, -31.594262466683631 ], [ -60.562561619818901, -31.594113466693855 ], [ -60.561950619898759, -31.593285466729483 ], [ -60.561355619970946, -31.592861466744633 ], [ -60.560989620014702, -31.5926414667519 ], [ -60.560624620058839, -31.592388466760873 ], [ -60.560488620076278, -31.592227466767564 ], [ -60.560393620088966, -31.592078466774137 ] ] ], [ [ [ -60.604241615056296, -31.604084466636998 ], [ -60.605146614955807, -31.604104466645772 ], [ -60.605146614956418, -31.604062466647928 ], [ -60.605145614957181, -31.604019466650101 ], [ -60.605144614957794, -31.60398546665181 ], [ -60.60516361495786, -31.603838466659496 ], [ -60.604206615064008, -31.603826466649725 ], [ -60.604241615056296, -31.604084466636998 ] ] ], [ [ [ -60.607835614655116, -31.604303466664796 ], [ -60.604826614989619, -31.604212466636792 ], [ -60.60487561498168, -31.604384466628559 ], [ -60.607705614667097, -31.604466466655065 ], [ -60.607835614655116, -31.604303466664796 ] ] ], [ [ [ -60.604645615009801, -31.604205466635168 ], [ -60.60102261541207, -31.604130466599731 ], [ -60.601062615405432, -31.604279466592594 ], [ -60.601066615404697, -31.604298466591676 ], [ -60.60450661502238, -31.604393466624085 ], [ -60.604645615009801, -31.604205466635168 ] ] ], [ [ [ -60.695683604074397, -31.661577464708483 ], [ -60.694892604194294, -31.659418464809523 ], [ -60.694743604209762, -31.659487464804375 ], [ -60.69518760414504, -31.660526464756447 ], [ -60.695471604099282, -31.661483464710948 ], [ -60.695537604079696, -31.662305464669906 ], [ -60.6956436040375, -31.664339464567799 ], [ -60.69563760402076, -31.665506464508415 ], [ -60.695192604043015, -31.667313464411777 ], [ -60.694808604069515, -31.668385464353118 ], [ -60.694540604086967, -31.669203464308669 ], [ -60.694161604122357, -31.66964346428216 ], [ -60.693860604145989, -31.670293464245855 ], [ -60.693693604145764, -31.671544464180485 ], [ -60.693321604167636, -31.672836464110802 ], [ -60.693155604177448, -31.673411464079827 ], [ -60.69286160420279, -31.673894464052054 ], [ -60.692330604249491, -31.674703464005166 ], [ -60.691705604309931, -31.675291463968499 ], [ -60.689555604509081, -31.677901463812436 ], [ -60.689644604498319, -31.677963463810265 ], [ -60.691847604293116, -31.675364463966311 ], [ -60.692520604229991, -31.674601464012454 ], [ -60.692942604189497, -31.674183464038261 ], [ -60.6932316041676, -31.673506464075825 ], [ -60.693547604147994, -31.672476464131559 ], [ -60.69396560412671, -31.670804464221025 ], [ -60.694124604118144, -31.6701994642535 ], [ -60.694419604094946, -31.669566464288877 ], [ -60.694897604055058, -31.66869346433845 ], [ -60.695293604030034, -31.667433464406798 ], [ -60.695653604010339, -31.666083464479296 ], [ -60.695776604007605, -31.665355464517631 ], [ -60.695786604036805, -31.663328464620715 ], [ -60.695683604074397, -31.661577464708483 ] ] ], [ [ [ -60.602915614335508, -31.662626463644219 ], [ -60.601774614468511, -31.662181463654449 ], [ -60.601759614469529, -31.662225463652021 ], [ -60.602334614402366, -31.662458463646448 ], [ -60.602687614361585, -31.662570463644574 ], [ -60.602941614330824, -31.662749463638235 ], [ -60.60348561426472, -31.663140463624273 ], [ -60.60373061423364, -31.663405463613469 ], [ -60.604233614171243, -31.663855463596043 ], [ -60.605010614079561, -31.664231463585388 ], [ -60.607584613773334, -31.665646463541428 ], [ -60.608613613655045, -31.665935463537934 ], [ -60.60862561365537, -31.665823463543752 ], [ -60.607637613768219, -31.665596463544528 ], [ -60.607639613768264, -31.665578463545494 ], [ -60.607643613768204, -31.665552463546852 ], [ -60.605598614010717, -31.664479463579173 ], [ -60.604381614155457, -31.663812463599804 ], [ -60.603811614225222, -31.663368463616216 ], [ -60.60361861424974, -31.663157463624863 ], [ -60.603182614302959, -31.662826463636943 ], [ -60.602915614335508, -31.662626463644219 ] ] ], [ [ [ -60.608696613648171, -31.665779463546745 ], [ -60.608791613637514, -31.665787463547368 ], [ -60.608810613636777, -31.665696463552205 ], [ -60.608873613634039, -31.665409463567478 ], [ -60.608961613630569, -31.66498746358991 ], [ -60.609132613617071, -31.664620463610387 ], [ -60.609038613628556, -31.664548463613027 ], [ -60.60901061363019, -31.664646463607752 ], [ -60.609009613630185, -31.664654463607345 ], [ -60.60893061363641, -31.664826463597734 ], [ -60.608841613643136, -31.665035463586158 ], [ -60.608696613648171, -31.665779463546745 ] ] ], [ [ [ -60.609101613622812, -31.664464463617961 ], [ -60.609068613627521, -31.66439546362113 ], [ -60.608806613658174, -31.664284463623929 ], [ -60.608085613741949, -31.664023463629359 ], [ -60.607779613780444, -31.663713463641784 ], [ -60.607377613837137, -31.662895463678971 ], [ -60.606030614004716, -31.66165946372719 ], [ -60.605721614041379, -31.661495463732173 ], [ -60.605388614079047, -31.661444463731119 ], [ -60.605043614117257, -31.661444463727385 ], [ -60.604649614163066, -31.661299463730469 ], [ -60.60400761424269, -31.660727463752565 ], [ -60.603954614247456, -31.66080246374819 ], [ -60.604607614166511, -31.661382463725829 ], [ -60.605122614107117, -31.661537463723548 ], [ -60.605588614055527, -31.66153746372861 ], [ -60.60586461402265, -31.661690463723804 ], [ -60.606224613979037, -31.661942463714887 ], [ -60.606639613927193, -31.662338463699317 ], [ -60.606999613880546, -31.662791463680186 ], [ -60.607225613852854, -31.66297046367356 ], [ -60.607519613811654, -31.663551463647163 ], [ -60.607770613777241, -31.663997463627279 ], [ -60.607902613760395, -31.664146463621112 ], [ -60.608390613704259, -31.664284463619421 ], [ -60.608993613633913, -31.664523463613818 ], [ -60.609101613622812, -31.664464463617961 ] ] ], [ [ [ -60.620203612680093, -31.645124464721771 ], [ -60.618980612838456, -31.643582464786878 ], [ -60.618429612907981, -31.643010464809993 ], [ -60.618398612911712, -31.642990464810694 ], [ -60.616150613169516, -31.642398464816395 ], [ -60.615088613291803, -31.642084464820798 ], [ -60.614491613358858, -31.642021464817486 ], [ -60.614356613369644, -31.642303464801724 ], [ -60.617229613041815, -31.642949464800058 ], [ -60.618147612934635, -31.643318464791282 ], [ -60.61862961287806, -31.64353346478558 ], [ -60.618934612839396, -31.643861464772201 ], [ -60.618941612838071, -31.64389946477036 ], [ -60.620034612697104, -31.645239464714084 ], [ -60.620203612680093, -31.645124464721771 ] ] ], [ [ [ -60.58734661667264, -31.621295465577628 ], [ -60.586765616760395, -31.619711465651946 ], [ -60.585932616877464, -31.618036465728181 ], [ -60.58493061700635, -31.616824465779064 ], [ -60.584351617082199, -31.616030465813218 ], [ -60.584105617113885, -31.615731465825782 ], [ -60.583958617131636, -31.615630465829334 ], [ -60.583922617133069, -31.615803465820093 ], [ -60.583924617132645, -31.615818465819377 ], [ -60.584118617108544, -31.615995465812457 ], [ -60.585817616888306, -31.618164465720444 ], [ -60.586694616766437, -31.619835465644861 ], [ -60.587181616690422, -31.621328465574138 ], [ -60.58734661667264, -31.621295465577628 ] ] ], [ [ [ -60.131285674022223, -31.138814485552551 ], [ -60.131191674037311, -31.138475485569142 ], [ -60.130302674134107, -31.138570485555089 ], [ -60.13006267415728, -31.138809485540197 ], [ -60.129719674188877, -31.139258485513391 ], [ -60.129252674229598, -31.140036485468229 ], [ -60.128173674324195, -31.141799485365713 ], [ -60.127480674389382, -31.142612485316381 ], [ -60.126839674450636, -31.143296485274316 ], [ -60.125548674581147, -31.144158485216337 ], [ -60.12441167469526, -31.144976485162246 ], [ -60.123267674803799, -31.146253485084237 ], [ -60.122330674892652, -31.147301485020261 ], [ -60.121228674975882, -31.150064484865627 ], [ -60.120971675002174, -31.150214484855216 ], [ -60.120466675054423, -31.150466484837008 ], [ -60.120512675043244, -31.15090348481478 ], [ -60.121986674849012, -31.153167484712551 ], [ -60.123914674599227, -31.155822484594783 ], [ -60.124807674482902, -31.157096484537934 ], [ -60.125630674378833, -31.158046484497156 ], [ -60.126138674315385, -31.158575484474966 ], [ -60.126362674289602, -31.158650484473394 ], [ -60.126680674251631, -31.158856484465971 ], [ -60.139106672911062, -31.156610484710363 ], [ -60.138991672930544, -31.156124484734381 ], [ -60.126787674244937, -31.158488484486167 ], [ -60.124061674595303, -31.154937484642186 ], [ -60.121119674974537, -31.151026484814654 ], [ -60.121286674963102, -31.150523484842449 ], [ -60.121475674945657, -31.150277484857142 ], [ -60.122655674855466, -31.147394485018765 ], [ -60.124591674672338, -31.14519648515267 ], [ -60.125755674555045, -31.144391485206427 ], [ -60.127177674413318, -31.143295485277861 ], [ -60.128713674268035, -31.141549485384221 ], [ -60.129545674195974, -31.140129485466435 ], [ -60.130327674124857, -31.139036485531172 ], [ -60.130484674108878, -31.138940485537788 ], [ -60.131285674022223, -31.138814485552551 ] ] ], [ [ [ -60.577137617863187, -31.617248465673111 ], [ -60.577005617879273, -31.617149465676718 ], [ -60.57661561792203, -31.617178465671021 ], [ -60.576599617923819, -31.617175465670996 ], [ -60.576177617971247, -31.617130465668723 ], [ -60.575962617996453, -31.617037465671135 ], [ -60.575671618028878, -31.617024465668656 ], [ -60.575664618029649, -31.61702446566856 ], [ -60.575189618082462, -31.617011465664074 ], [ -60.575194618079472, -31.617174465655847 ], [ -60.575562618036933, -31.617296465653631 ], [ -60.57628661795686, -31.617288465661861 ], [ -60.576507617931995, -31.617313465662992 ], [ -60.576526617929858, -31.617316465663055 ], [ -60.576541617928171, -31.617319465663048 ], [ -60.576760617902892, -31.617387465661956 ], [ -60.57676661790223, -31.617387465662013 ], [ -60.576786617900098, -31.617381465662522 ], [ -60.576971617880481, -31.617322465667517 ], [ -60.577095617867613, -31.617263465671872 ], [ -60.577137617863187, -31.617248465673111 ] ] ] ] } },
{ "type": "Feature", "properties": { "Nombre": "Proteccion con manta de H°", "Estado": "Finalizado", "Obra": "Tareas de mantenimiento y reparacion Gran Santa Fe", "Datos": null, "Tipo": "Mantas con Bloques de Hormigon", "Código": "6108", "Cuenca": "5- Río Parana", "Region": "Región 1, Región 3", "C Cuenca": null, "Direccion": "Direccion General de Obras por Terceros - MOP", "Resp.": null, "Localidad": "Santa Fe, Colastiné, Rincón, Arroyo Leyes", "Dpto": "La Capital" }, "geometry": { "type": "MultiPolygon", "coordinates": [ [ [ [ -60.604161314524553, -31.640579464778707 ], [ -60.604000414543926, -31.640475564782243 ], [ -60.603763014566077, -31.640754164765482 ], [ -60.603913214548285, -31.640832964763113 ], [ -60.604161314524553, -31.640579464778707 ] ] ] ] } },
{ "type": "Feature", "properties": { "Nombre": "Proteccion con manta de H°", "Estado": "Finalizado", "Obra": "Tareas de mantenimiento y reparacion Gran Santa Fe", "Datos": null, "Tipo": "Mantas con Bloques de Hormigon", "Código": "6108", "Cuenca": "5- Río Parana", "Region": "Región 1, Región 3", "C Cuenca": null, "Direccion": "Direccion General de Obras por Terceros - MOP", "Resp.": null, "Localidad": "Santa Fe, Colastiné, Rincón, Arroyo Leyes", "Dpto": "La Capital" }, "geometry": { "type": "MultiPolygon", "coordinates": [ [ [ [ -60.581720017384129, -31.615322365820752 ], [ -60.581569817401807, -31.615252665822656 ], [ -60.581400817416558, -31.615519865807272 ], [ -60.581528217401534, -31.615581565805513 ], [ -60.581720017384129, -31.615322365820752 ] ] ] ] } },
{ "type": "Feature", "properties": { "Nombre": "Proteccion con manta de H°", "Estado": "Finalizado", "Obra": "Tareas de mantenimiento y reparacion Gran Santa Fe", "Datos": null, "Tipo": "Mantas con Bloques de Hormigon", "Código": "6108", "Cuenca": "5- Río Parana", "Region": "Región 1, Región 3", "C Cuenca": null, "Direccion": "Direccion General de Obras por Terceros - MOP", "Resp.": null, "Localidad": "Santa Fe, Colastiné, Rincón, Arroyo Leyes", "Dpto": "La Capital" }, "geometry": { "type": "MultiPolygon", "coordinates": [ [ [ [ -60.582261317583452, -31.59777706672018 ], [ -60.582370017569986, -31.597873066716438 ], [ -60.582537617553392, -31.597740566725026 ], [ -60.582367317573222, -31.597675466726539 ], [ -60.582261317583452, -31.59777706672018 ] ] ] ] } },
{ "type": "Feature", "properties": { "Nombre": "Proteccion con manta con H°", "Estado": "Finalizado", "Obra": "Tareas de mantenimiento y reparacion Gran Santa Fe", "Datos": null, "Tipo": "Mantas con Bloques de Hormigon", "Código": "6108", "Cuenca": "5- Río Parana", "Region": "Región 1, Región 3", "C Cuenca": null, "Direccion": "Direccion General de Obras por Terceros - MOP", "Resp.": null, "Localidad": "Santa Fe, Colastiné, Rincón, Arroyo Leyes", "Dpto": "La Capital" }, "geometry": { "type": "MultiPolygon", "coordinates": [ [ [ [ -60.561466119679544, -31.611788465781643 ], [ -60.561286419700672, -31.611706265783898 ], [ -60.560920319734279, -31.612175665756034 ], [ -60.561156319707131, -31.612244165755083 ], [ -60.561466119679544, -31.611788465781643 ] ] ] ] } },
{ "type": "Feature", "properties": { "Nombre": "Proteccion con manda de H°", "Estado": "Finalizado", "Obra": "Tareas de mantenimiento y reparacion Gran Santa Fe", "Datos": null, "Tipo": "Mantas con Bloques de Hormigon", "Código": "6108", "Cuenca": "5- Río Parana", "Region": "Región 1, Región 3", "C Cuenca": null, "Direccion": "Direccion General de Obras por Terceros - MOP", "Resp.": null, "Localidad": "Santa Fe, Colastiné, Rincón, Arroyo Leyes", "Dpto": "La Capital" }, "geometry": { "type": "MultiPolygon", "coordinates": [ [ [ [ -60.567445118982739, -31.61413146572697 ], [ -60.567247919006164, -31.614025165730244 ], [ -60.567096419020004, -31.614222765718548 ], [ -60.567344518990879, -31.614334665715557 ], [ -60.567445118982739, -31.61413146572697 ] ] ] ] } },
{ "type": "Feature", "properties": { "Nombre": "Carpeta asfáltica acceso al terraplen", "Estado": "Finalizado", "Obra": "Tareas de mantenimiento y reparacion Gran Santa Fe", "Datos": null, "Tipo": "Carpeta Asfáltica", "Código": "6108", "Cuenca": "5- Río Parana", "Region": "Región 1, Región 3", "C Cuenca": null, "Direccion": "Direccion General de Obras por Terceros - MOP", "Resp.": null, "Localidad": "Santa Fe, Colastiné, Rincón, Arroyo Leyes", "Dpto": "La Capital" }, "geometry": { "type": "MultiPolygon", "coordinates": [ [ [ [ -60.608824513647079, -31.664898163592905 ], [ -60.608791013649032, -31.665015663586594 ], [ -60.609087413615292, -31.66507616358674 ], [ -60.609116913613718, -31.664963163592798 ], [ -60.608824513647079, -31.664898163592905 ] ] ] ] } },
{ "type": "Feature", "properties": { "Nombre": "Carpeta asfaltica", "Estado": "Finalizado", "Obra": "Tareas de mantenimiento y reparacion Gran Santa Fe", "Datos": null, "Tipo": "Carpeta Asfaltica", "Código": "6108", "Cuenca": "5- Río Parana", "Region": "Región 1, Región 3", "C Cuenca": null, "Direccion": "Direccion General de Obras por Terceros - MOP", "Resp.": null, "Localidad": "Santa Fe, Colastiné, Rincón, Arroyo Leyes", "Dpto": "La Capital" }, "geometry": { "type": "MultiPolygon", "coordinates": [ [ [ [ -60.695008604181673, -31.65940376481155 ], [ -60.694951004190315, -31.659249564818737 ], [ -60.694882604197588, -31.659271264816876 ], [ -60.6949469041881, -31.659429964809537 ], [ -60.695008604181673, -31.65940376481155 ] ] ] ] } },
{ "type": "Feature", "properties": { "Nombre": "Carpeta asfaltica", "Estado": "Finalizado", "Obra": "Tareas de mantenimiento y reparacion Gran Santa Fe", "Datos": null, "Tipo": "Carpeta Asfáltica", "Código": "6108", "Cuenca": "5- Río Parana", "Region": "Región 1, Región 3", "C Cuenca": null, "Direccion": "Direccion General de Obras por Terceros - MOP", "Resp.": null, "Localidad": "Santa Fe, Colastiné, Rincón, Arroyo Leyes", "Dpto": "La Capital" }, "geometry": { "type": "MultiPolygon", "coordinates": [ [ [ [ -60.695157504169849, -31.659089764829123 ], [ -60.695117204175475, -31.65901216483261 ], [ -60.694877204201141, -31.659074964826807 ], [ -60.694912104195708, -31.659178864821911 ], [ -60.695157504169849, -31.659089764829123 ] ] ] ] } },
{ "type": "Feature", "properties": { "Nombre": "Limpieza de Taludes", "Estado": "Finalizado", "Obra": "Tareas de mantenimiento y reparacion Gran Santa Fe", "Datos": null, "Tipo": "Limpieza", "Código": "6108", "Cuenca": "5- Río Parana", "Region": "Región 1, Región 3", "C Cuenca": null, "Direccion": "Direccion General de Obras por Terceros - MOP", "Resp.": null, "Localidad": "Santa Fe, Colastiné, Rincón, Arroyo Leyes", "Dpto": "La Capital" }, "geometry": { "type": "MultiPolygon", "coordinates": [ [ [ [ -60.51848262497105, -31.575684467158144 ], [ -60.518223624997937, -31.575805467149234 ], [ -60.518294624986844, -31.576026467138721 ], [ -60.51850562495774, -31.576416467121089 ], [ -60.51870462492775, -31.576959467095527 ], [ -60.518755624914519, -31.577473467069876 ], [ -60.518618624924486, -31.577830467050209 ], [ -60.518705624906765, -31.578381467023011 ], [ -60.518971624871256, -31.578792467004916 ], [ -60.519317624827089, -31.579192466988253 ], [ -60.519605624789186, -31.579601466970495 ], [ -60.520038624736927, -31.579896466960136 ], [ -60.520433624690689, -31.580063466955846 ], [ -60.52104162461842, -31.5804004669452 ], [ -60.521559624558002, -31.580611466940045 ], [ -60.521770624536366, -31.580491466948406 ], [ -60.521594624558212, -31.580331466954661 ], [ -60.521104624615766, -31.580106466960878 ], [ -60.520548624680309, -31.57990546696514 ], [ -60.520198624722383, -31.579678466972961 ], [ -60.519844624765867, -31.579387466983942 ], [ -60.519443624818386, -31.578833467007922 ], [ -60.519196624850451, -31.578512467021614 ], [ -60.518985624877125, -31.578287467030826 ], [ -60.518890624894013, -31.577854467051907 ], [ -60.518971624889545, -31.577547467068435 ], [ -60.519071624886443, -31.577003467097217 ], [ -60.518905624912975, -31.576450467123642 ], [ -60.51848262497105, -31.575684467158144 ] ] ] ] } },
{ "type": "Feature", "properties": { "Nombre": "Limpieza de Taludes", "Estado": "Finalizado", "Obra": "Tareas de mantenimiento y reparacion Gran Santa Fe", "Datos": "Costilla - Extensión 430 m", "Tipo": "Limpieza", "Código": "6108", "Cuenca": "5- Río Parana", "Region": "Región 1, Región 3", "C Cuenca": null, "Direccion": "Direccion General de Obras por Terceros - MOP", "Resp.": null, "Localidad": "Santa Fe, Colastiné, Rincón, Arroyo Leyes", "Dpto": "La Capital" }, "geometry": { "type": "MultiPolygon", "coordinates": [ [ [ [ -60.518753624942129, -31.57560846716493 ], [ -60.518719624947771, -31.575482467171021 ], [ -60.518295624993449, -31.575568467162082 ], [ -60.51832762498784, -31.575709467155228 ], [ -60.518753624942129, -31.57560846716493 ] ] ] ] } },
{ "type": "Feature", "properties": { "Nombre": "Limpieza de Taludes", "Estado": "Finalizado", "Obra": "Tareas de mantenimiento y reparacion Gran Santa Fe", "Datos": "Talud húmedo - Extensión 150 m", "Tipo": "Limpieza", "Código": "6108", "Cuenca": "5- Río Parana", "Region": "Región 1, Región 3", "C Cuenca": null, "Direccion": "Direccion General de Obras por Terceros - MOP", "Resp.": null, "Localidad": "Santa Fe, Colastiné, Rincón, Arroyo Leyes", "Dpto": "La Capital" }, "geometry": { "type": "MultiPolygon", "coordinates": [ [ [ [ -60.516739625225775, -31.571478467353948 ], [ -60.516606625239895, -31.571519467350434 ], [ -60.517406625114219, -31.574047467230084 ], [ -60.517540625099763, -31.574021467232843 ], [ -60.516739625225775, -31.571478467353948 ] ] ] ] } },
{ "type": "Feature", "properties": { "Nombre": "Limpieza de Taludes", "Estado": "Finalizado", "Obra": "Tareas de mantenimiento y reparacion Gran Santa Fe", "Datos": "Talud húmedo - 295 m de extensión", "Tipo": "Limpieza", "Código": "6108", "Cuenca": "5- Río Parana", "Region": "Región 1, Región 3", "C Cuenca": null, "Direccion": "Direccion General de Obras por Terceros - MOP", "Resp.": null, "Localidad": "Santa Fe, Colastiné, Rincón, Arroyo Leyes", "Dpto": "La Capital" }, "geometry": { "type": "MultiPolygon", "coordinates": [ [ [ [ -60.515757625381163, -31.568297467505651 ], [ -60.515914625363756, -31.568299467507238 ], [ -60.515177625468226, -31.566742467578731 ], [ -60.515296625460941, -31.566338467600634 ], [ -60.515201625471704, -31.566322467600411 ], [ -60.515030625484769, -31.566722467578195 ], [ -60.515757625381163, -31.568297467505651 ] ] ] ] } },
{ "type": "Feature", "properties": { "Nombre": "Limpieza de Taludes", "Estado": "Finalizado", "Obra": "Tareas de mantenimiento y reparacion Gran Santa Fe", "Datos": "abrir calle para acceso al terraplén", "Tipo": "Limpieza", "Código": "6108", "Cuenca": "5- Río Parana", "Region": "Región 1, Región 3", "C Cuenca": null, "Direccion": "Direccion General de Obras por Terceros - MOP", "Resp.": null, "Localidad": "Santa Fe, Colastiné, Rincón, Arroyo Leyes", "Dpto": "La Capital" }, "geometry": { "type": "MultiPolygon", "coordinates": [ [ [ [ -60.507109626597945, -31.550606468315515 ], [ -60.507102626598808, -31.55060056831573 ], [ -60.507098626599209, -31.550603468315533 ], [ -60.507109626597945, -31.550606468315515 ] ] ], [ [ [ -60.507102626598808, -31.55060056831573 ], [ -60.507337626575257, -31.55043146832687 ], [ -60.506814626640086, -31.549961468345245 ], [ -60.506806626641009, -31.549957468345376 ], [ -60.506593626661406, -31.550174468332042 ], [ -60.507102626598808, -31.55060056831573 ] ] ] ] } },
{ "type": "Feature", "properties": { "Nombre": "Limpieza de Taludes", "Estado": "Finalizado", "Obra": "Tareas de mantenimiento y reparacion Gran Santa Fe", "Datos": "Talud húmedo - Extensión 200 m", "Tipo": "Limpieza", "Código": "6108", "Cuenca": "5- Río Parana", "Region": "Región 1, Región 3", "C Cuenca": null, "Direccion": "Direccion General de Obras por Terceros - MOP", "Resp.": null, "Localidad": "Santa Fe, Colastiné, Rincón, Arroyo Leyes", "Dpto": "La Capital" }, "geometry": { "type": "MultiPolygon", "coordinates": [ [ [ [ -60.50592562675304, -31.548967468386412 ], [ -60.506199626725014, -31.548807468397552 ], [ -60.504989626873339, -31.547827468434612 ], [ -60.50470262690208, -31.548034468420969 ], [ -60.50592562675304, -31.548967468386412 ] ] ] ] } },
{ "type": "Feature", "properties": { "Nombre": "Limpieza de Taludes", "Estado": "Finalizado", "Obra": "Tareas de mantenimiento y reparacion Gran Santa Fe", "Datos": "Extensión 250 m - talud húmedo", "Tipo": "Limpieza", "Código": "6108", "Cuenca": "5- Río Parana", "Region": "Región 1, Región 3", "C Cuenca": null, "Direccion": "Direccion General de Obras por Terceros - MOP", "Resp.": null, "Localidad": "Santa Fe, Colastiné, Rincón, Arroyo Leyes", "Dpto": "La Capital" }, "geometry": { "type": "MultiPolygon", "coordinates": [ [ [ [ -60.498609627707246, -31.539106468811404 ], [ -60.494172628154445, -31.542113468610275 ], [ -60.494270628142992, -31.542154468609208 ], [ -60.498676627697954, -31.539234468805606 ], [ -60.498609627707246, -31.539106468811404 ] ] ] ] } },
{ "type": "Feature", "properties": { "Nombre": "Limpieza de Taludes", "Estado": "Finalizado", "Obra": "Tareas de mantenimiento y reparacion Gran Santa Fe", "Datos": "Talud húmedo - Extensión 90 m", "Tipo": "Limpieza", "Código": "6108", "Cuenca": "5- Río Parana", "Region": "Región 1, Región 3", "C Cuenca": null, "Direccion": "Direccion General de Obras por Terceros - MOP", "Resp.": null, "Localidad": "Santa Fe, Colastiné, Rincón, Arroyo Leyes", "Dpto": "La Capital" }, "geometry": { "type": "MultiPolygon", "coordinates": [ [ [ [ -60.496539627878626, -31.543056468587491 ], [ -60.492868628301089, -31.541956468604297 ], [ -60.492663628318446, -31.542322468583418 ], [ -60.496249627906423, -31.54335046856939 ], [ -60.496539627878626, -31.543056468587491 ] ] ] ] } },
{ "type": "Feature", "properties": { "Nombre": "Limpieza de Taludes", "Estado": "Finalizado", "Obra": "Tareas de mantenimiento y reparacion Gran Santa Fe", "Datos": "Talud húmedo - Extensión 175 m", "Tipo": "Limpieza", "Código": "6108", "Cuenca": "5- Río Parana", "Region": "Región 1, Región 3", "C Cuenca": null, "Direccion": "Direccion General de Obras por Terceros - MOP", "Resp.": null, "Localidad": "Santa Fe, Colastiné, Rincón, Arroyo Leyes", "Dpto": "La Capital" }, "geometry": { "type": "MultiPolygon", "coordinates": [ [ [ [ -60.488970628751886, -31.540637468629839 ], [ -60.489189628730983, -31.540409468643833 ], [ -60.48805862885947, -31.540184468643194 ], [ -60.487985628864763, -31.540373468632783 ], [ -60.488970628751886, -31.540637468629839 ] ] ] ] } },
{ "type": "Feature", "properties": { "Nombre": "Limpieza de Taludes", "Estado": "Finalizado", "Obra": "Tareas de mantenimiento y reparacion Gran Santa Fe", "Datos": "Talud húmedo - Extensión100 m", "Tipo": "Limpieza", "Código": "6108", "Cuenca": "5- Río Parana", "Region": "Región 1, Región 3", "C Cuenca": null, "Direccion": "Direccion General de Obras por Terceros - MOP", "Resp.": null, "Localidad": "Santa Fe, Colastiné, Rincón, Arroyo Leyes", "Dpto": "La Capital" }, "geometry": { "type": "MultiPolygon", "coordinates": [ [ [ [ -60.478774630002583, -31.532286468947149 ], [ -60.478591630021334, -31.532390468939859 ], [ -60.478894629976516, -31.53316146890376 ], [ -60.479110629953453, -31.533104468908959 ], [ -60.478774630002583, -31.532286468947149 ] ] ] ] } },
{ "type": "Feature", "properties": { "Nombre": "Limpieza de Taludes", "Estado": "Finalizado", "Obra": "Tareas de mantenimiento y reparacion Gran Santa Fe", "Datos": null, "Tipo": "Limpieza", "Código": "6108", "Cuenca": "5- Río Parana", "Region": "Región 1, Región 3", "C Cuenca": null, "Direccion": "Direccion General de Obras por Terceros - MOP", "Resp.": null, "Localidad": "Santa Fe, Colastiné, Rincón, Arroyo Leyes", "Dpto": "La Capital" }, "geometry": { "type": "MultiPolygon", "coordinates": [ [ [ [ -60.476410630298965, -31.529910469043209 ], [ -60.476252630313326, -31.530124469030589 ], [ -60.47755163014989, -31.531469468975775 ], [ -60.477779630126669, -31.531329468985387 ], [ -60.476410630298965, -31.529910469043209 ] ] ] ] } },
{ "type": "Feature", "properties": { "Nombre": "Reservorio Norte", "Estado": "Finalizado", "Obra": "Sistema de proteccion urbana villa minetti", "Datos": null, "Tipo": "Reservorio", "Código": "6109", "Cuenca": "1- Bajos submeridionales", "Region": "Región 2", "C Cuenca": null, "Direccion": "Direccion General de Obras por Terceros - MOP", "Resp.": null, "Localidad": "Villa Minetti", "Dpto": "9 de Julio" }, "geometry": { "type": "MultiPolygon", "coordinates": [ [ [ [ -61.618314, -28.615321000000311 ], [ -61.616976, -28.6155210000003 ], [ -61.617501, -28.618216000000324 ], [ -61.618816, -28.618012000000306 ], [ -61.618314, -28.615321000000311 ] ] ] ] } },
{ "type": "Feature", "properties": { "Nombre": "Reservorio Sur", "Estado": "Finalizado", "Obra": "Sistema de proteccion urbana villa minetti", "Datos": null, "Tipo": "Reservorio", "Código": "6109", "Cuenca": "1- Bajos submeridionales", "Region": "Región 2", "C Cuenca": null, "Direccion": "Direccion General de Obras por Terceros - MOP", "Resp.": null, "Localidad": "Villa Minetti", "Dpto": "9 de Julio" }, "geometry": { "type": "MultiPolygon", "coordinates": [ [ [ [ -61.616267, -28.630760000000301 ], [ -61.614798, -28.63107300000031 ], [ -61.615235, -28.632665000000305 ], [ -61.616662, -28.632378000000308 ], [ -61.616267, -28.630760000000301 ] ] ] ] } }
]
}
