{
"type": "FeatureCollection",
"name": "Ubicacion maquinas volantes",
"crs": { "type": "name", "properties": { "name": "urn:ogc:def:crs:OGC:1.3:CRS84" } },
"features": [
{ "type": "Feature", "properties": { "Nombre": "Limpieza Canal Principal", "Datos": null, "Estado": "Finalizado", "Localidad": "Hughes", "Tipo": "Limpieza", "Region": "Region 6", "Cuenca": null, "Obra": "Maquinas Volantes en Hughes", "Código": null, "C Cuenca": null, "Direccion": null, "Resp.": null, "Dpto": "General Lopez" }, "geometry": { "type": "Point", "coordinates": [ -61.290984707061135, -33.782070485116293, 0.0 ] } },
{ "type": "Feature", "properties": { "Nombre": "Limpieza Canal Principal", "Datos": null, "Estado": "En Ejecucion", "Localidad": "Hughes", "Tipo": "Limpieza", "Region": "Region 6", "Cuenca": null, "Obra": "Maquinas Volantes en Hughes", "Código": null, "C Cuenca": null, "Direccion": null, "Resp.": null, "Dpto": "General Lopez" }, "geometry": { "type": "Point", "coordinates": [ -61.290984707061135, -33.782070485116293, 0.0 ] } },
{ "type": "Feature", "properties": { "Nombre": "Limpieza Canal Sec. Cello", "Datos": null, "Estado": "En Ejecucion", "Localidad": "Estacion Clucellas", "Tipo": "Limpieza", "Region": "Region 4", "Cuenca": null, "Obra": "Maquinas Volantes en Estacion Clucellas", "Código": null, "C Cuenca": null, "Direccion": null, "Resp.": null, "Dpto": "Castellanos" }, "geometry": { "type": "Point", "coordinates": [ -61.761119239185369, -31.513306090444676, 0.0 ] } },
{ "type": "Feature", "properties": { "Nombre": "Prestamo Gato Colorado", "Datos": null, "Estado": "En Ejecucion", "Localidad": "Gato Colorado", "Tipo": "Limpieza", "Region": "Region 2", "Cuenca": null, "Obra": "Maquinas Volantes en Gato Colorado", "Código": null, "C Cuenca": null, "Direccion": null, "Resp.": null, "Dpto": "9 de Julio" }, "geometry": { "type": "Point", "coordinates": [ -61.266071636457504, -28.083858288424285, 0.0 ] } },
{ "type": "Feature", "properties": { "Nombre": "Alteo Camino Comunal", "Datos": null, "Estado": "En Ejecucion", "Localidad": "Pedro Gomez Cello", "Tipo": "Alteo", "Region": "Region 3", "Cuenca": null, "Obra": "Maquinas Volantes en Pedro Gomez Cello", "Código": null, "C Cuenca": null, "Direccion": null, "Resp.": null, "Dpto": "San Justo" }, "geometry": { "type": "Point", "coordinates": [ -60.326582493507452, -30.034223785206347, 0.0 ] } },
{ "type": "Feature", "properties": { "Nombre": "Ejecucion de Laminadores", "Datos": null, "Estado": "En Ejecucion", "Localidad": "Ibarlucea", "Tipo": "Laminador", "Region": "Region 5", "Cuenca": null, "Obra": "Maquinas Volantes en Ibarlucea", "Código": null, "C Cuenca": null, "Direccion": null, "Resp.": null, "Dpto": "Rosario" }, "geometry": { "type": "Point", "coordinates": [ -60.825935222606248, -32.866169438025288, 0.0 ] } },
{ "type": "Feature", "properties": { "Nombre": "Reconstruccion Terraplen y Limpieza de Canales", "Datos": null, "Estado": "En Ejecucion", "Localidad": "Arteaga", "Tipo": "Limpieza", "Region": "Region 5", "Cuenca": null, "Obra": "Maquinas Volantes en Arteaga", "Código": null, "C Cuenca": null, "Direccion": null, "Resp.": null, "Dpto": "Caseros" }, "geometry": { "type": "Point", "coordinates": [ -61.819354369734938, -33.084952363965009, 0.0 ] } },
{ "type": "Feature", "properties": { "Nombre": "Intervención en RP 87s y A° El Spin", "Datos": null, "Estado": "Finalizado", "Localidad": "Margarita", "Tipo": "Limpieza", "Region": "Region 1", "Cuenca": null, "Obra": "Maquinas Volantes en Margarita", "Código": null, "C Cuenca": null, "Direccion": null, "Resp.": null, "Dpto": "Vera" }, "geometry": { "type": "Point", "coordinates": [ -60.212741290625367, -29.702656503286143, 0.0 ] } },
{ "type": "Feature", "properties": { "Nombre": "Limpieza de canales del Ejido Urbano", "Datos": null, "Estado": "En Ejecucion", "Localidad": "Sauce Viejo", "Tipo": "Limpieza", "Region": "Region 4", "Cuenca": null, "Obra": "Maquinas Volantes en Sauce Viejo", "Código": null, "C Cuenca": null, "Direccion": null, "Resp.": null, "Dpto": "La Capital" }, "geometry": { "type": "Point", "coordinates": [ -60.87147374658435, -31.763462418741508, 0.0 ] } },
{ "type": "Feature", "properties": { "Nombre": "Limpieza de canales de descarga", "Datos": null, "Estado": "En Ejecucion", "Localidad": "Wheelwright", "Tipo": "Limpieza", "Region": "Region 5", "Cuenca": null, "Obra": "Maquinas Volantes en Wheelwright", "Código": null, "C Cuenca": null, "Direccion": null, "Resp.": null, "Dpto": "General Lopez" }, "geometry": { "type": "Point", "coordinates": [ -61.199950775604243, -33.778777768242549, 0.0 ] } },
{ "type": "Feature", "properties": { "Nombre": "Limpieza de cavas de agua potable ASSA", "Datos": null, "Estado": "En Ejecucion", "Localidad": "Esperanza", "Tipo": "Limpieza", "Region": "Region 3", "Cuenca": null, "Obra": "Maquinas Volantes en Esperanza", "Código": null, "C Cuenca": null, "Direccion": null, "Resp.": null, "Dpto": "Las Colonias" }, "geometry": { "type": "Point", "coordinates": [ -60.907533797497322, -31.395433665342335, 0.0 ] } },
{ "type": "Feature", "properties": { "Nombre": "Reacopndicionamiento de reservorio", "Datos": null, "Estado": "En Ejecucion", "Localidad": "Rincon", "Tipo": "Limpieza", "Region": "Region 1", "Cuenca": null, "Obra": "Maquinas Volantes en Rincon", "Código": null, "C Cuenca": null, "Direccion": null, "Resp.": null, "Dpto": "La Capital" }, "geometry": { "type": "Point", "coordinates": [ -60.562507205019905, -31.60865222016022, 0.0 ] } },
{ "type": "Feature", "properties": { "Nombre": "Limpieza Canal EVARSA", "Datos": null, "Estado": "En Ejecucion", "Localidad": "Venado Tuerto", "Tipo": "Limpieza", "Region": "Region 6", "Cuenca": null, "Obra": "Maquinas Volantes en Venado Tuerto", "Código": null, "C Cuenca": null, "Direccion": null, "Resp.": null, "Dpto": "General Lopez" }, "geometry": { "type": "Point", "coordinates": [ -62.002741347648517, -33.749900220128531, 0.0 ] } },
{ "type": "Feature", "properties": { "Nombre": "Intervención en RP 87s y A° El Spin", "Datos": null, "Estado": "En Ejecucion", "Localidad": "Margarita", "Tipo": "Limpieza", "Region": "Region 1", "Cuenca": null, "Obra": "Maquinas Volantes en Margarita", "Código": null, "C Cuenca": null, "Direccion": null, "Resp.": null, "Dpto": "Vera" }, "geometry": { "type": "Point", "coordinates": [ -60.212741290625367, -29.702656503286143, 0.0 ] } },
{ "type": "Feature", "properties": { "Nombre": "Reconstitucion de Talud del rio Carcaraña", "Datos": null, "Estado": "En Ejecucion", "Localidad": "Carcaraña", "Tipo": "Limpieza", "Region": "Region 5", "Cuenca": null, "Obra": "Maquinas Volantes en Carcaraña", "Código": null, "C Cuenca": null, "Direccion": null, "Resp.": null, "Dpto": "San Lorenzo" }, "geometry": { "type": "Point", "coordinates": [ -61.180493248208862, -32.861274991516538, 0.0 ] } },
{ "type": "Feature", "properties": { "Nombre": "Alteo Camino Comunal", "Datos": null, "Estado": "En Ejecucion", "Localidad": "Pedro Gomez Cello", "Tipo": "Alteo", "Region": "Region 3", "Cuenca": null, "Obra": "Maquinas Volantes en Pedro Gomez Cello", "Código": null, "C Cuenca": null, "Direccion": null, "Resp.": null, "Dpto": "San Justo" }, "geometry": { "type": "Point", "coordinates": [ -60.348237954285558, -30.034922061009404, 0.0 ] } },
{ "type": "Feature", "properties": { "Nombre": "Limpieza Reservorio Agua", "Datos": null, "Estado": "En Ejecucion", "Localidad": "San Bernardo", "Tipo": "Limpieza", "Region": "Region 2", "Cuenca": null, "Obra": "Maquinas Volantes en San Bernardo", "Código": null, "C Cuenca": null, "Direccion": null, "Resp.": null, "Dpto": "9 de Julio" }, "geometry": { "type": "Point", "coordinates": [ -61.529375639296909, -28.674586856079653, 0.0 ] } },
{ "type": "Feature", "properties": { "Nombre": "Limpieza canal de defensa", "Datos": null, "Estado": "En Ejecucion", "Localidad": "Pedro Gomez Cello", "Tipo": "Limpieza", "Region": "Region 3", "Cuenca": null, "Obra": "Maquinas Volantes en Pedro Gomez Cello", "Código": null, "C Cuenca": null, "Direccion": null, "Resp.": null, "Dpto": "San Justo" }, "geometry": { "type": "Point", "coordinates": [ -60.316984056654697, -30.038838554140899, 0.0 ] } },
{ "type": "Feature", "properties": { "Nombre": "Limpieza Canal Colector 12 en Vera y Pintado", "Datos": null, "Estado": "En Ejecucion", "Localidad": "Vera y Pintado", "Tipo": "Limpieza", "Region": "Region 1", "Cuenca": null, "Obra": "Maquinas Volantes en Vera y Pintado", "Código": null, "C Cuenca": null, "Direccion": null, "Resp.": null, "Dpto": "San Justo" }, "geometry": { "type": "Point", "coordinates": [ -60.322230194424193, -30.131107410842745, 0.0 ] } },
{ "type": "Feature", "properties": { "Nombre": "Limpieza Canal EVARSA", "Datos": null, "Estado": "En Ejecucion", "Localidad": "Venado Tuerto", "Tipo": "Limpieza", "Region": "Region 6", "Cuenca": null, "Obra": "Maquinas Volantes en Venado Tuerto", "Código": null, "C Cuenca": null, "Direccion": null, "Resp.": null, "Dpto": "General Lopez" }, "geometry": { "type": "Point", "coordinates": [ -62.002741347648502, -33.749900220128488, 0.0 ] } }
]
}
