{
"type": "FeatureCollection",
"name": "Ubicaciones_atn",
"crs": { "type": "name", "properties": { "name": "urn:ogc:def:crs:OGC:1.3:CRS84" } },
"features": [
{ "type": "Feature", "properties": { "Localidad": "Maria Teresa", "Nombre": "Localidad ATN - Maria Teresa", "Estado": "En Ejecucion", "Datos": null, "Tipo": "Ubicacion", "Region": "Región 6", "Cuenca": "23- Las Encadenadas - Salado Brazo Norte", "Obra": "ATN Maria Teresa", "Código": null, "C Cuenca": null, "Direccion": null, "Resp.": null, "Dpto": "General Lopez" }, "geometry": { "type": "Point", "coordinates": [ -61.907801006243233, -34.008993666257993 ] } },
{ "type": "Feature", "properties": { "Localidad": "Christophersen", "Nombre": "Localidad ATN - Christophersen", "Estado": "En Ejecucion", "Datos": null, "Tipo": "Ubicacion", "Region": "Región 6", "Cuenca": "27- Laguna El Chanar - Salado Brazo sur", "Obra": "ATN Christophersen", "Código": null, "C Cuenca": null, "Direccion": null, "Resp.": null, "Dpto": "General Lopez" }, "geometry": { "type": "Point", "coordinates": [ -62.022888567955611, -34.181170847617921 ] } },
{ "type": "Feature", "properties": { "Localidad": "Teodelina", "Nombre": "Localidad ATN - Teodelina", "Estado": "En Ejecucion", "Datos": null, "Tipo": "Ubicacion", "Region": "Región 6", "Cuenca": "23- Las Encadenadas - Salado Brazo Norte", "Obra": "ATN Teodelina", "Código": null, "C Cuenca": null, "Direccion": null, "Resp.": null, "Dpto": "General Lopez" }, "geometry": { "type": "Point", "coordinates": [ -61.526037186519261, -34.18276581450894 ] } },
{ "type": "Feature", "properties": { "Localidad": "Sanford", "Nombre": "Localidad ATN Sanford", "Estado": "En Ejecucion", "Datos": null, "Tipo": "Ubicacion", "Region": "Región 5", "Cuenca": "17- Arroyo Saladillo", "Obra": "ATN Sanford", "Código": null, "C Cuenca": null, "Direccion": null, "Resp.": null, "Dpto": "Casilda" }, "geometry": { "type": "Point", "coordinates": [ -61.281548431570513, -33.14253289264299 ] } },
{ "type": "Feature", "properties": { "Localidad": "La Chispa", "Nombre": "Localidad ATN La Chispa", "Estado": "En Ejecucion", "Datos": null, "Tipo": "Ubicacion", "Region": "Región 5", "Cuenca": "14- Río Carcaraña", "Obra": "ATN La Chispa", "Código": null, "C Cuenca": null, "Direccion": null, "Resp.": null, "Dpto": "General Lopez" }, "geometry": { "type": "Point", "coordinates": [ -61.922369446941282, -33.462507119620007 ] } },
{ "type": "Feature", "properties": { "Localidad": "Vera", "Nombre": "Localidad ATN Vera", "Estado": "En Ejecucion", "Datos": null, "Tipo": "Ubicacion", "Region": "Region 1", "Cuenca": "10- Los Saladillos", "Obra": "ATN Vera", "Código": null, "C Cuenca": null, "Direccion": null, "Resp.": null, "Dpto": "Vera" }, "geometry": { "type": "Point", "coordinates": [ -60.205045501723362, -29.474481101686347 ] } },
{ "type": "Feature", "properties": { "Localidad": "Cañada Rosquin", "Nombre": "Localidad ATN Cañada Rosquin", "Estado": "En Ejecucion", "Datos": null, "Tipo": "Ubicacion", "Region": "Region 4", "Cuenca": "13- Cañada Carrizales", "Obra": "ATN Cañada Rosquin", "Código": null, "C Cuenca": null, "Direccion": null, "Resp.": null, "Dpto": "San Martin" }, "geometry": { "type": "Point", "coordinates": [ -61.601017560980345, -32.050484665571126 ] } },
{ "type": "Feature", "properties": { "Localidad": "Ibarlucea", "Nombre": "Localidad ATN Ibarlucea", "Estado": "En Ejecucion", "Datos": null, "Tipo": "Ubicacion", "Region": "Región 5", "Cuenca": "16- Arroyo Ludueña", "Obra": "ATN Ibarlucea", "Código": null, "C Cuenca": null, "Direccion": null, "Resp.": null, "Dpto": "Rosario" }, "geometry": { "type": "Point", "coordinates": [ -60.82577369704839, -32.865318270731414 ] } },
{ "type": "Feature", "properties": { "Localidad": "Christophersen", "Nombre": "Incremento sección alcantarilla existente", "Estado": "Sin Ejecutar", "Datos": "Reemplazo de alcantarilla de tubos", "Tipo": "Alcantarilla", "Region": "Region 6", "Cuenca": "27- Laguna El Chanar - Salado Brazo sur", "Obra": "ATN Christophersen", "Código": null, "C Cuenca": null, "Direccion": null, "Resp.": null, "Dpto": "General Lopez" }, "geometry": { "type": "Point", "coordinates": [ -62.021489886189293, -34.178489212505866 ] } },
{ "type": "Feature", "properties": { "Localidad": "Christophersen", "Nombre": "Laminador", "Estado": "Sin Ejecutar", "Datos": "Construcción de laminador en RP4s", "Tipo": "Laminador", "Region": "Region 6", "Cuenca": "27- Laguna El Chanar - Salado Brazo sur", "Obra": "ATN Christophersen", "Código": null, "C Cuenca": null, "Direccion": null, "Resp.": null, "Dpto": "General Lopez" }, "geometry": { "type": "Point", "coordinates": [ -62.030112698831253, -34.182105641395594 ] } },
{ "type": "Feature", "properties": { "Localidad": "Christophersen", "Nombre": "Incremento sección cruce RP4s y Camino Vecinal Oeste", "Estado": "Sin Ejecutar", "Datos": "Incorporación de una nueva hilera de tubos de cruce en la intersección de la RP4s con la avenida.", "Tipo": "Alcantarilla", "Region": "Región 6", "Cuenca": "27- Laguna El Chanar - Salado Brazo sur", "Obra": "ATN Christophersen", "Código": null, "C Cuenca": null, "Direccion": null, "Resp.": null, "Dpto": "General Lopez" }, "geometry": { "type": "Point", "coordinates": [ -62.028161975197136, -34.182337127325326 ] } },
{ "type": "Feature", "properties": { "Localidad": "Maria Teresa", "Nombre": "Dos alcantarillas", "Estado": "Sin Ejecutar", "Datos": "2 Alcantarillas Diam. 80", "Tipo": "Alcantarilla", "Region": "Región 6", "Cuenca": "27- Laguna El Chanar - Salado Brazo sur", "Obra": "ATN Maria Teresa", "Código": null, "C Cuenca": null, "Direccion": null, "Resp.": null, "Dpto": "General Lopez" }, "geometry": { "type": "Point", "coordinates": [ -61.916042479250585, -34.027001320550099 ] } },
{ "type": "Feature", "properties": { "Localidad": "Maria Teresa", "Nombre": "2 Alcantarillas diam 80 con clapetas", "Estado": "Sin Ejecutar", "Datos": "Diam 80 con clapetas", "Tipo": "Alcantarilla", "Region": "Región 6", "Cuenca": "27- Laguna El Chanar - Salado Brazo sur", "Obra": "ATN Maria Teresa", "Código": null, "C Cuenca": null, "Direccion": null, "Resp.": null, "Dpto": "General Lopez" }, "geometry": { "type": "Point", "coordinates": [ -61.920694796027966, -34.024381451464883 ] } },
{ "type": "Feature", "properties": { "Localidad": "Maria Teresa", "Nombre": "Alcantarilla", "Estado": "Sin Ejecutar", "Datos": "Con Compuerta, preparada para colocación de bomba.", "Tipo": "Alcantarilla", "Region": "Región 6", "Cuenca": "27- Laguna El Chanar - Salado Brazo sur", "Obra": "ATN Maria Teresa", "Código": null, "C Cuenca": null, "Direccion": null, "Resp.": null, "Dpto": "General Lopez" }, "geometry": { "type": "Point", "coordinates": [ -61.920672700342315, -34.024029201295519 ] } },
{ "type": "Feature", "properties": { "Localidad": "Maria Teresa", "Nombre": "Laminador", "Estado": "Sin Ejecutar", "Datos": "4 laminadores sobre RP 5s.", "Tipo": "Laminador", "Region": "Región 6", "Cuenca": "23- Las Encadenadas - Salado Brazo Norte", "Obra": "ATN Maria Teresa", "Código": null, "C Cuenca": null, "Direccion": null, "Resp.": null, "Dpto": "General Lopez" }, "geometry": { "type": "Point", "coordinates": [ -61.897441970409851, -34.011744550136854 ] } },
{ "type": "Feature", "properties": { "Localidad": "Maria Teresa", "Nombre": "Laminador", "Estado": "Sin Ejecutar", "Datos": "4 laminadores sobre RP 5s.", "Tipo": "Laminador", "Region": "Región 6", "Cuenca": "23- Las Encadenadas - Salado Brazo Norte", "Obra": "ATN Maria Teresa", "Código": null, "C Cuenca": null, "Direccion": null, "Resp.": null, "Dpto": "General Lopez" }, "geometry": { "type": "Point", "coordinates": [ -61.894697818934205, -34.014104064070899 ] } },
{ "type": "Feature", "properties": { "Localidad": "Maria Teresa", "Nombre": "Laminador", "Estado": "Sin Ejecutar", "Datos": "4 laminadores sobre RP 5s.", "Tipo": "Laminador", "Region": "Región 6", "Cuenca": "23- Las Encadenadas - Salado Brazo Norte", "Obra": "ATN Maria Teresa", "Código": null, "C Cuenca": null, "Direccion": null, "Resp.": null, "Dpto": "General Lopez" }, "geometry": { "type": "Point", "coordinates": [ -61.892598675684873, -34.015900811626402 ] } },
{ "type": "Feature", "properties": { "Localidad": "Maria Teresa", "Nombre": "Laminador", "Estado": "Sin Ejecutar", "Datos": "4 laminadores sobre RP 5s.", "Tipo": "Laminador", "Region": "Región 6", "Cuenca": "23- Las Encadenadas - Salado Brazo Norte", "Obra": "ATN Maria Teresa", "Código": null, "C Cuenca": null, "Direccion": null, "Resp.": null, "Dpto": "General Lopez" }, "geometry": { "type": "Point", "coordinates": [ -61.88764380516217, -34.020117381447619 ] } },
{ "type": "Feature", "properties": { "Localidad": "Teodelina", "Nombre": "2 Vados Puente Girard", "Estado": "Sin Ejecutar", "Datos": null, "Tipo": "Vado", "Region": "Región 6", "Cuenca": "23- Las Encadenadas - Salado Brazo Norte", "Obra": "ATN Teodelina", "Código": null, "C Cuenca": null, "Direccion": null, "Resp.": null, "Dpto": "General Lopez" }, "geometry": { "type": "Point", "coordinates": [ -61.581970218500466, -34.143172853724472 ] } },
{ "type": "Feature", "properties": { "Localidad": "Teodelina", "Nombre": "Alcantarilla Barricarte", "Estado": "Sin Ejecutar", "Datos": null, "Tipo": "Alcantarilla", "Region": "Región 6", "Cuenca": "23- Las Encadenadas - Salado Brazo Norte", "Obra": "ATN Teodelina", "Código": null, "C Cuenca": null, "Direccion": null, "Resp.": null, "Dpto": "General Lopez" }, "geometry": { "type": "Point", "coordinates": [ -61.568949748691217, -34.159725861349983 ] } },
{ "type": "Feature", "properties": { "Localidad": "Teodelina", "Nombre": "Alcantarilla Ruta Angosta", "Estado": "Sin Ejecutar", "Datos": null, "Tipo": "Alcantarilla", "Region": "Región 6", "Cuenca": "23- Las Encadenadas - Salado Brazo Norte", "Obra": "ATN Teodelina", "Código": null, "C Cuenca": null, "Direccion": null, "Resp.": null, "Dpto": "General Lopez" }, "geometry": { "type": "Point", "coordinates": [ -61.537509865136364, -34.180288980906475 ] } },
{ "type": "Feature", "properties": { "Localidad": "Candelaria", "Nombre": "REEMPLAZO DE ALCANTARILLA - CANAL CANDELARIA", "Estado": "Sin Ejecutar", "Datos": "Provisión y colocación de alcantarilla de módulos tipo pórtico pre-moldeados de H°A° de 1 HILERA de L=2.00m H=2.00m y AC=10m", "Tipo": "Alcantarilla", "Region": "Región 5", "Cuenca": "17- Arroyo Saladillo", "Obra": "ATN Candelaria", "Código": null, "C Cuenca": null, "Direccion": null, "Resp.": null, "Dpto": "Casilda" }, "geometry": { "type": "Point", "coordinates": [ -61.255565021450515, -33.125196477425746 ] } },
{ "type": "Feature", "properties": { "Localidad": "Malabrigo", "Nombre": "Alcantarillas de Acceso", "Estado": "En Ejecucion", "Datos": "Reemplazo de 10 alcantarillas de acceso", "Tipo": "Alcantarilla", "Region": "Region 1", "Cuenca": null, "Obra": "ATN Malabrigo", "Código": null, "C Cuenca": null, "Direccion": null, "Resp.": null, "Dpto": "General Obligado" }, "geometry": { "type": "Point", "coordinates": [ -59.960495139941031, -29.354706502874244 ] } },
{ "type": "Feature", "properties": { "Localidad": "Malabrigo", "Nombre": "Cruce RN11", "Estado": "En Ejecucion", "Datos": "Tunnel Liner 2°", "Tipo": "Alcantarilla", "Region": "Region 1", "Cuenca": null, "Obra": "ATN Malabrigo", "Código": null, "C Cuenca": null, "Direccion": null, "Resp.": null, "Dpto": "General Obligado" }, "geometry": { "type": "Point", "coordinates": [ -59.96905225472603, -29.358947923404909 ] } },
{ "type": "Feature", "properties": { "Localidad": "Malabrigo", "Nombre": "Cruce RN11", "Estado": "En Ejecucion", "Datos": "Tunnel Liner 1°", "Tipo": "Alcantarilla", "Region": "Region 1", "Cuenca": null, "Obra": "ATN Malabrigo", "Código": null, "C Cuenca": null, "Direccion": null, "Resp.": null, "Dpto": "General Obligado" }, "geometry": { "type": "Point", "coordinates": [ -59.948539025016508, -29.349761436541208 ] } },
{ "type": "Feature", "properties": { "Localidad": "Vera", "Nombre": "Alcantarilla Tunel N°1", "Estado": "En Ejecucion", "Datos": "Tunel linner 1,2m", "Tipo": "Alcantarilla", "Region": "Region 1", "Cuenca": null, "Obra": "ATN Vera", "Código": null, "C Cuenca": null, "Direccion": null, "Resp.": null, "Dpto": "Vera" }, "geometry": { "type": "Point", "coordinates": [ -60.206100752671958, -29.474690816887016 ] } },
{ "type": "Feature", "properties": { "Localidad": "Vera", "Nombre": "Alcantarilla Tunel N°2", "Estado": "En Ejecucion", "Datos": "Tunel linner 1,2m", "Tipo": "Alcantarilla", "Region": "Region 1", "Cuenca": null, "Obra": "ATN Vera", "Código": null, "C Cuenca": null, "Direccion": null, "Resp.": null, "Dpto": "Vera" }, "geometry": { "type": "Point", "coordinates": [ -60.205954159796462, -29.474572565300807 ] } },
{ "type": "Feature", "properties": { "Localidad": "Vera", "Nombre": "Alcantarilla Tunel N°3", "Estado": "En Ejecucion", "Datos": "Tunel linner 1,2m", "Tipo": "Alcantarilla", "Region": "Region 1", "Cuenca": null, "Obra": "ATN Vera", "Código": null, "C Cuenca": null, "Direccion": null, "Resp.": null, "Dpto": "Vera" }, "geometry": { "type": "Point", "coordinates": [ -60.185686228831912, -29.459622046572996 ] } },
{ "type": "Feature", "properties": { "Localidad": "Vera", "Nombre": "Alcantarilla Tunel N°4", "Estado": "En Ejecucion", "Datos": "Tunel linner 1,2m", "Tipo": "Alcantarilla", "Region": "Region 1", "Cuenca": null, "Obra": "ATN Vera", "Código": null, "C Cuenca": null, "Direccion": null, "Resp.": null, "Dpto": "Vera" }, "geometry": { "type": "Point", "coordinates": [ -60.185357860790823, -29.459489135699243 ] } },
{ "type": "Feature", "properties": { "Localidad": "Vera", "Nombre": "Alcantarilla Cruce RP3", "Estado": "Sin Ejecutar", "Datos": "Va a realizarce por adicional de obra o convenio", "Tipo": "Alcantarilla", "Region": "Region 1", "Cuenca": null, "Obra": "ATN Vera", "Código": null, "C Cuenca": null, "Direccion": null, "Resp.": null, "Dpto": "Vera" }, "geometry": { "type": "Point", "coordinates": [ -60.192416796388358, -29.447254494311256 ] } },
{ "type": "Feature", "properties": { "Localidad": "Vera", "Nombre": "Alcantarilla Tunel N°5", "Estado": "En Ejecucion", "Datos": "Tunel linner 1,2m", "Tipo": "Alcantarilla", "Region": "Region 1", "Cuenca": null, "Obra": "ATN Vera", "Código": null, "C Cuenca": null, "Direccion": null, "Resp.": null, "Dpto": "Vera" }, "geometry": { "type": "Point", "coordinates": [ -60.245484394600261, -29.459830208456342 ] } },
{ "type": "Feature", "properties": { "Localidad": "Pozo Borrado", "Nombre": "Alcantarilla Pozo Borrado", "Estado": "Finalizado", "Datos": null, "Tipo": "Alcantarilla", "Region": null, "Cuenca": "1- Bajos Submeriodinales", "Obra": null, "Código": null, "C Cuenca": "03 - Comite Pozo Borrado", "Direccion": null, "Resp.": null, "Dpto": "9 de Julio" }, "geometry": { "type": "Point", "coordinates": [ -61.149598575939564, -28.959535452448335 ] } }
]
}
